id,address,district,province,longitude,latitude,zipcode
0,Website Thegioididong.com,,Online,,,
1,"01 Lương Ngọc Quyến, tổ 4, P. Hoàng Văn Thụ",TP. Thái Nguyên,Thái Nguyên,105.82419,21.600864,24000
2,"02 Đường Nguyễn Trãi, Phường Nghĩa Lộ",TP Quảng Ngãi,Quảng Ngãi,108.7936,15.1129,53000
3,"02 Phan Chu Trinh, Phường An Mỹ, Thành phố Tam Kỳ",Tỉnh Quảng Nam,Quảng Nam,108.482468,15.573461,51000
4,"04 Ngõ 177 Định Công, P. Định Công",Q. Hoàng Mai,Hà Nội,105.83465,20.982263,10000
5,"05 Nguyễn Tất Thành, P.Hoa Lư",TP.Pleiku ,Gia Lai,108.0075359,13.985216,61000
6,"06 Hai Bà Trưng, Phường Lê Hồng Phong, Thành phố Quảng Ngãi",Tỉnh Quảng Ngãi,Quảng Ngãi,108.801188,15.132941,53000
7,"1 Trường Chinh, TT. Ea Drăng",H. Ea H'leo,Đắk Lắk,108.213164,13.2034477,63000
8,"1/25A Thủ Khoa Huân, KP Hòa Lân 1, P.Thuận Giao",TX.Thuận An,Bình Dương,106.70166,10.955949,75000
9,"1001 Đường Nguyễn Hữu Thọ, Phường Khuê Trung",Quận Cẩm Lệ,Đà Nẵng,108.21123,16.020536,50000
10,"10-12 đường Võ Nguyên Giáp, Tổ 1, P.Sông Cầu",TP.Bắc Kạn,Bắc Kạn,105.83843,22.152492,23000
11,"102 Lê Lợi, P. Châu Phú B",TP. Châu Đốc,An Giang,105.12756,10.706591,90000
12,"102 Phạm Văn Đồng, P. Mai Dịch, Q. Cầu Giấy",TP. Hà Nội ( Đầu Ngõ 1 đường Phạm Văn Đồng,Hà Nội,105.7808,21.042511,10000
13,"104 Thủ Khoa Nghĩa, P. Châu Phú A",TP. Châu Đốc,An Giang,105.11304,10.714168,90000
14,"106 Quốc Lộ 1, P.2",TP.Tân An,Long An,106.4076411,10.5398434,82000
15,"1082 Phú Riềng Đỏ, P.Tân Thiện",Thị xã Đồng Xoài,Bình Phước,106.9007812,11.5353053,67000
16,"110 Nguyễn Văn Linh , P.Nam Dương",Q.Hải Châu,Đà Nẵng,108.2139587,16.0603409,50000
17,"110A Quốc Lộ 1A, TT.Sông Vệ",H.Tư Nghĩa,Quảng Ngãi,108.8499,15.044575,53000
18,"112 - 114, Quốc Lộ 14, TT.Đức Phong",H.Bù Đăng,Bình Phước,107.24754,11.812611,67000
19,"112B đường Đồng Khởi, khu phố 5, P.Phú Khương",TP.Bến Tre,Bến Tre,106.37358,10.248888,86000
20,"1192-Quang Trung, P. Chánh Lộ",Tp. Quảng Ngãi,Quảng Ngãi,108.81648,15.099136,53000
21,"11A Phố Điện Biên Phủ, P. Điện Biên",Q. Ba Đình,Hà Nội,105.84193,21.02945,10000
22,"11A Thái Hà, P.Trung Liệt",Q.Đống Đa,Hà Nội,105.8201623,21.0129976,10000
23,"120 - 122 - 124 Đường Kênh Liêm, P.Cao Thắng",TP.Hạ Long,Quảng Ninh,107.09131,20.958848,1000
24,"12-14 Lý Thường Kiệt, P. Lê Hồng Phong",TP. Quy Nhơn,Bình Định,109.22483,13.77614,55000
25,"121D-123 Phạm Ngũ Lão, khóm 3, P. 01",TP. Trà Vinh,Trà Vinh,106.33964,9.944214,87000
26,"124 Ấp Phước Khánh, Xã Phước Mỹ Trung",Huyện Mỏ Cày Bắc,Bến Tre,106.27361,10.184347,86000
27,"127 Trần Hưng Đạo, P.Đồng Phú",TP.Đồng Hới,Quảng Bình,106.6135007,17.4693913,47000
28,"127-129 Nguyễn Văn Cừ, TT.Gia Bình",H.Gia Bình,Bắc Ninh,106.17516,21.052796,16000
29,"128 Phố Đại La (gần Ngã tư Đại La - Phố Vọng), P. Đồng Tâm",Q. Hai Bà Trưng,Hà Nội,105.8427573,20.9978986,10000
30,"137 Quốc Lộ 1K, KP.Tây B, P.Đông Hòa",TX.Dĩ An,Bình Dương,106.78424,10.890855,75000
31,"143/5A khu phố 4, P. An Phú",TX. Thuận An,Bình Dương,106.72969,10.948392,75000
32,"144 Nguyễn Lương Bằng, P. Hòa Khánh Bắc",H. Liên Chiểu,Đà Nẵng,108.14848,16.077238,50000
33,"146-148 Hùng Vương, KP. 02, TT. Tân Nghĩa",H. Hàm Tân,Bình Thuận,107.72715,10.82421,77000
34,"148B Quốc lộ 1A, ấp 2, Thị Trấn Hộ Phòng",H.Giá Rai,Bạc Liêu,105.4134536,9.2261278,97000
35,"15 Nguyễn Hữu Thọ, KP.3",Thị Trấn Bến Lức,Long An,106.4887351,10.6371738,82000
36,"150 Yên Ninh, KP. Khánh Sơn 1, TT. Khánh Hải",Ninh Hải,Ninh Thuận,109.0344282,11.5951389,59000
37,"154 Hùng Vương, P.An Lạc",Thị xã Buôn Hồ,Đắk Lắk,108.2652157,12.9169458,63000
38,"155 Lê Đình Lý, P. Hòa Thuận Đông",Q. Hải Châu,Đà Nẵng,108.21062,16.052448,50000
39,"156 Quốc Lộ 13, KP. Ninh Thịnh",TT. Lộc Ninh,Bình Phước,106.58828,11.849767,67000
40,"156 Thống Nhất, KP. 02, P. Tân Thiện",TX. La Gi,Bình Thuận,107.7682,10.663627,77000
41,"157-161 Điện Biên Phủ, TT. Nam Phước",H. Duy Xuyên,Quảng Nam,108.283449,15.841303,51000
42,"160 Hà Huy Tập, P.Hà Huy Tập",TP.Hà Tĩnh,Hà Tĩnh,105.8999097,18.3336032,45000
43,"170A Trần Hưng Đạo, P.Mỹ Xuyên",TP.Long Xuyên,An Giang,105.4403883,10.3770741,90000
44,"171 Thái Hà, P. Láng Hạ",Q. Đống Đa,Hà Nội,105.81612,21.015681,10000
45,"174A, đường Đoàn Hoàng Minh, P.05",TP.Bến Tre,Bến Tre,106.36964,10.237289,86000
46,"175/6 Quốc Lộ 13, KP. 02, P. Tân Định",TX. Bến Cát,Bình Dương,106.63341,11.045885,75000
47,"177 Phạm Văn Đồng, Khối 2, TT.Núi Thành",H.Núi Thành,Quảng Nam,108.64406,15.435974,51000
48,"177C-177C/1, Khu Phố 3, Thị Trấn Đức Hòa",Huyện Đức Hòa,Long An,106.45887,10.825489,82000
49,"178 Nguyễn Huệ, P.2",TP.Cao Lãnh,Đồng Tháp,105.6378793,10.4572851,81000
50,"179 Đỗ Tường Phong, TT. Tầm Vu",H. Châu Thành,Long An,106.46819,10.44677,82000
51,"18 Cách mạng Tháng 8, Ấp Chánh Lộc, Xã Chánh Mỹ",TP.Thủ Dầu Một,Bình Dương,106.6508317,10.9916023,75000
52,"186 - 188 -190 Lê Thanh Nghị, P. Đồng Tâm",Q. Hai Bà Trưng,Hà Nội,105.8436679,21.0019482,10000
53,"18B Trần Phú, tổ dân phố 3, P. Mộ Lao",Q. Hà Đông,Hà Nội,105.7899,20.982185,10000
54,"18C2 Đường TC3, Khu đô thị Mỹ Phước II, P. Mỹ Phước",TX. Bến Cát,Bình Dương,106.608809,11.139628,75000
55,"195 Khu phố 3, TT. Giồng Trôm",H. Giồng Trôm,Bến Tre,106.5051593,10.1546623,86000
56,"199 Quốc Lộ 60, KP5, Thị Trấn Mỏ Cày",H.Mỏ Cày Nam,Bến Tre,106.3331026,10.1288936,86000
57,"2 Ngọc Trì, P. Thạch Bàn",Quận Long Biên,Hà Nội,105.90524,21.022662,10000
58,"2 Núi Đôi, TT. Sóc Sơn",H. Sóc Sơn,Hà Nội,105.84832,21.257023,10000
59,"20 Hùng Vương, Phường 4",TP Trà Vinh,Trà Vinh,106.34342,9.937137,87000
60,"206 Nguyễn An Ninh, KP. Bình Minh 2, P. Dĩ An",TX. Dĩ An,Bình Dương,106.7683,10.904803,75000
61,"208 - 210 Nguyễn Tri Phương, Phường Thạc Gián",Quận Thanh Khê,Đà Nẵng,108.20588,16.058279,50000
62,"214 Phan chu Trinh, P.Phước Hòa",TP.Tam Kỳ,Quảng Nam,108.4875977,15.5697041,51000
63,"219/6 QL55, Thị trấn Phước Bửu",Huyện Xuyên Mộc,Bà Rịa - Vũng Tàu,107.3989051,10.5348648,78000
64,"222 Yersin, P.Phú Cường",TP.Thủ Dầu Một,Bình Dương,106.6646021,10.9837453,75000
65,"22-24 Châu Thị Kim, P.3",TP.Tân An,Long An,106.41796,10.532811,82000
66,"225 Lý Thường Kiệt, P.Cẩm Phô",TP. Hội An,Quảng Nam,108.3253428,15.8843087,51000
67,"22F Trần Duy Hưng, P. Trung Hòa",Q. Cầu Giấy,Hà Nội,105.80288,21.013959,10000
68,"231 Lê Văn Hiến, P. Hòa Hải",Q. Ngũ Hành Sơn,Đà Nẵng,108.25597,16.013247,50000
69,"238 Nguyễn Trãi, P. Trung Văn",Q. Nam Từ Liêm,Hà Nội,105.79733,20.987658,10000
70,"2387-2389 Hùng Vương, Khu 7, P.Nông Trang",TP.Việt Trì,Phú Thọ,105.3795035,21.3280839,35000
71,"242 Nguyễn Tất Thành, P. Tân Lập",TP Buôn Mê Thuột,Đắk Lắk,108.0619311,12.6911697,63000
72,"245 Lê Trọng Tấn, P. Dương Nội",Q. Hà Đông,Hà Nội,105.74607,20.978194,10000
73,"245 Trần Hưng Đạo, Thị Trấn Sa Thầy",Huyện Sa Thầy,Kon Tum,107.797884,14.407476,60000
74,"252 Võ Nguyên Giáp, TT. Trà My",H. Bắc Trà My,Quảng Nam,108.22194,15.342541,51000
75,"25-27 Xã Đàn, P. Phương Liên",Q. Đống Đa,Hà Nội,105.83656,21.011353,10000
76,"256 Nguyễn Huệ, P.Phố Mới",TP.Lào Cai,Lào Cai,103.9762831,22.4938234,31000
77,"26 Trần Hưng Đạo, P. Trưng Trắc",TX. Phúc Yên,Vĩnh Phúc,105.70565,21.234845,15000
78,"267A Đường CMT8, KP 5, P.Phước Hiệp",Thị xã Bà Rịa,Bà Rịa - Vũng Tàu,107.172789,10.4954363,78000
79,"27 Đường Xô Viết Nghệ Tĩnh, Thị Trấn Nghèn",Huyện Can Lộc,Hà Tĩnh,105.77554,18.455042,45000
80,"270 Võ Thị Sáu, KP.Long Tân, TT.Long Điền",H.Long Điền,Bà Rịa - Vũng Tàu,107.21493,10.484599,78000
81,"278/18B1, Khu phố 2, TT.Chợ Lách",H.Chợ Lách,Bến Tre,106.11959,10.259001,86000
82,"284 Đội Cấn, P. Cống Vị",Q. Ba Đình,Hà Nội,105.81931,21.03551,10000
83,"284 Đội Cấn, P. Cống Vị",Q. Ba Đình,Hà Nội,105.81931,21.03551,10000
84,"290 Trương Công Định, P.8 ",TP.Vũng Tàu,Bà Rịa - Vũng Tàu,107.0851296,10.3551013,78000
85,"291Nguyễn Văn Cừ, P.Ngọc Lâm",Q.Long Biên,Hà Nội,105.8747989,21.0452936,10000
86,"2A/1B khu phố Bình Đức, P.Bình Hòa",Thị xã Thuận An,Bình Dương,106.7311531,10.906228,75000
87,"304-306 Giải Phóng, Khối 6, TT.Phước An",H.Krông Pắc,Đắk Lắk,108.30205,12.710665,63000
88,"305 Quốc Lộ 13, ấp 3, X. Minh Hưng",H. Chơn Thành,Bình Phước,106.61478,11.480858,67000
89,"312 - 312A Thống Nhất, P. Phủ Hà",TP. Phan Rang - Tháp Chàm,Ninh Thuận,108.9914024,11.5709472,59000
90,"313 - 315 Hùng Vương, KP. 02, TT. Ngãi Giao",H. Châu Đức,Bà Rịa - Vũng Tàu,107.24591,10.648404,78000
91,"32 đường ĐT.741, KP.4, P.Long Phước",Thị xã Phước Long,Bình Phước,106.9529933,11.8122964,67000
92,"320-322 Lê Duẩn,P. Tân Chính",Q.Thanh Khê,Đà Nẵng,108.2094741,16.069362,50000
93,"325 Điện Biên Phủ, P. Hòa Khê",Q. Thanh Khê,Đà Nẵng,108.19206,16.065729,50000
94,"33-35, Đường 30/4, Thị trấn Tân Hưng",Huyện Tân Hưng,Long An,105.66749,10.834803,82000
95,"35 - 37 Thống Nhất , TT.Liên Nghĩa",H.Đức Trọng,Lâm Đồng,108.374328,11.7353086,66000
96,"35 Đường Ven Biển, Xã Phước Tỉnh",Huyện Long Điền,Bà Rịa - Vũng Tàu,107.200584,10.414051,78000
97,"351 Cầu Giấy, P. Dịch Vọng",Q. Cầu Giấy,Hà Nội,105.79079,21.036086,10000
98,"351 Nguyễn Huệ, TT. Tuy Phước",H. Tuy Phước,Bình Định,109.16808,13.825261,55000
99,"351 Nguyễn Hữu Thọ, P.Hòa Cường Bắc",Q.Hải Châu,Đà Nẵng,108.2102,16.036928,50000
100,"375 - 377 Trần Hưng Đạo, phường Quyết Thắng",TP Kon Tum,Kon Tum,108.00179,14.349551,60000
101,"378 Nguyễn Trãi, P. Thanh Xuân Trung",Q. Thanh Xuân,Hà Nội,105.80587,20.993779,10000
102,"379 Lê Duẩn, P. Đập Đá",TX. An Nhơn,Bình Định,109.09219,13.919145,55000
103,"38 Quang Trung, TT. Tăng Bạt Hổ",H. Hoài Ân,Bình Định,108.96755,14.366391,55000
104,"38 Xuân Thụ, P.Đông Ngàn",Thị Xã Từ Sơn,Bắc Ninh,105.9686494,21.1229957,16000
105,"386-388-390 Lê Lợi, P.07",TP. Vũng Tàu,Bà Rịa - Vũng Tàu,107.0767,10.36983,78000
106,"389 Ngọc Hồi, Thị Trấn Văn Điển",H.Thanh Trì,Hà Nội,105.844489,20.947897,10000
107,"390 – 392 – 394 – 396 Lê Duẩn, P.Eatam",TP. Buôn Mê Thuột,Đắk Lắk,108.0277812,12.65736,63000
108,"40 QL 62, Khu Phố 3, TT. Tân Thạnh",Huyện Tân Thạnh,Long An,106.0475443,10.6113126,82000
109,"403 Quang Trung, P.Quang Trung",Q.Hà Đông,Hà Nội,105.7680094,20.9644953,10000
110,"412 Trường Chinh, P.Trà Bá",TP.Pleiku,Gia Lai,108.01379,13.953837,61000
111,"414A DT 741, khu phố Phú Nghị, P. Hòa Lợi",TX. Bến Cát,Bình Dương,106.66509,11.082518,75000
112,"417 Giải Phóng, TT. Ea Drăng",H. Ea H’Leo,Đắk Lắk,108.20555,13.20153,63000
113,"427 đường Nguyễn Tất Thành, khu phố Xuân An, TT. Chợ Lầu",H. Bắc Bình,Bình Thuận,108.50818,11.220813,77000
114,"449 Hùng Vương, Phường Đồng Tâm",Thành phố Vĩnh Yên,Vĩnh Phúc,105.57292,21.30597,15000
115,"44B Nguyễn Đình Chiểu, P.1",TP.Bến Tre,Bến Tre,106.3807,10.236317,86000
116,"454 – 456 đường 30/4, P. Rạch Dừa",TP.Vũng Tàu,Bà Rịa - Vũng Tàu,107.1121448,10.3980166,78000
117,"456-456A-458 Bạch Mai, P.Trương Định",Q.Hai Bà Trưng,Hà Nội,105.8499885,20.9971224,10000
118,"46 Ông Ích Đường, Phường Hòa Thọ Đông",Quận Cẩm Lệ,Đà Nẵng,108.20471,16.016585,50000
119,"474B Nguyễn Đáng, Khóm 3, P.6",TP.Trà Vinh,Trà Vinh,106.34013,9.923439,87000
120,"475 Nguyễn Huệ, TT.Đắk Đoa",H.Đắk Đoa,Gia Lai,108.12116,13.993576,61000
121,"477 đường Lương Ngọc Quyến, P. Phan Đình Phùng",TP. Thái Nguyên,Thái Nguyên,105.829216,21.588248,24000
122,"480 Xã Đàn, P. Nam Đồng",Q. Đống Đa,Hà Nội,105.8316372,21.0171412,10000
123,"492 Thống Nhất , P. Mỹ Hương ",TP. Phan Rang - Tháp Chàm ,Ninh Thuận,108.98996,11.561973,59000
124,"492-494 Thân Nhân Trung, Tổ dân phố 2, TT. Bích Động",H. Việt Yên,Bắc Giang,106.0985994,21.2749168,26000
125,"5/A1 KDC Đồng An 4, Tỉnh Lộ 43, P. Bình Hòa",TX. Thuận An,Bình Dương,106.72724,10.890355,75000
126,"527 Hạ Long, P. Bãi Cháy",TP. Hạ Long,Quảng Ninh,107.02223,20.958407,1000
127,"531 Phạm Văn Đồng, P Ba Hàng",TX Phổ Yên,Thái Nguyên,105.87032,21.419223,24000
128,"538 Nguyễn Văn Cừ, P. Tân Lợi",TP. Buôn Mê Thuột,Đắk Lắk,108.07688,12.68385,63000
129,"546 Trương Định, Tân Mai",Hoàng Mai,Hà Nội,105.84563,20.983837,10000
130,"564-566 Trần Hưng Đạo, P.Thị Nại",TP.Quy Nhơn,Bình Định,109.221434,13.7816314,55000
131,"57 Hùng Vương, Thị Trấn Quảng Phú",Huyện Cư M'gar,Đắk Lắk,108.07572,12.81566,63000
132,"581 Trần Phú, P.B'lao",TP.Bảo Lộc,Lâm Đồng,107.8105223,11.5427191,66000
133,"583 Tổ Dân Phố 10, P.Tân Thanh",TP.Điện Biên Phủ,Điện Biên,103.0207086,21.3972589,32000
134,"589 Trần Hưng Đạo, P. Bình Khánh",TP. Long Xuyên,An Giang,105.42545,10.394619,90000
135,"590 Tôn Đức Thắng, P. Hòa Khánh Nam",Q. Liên Chiểu,Đà Nẵng,108.1581191,16.0635717,50000
136,"591B - 592B2 đường Đồng Khởi, P.Phú Khương",TP.Bến Tre,Bến Tre,106.3714314,10.2531639,86000
137,"6/12 Thống Nhất, KP.2, TT.Dầu Tiếng",H.Dầu Tiếng,Bình Dương,106.35961,11.273845,75000
138,"600 Nguyễn Nghiêm, TT. Đức Phổ",H. Đức Phổ,Quảng Ngãi,108.95689,14.808655,53000
139,"60-62 Đại Cồ Việt, P. Lê Đại Hành",Q. Hai Bà Trưng,Hà Nội,105.8476,21.008393,10000
140,"617 Trần Phú, Tổ 65, P.Cẩm Thủy",TP.Cẩm Phả,Quảng Ninh,107.267669,21.009814,1000
141,"62 Điện Biên Phủ, khóm 3, P. 02",TP. Trà Vinh,Trà Vinh,106.34121,9.932574,87000
142,"621 Quang Trung, Tổ 2, P.Tây Sơn",Thị xã An Khê,Gia Lai,108.6524141,13.9540075,61000
143,"622 Phan Chu Trinh, P. An Sơn",TP. Tam Kỳ,Quảng Nam,108.49672,15.563506,51000
144,"636 - 638 - 640 Điện Biên, P. Minh Tân",Thành phố Yên Bái,Yên Bái,104.900094,21.715571,33000
145,"64A Nguyễn Văn Tiết, KP. Bình Hòa, P. Lái Thiêu",TX. Thuận An,Bình Dương,106.71321,10.920966,75000
146,"66 Đường Vạn Phúc , Tổ Dân Phố Bạch Đằng , P. Vạn Phúc ",Q. Hà Đông ,Hà Nội,105.77206,20.980586,10000
147,"7 Nguyễn Văn Linh, P.Long Thạnh",Thị xã Tân Châu,An Giang,105.2481115,10.7976972,90000
148,"714 Cù Chính Lan, Tổ 3, P.Đồng Tiến",Tp. Hòa Bình,Hòa Bình,105.34587,20.823497,36000
149,"71A Ba Tháng Hai, TT. Ngô Mây, H. Phù Cát",T. Bình Định (ngã tư 3/2 - Trần Hưng Đạo,Bình Định,109.05913,13.998212,55000
150,"72-74 Phan Bội Châu, Thị trấn Kbang, Huyện Kbang",Tỉnh Gia Lai,Gia Lai,108.6017,14.13876,61000
151,"735 Ngô Quyền, P.An Hải Bắc",Q.Sơn Trà,Đà Nẵng,108.23081,16.074053,50000
152,"75 Đại lộ Hùng Vương, P.Trần Hưng Đạo",TP.Quảng Ngãi,Quảng Ngãi,108.80149,15.122957,53000
153,"753 - 755 Hùng Vương, KP Bồ Liêng, TT. Đinh Văn",H.Lâm Hà,Lâm Đồng,108.2418,11.790032,66000
154,"76 Quốc Lộ 1A Tổ Dân Phố 1, Thị Trấn Châu Ổ",H.Bình Sơn,Quảng Ngãi,108.7549925,15.3041791,53000
155,"77 Đại lộ Bình Dương, P.Phú Thọ",TP.Thủ Dầu Một,Bình Dương,106.6828895,10.9662191,75000
156,"774 Nguyễn Du, P.Ninh Xá",TP.Bắc Ninh,Bắc Ninh,106.0590076,21.1784094,16000
157,"777 - 779 Ngô Gia Tự, P. Đức Giang",Q. Long Biên,Hà Nội,105.9039456,21.0717447,10000
158,"79 Trần Hưng Đạo, Khóm 2, TT.Tri Tôn",H.Tri Tôn,An Giang,105.00136,10.424279,90000
159,"79/13 Đường ĐT 743, KP.Bình Phước B, P.Bình Chuẩn",TX.Thuận An,Bình Dương,106.74102,10.977451,75000
160,"792 Lê Lợi, P. Dĩnh Kế, TP. Bắc Giang",T. Bắc Giang (ngã tư Lê Lợi - Minh Khai,Bắc Giang,106.21178,21.277944,26000
161,"80 Trần Hưng Đạo, P.Phú Trinh",TP.Phan Thiết,Bình Thuận,108.1035429,10.9372837,77000
162,"811 Hùng Vương, TT.Chư Sê",H.Chư Sê,Gia Lai,108.07747,13.694139,61000
163,"83 Nguyễn Huệ, P.1",TP.Cao Lãnh,Đồng Tháp,105.63595,10.456291,81000
164,"839 Hùng Vương, KP. 10, TT. Di Linh",H. Di Linh,Lâm Đồng,108.07863,11.593592,66000
165,"853A-855 Trần Phú, P. B'Lao",TP. Bảo Lộc,Lâm Đồng,107.7996,11.540958,66000
166,87 Hùng Vương,Thị Trấn Đắk Tô,Kon Tum,107.841212,14.655884,60000
167,"87-89 Hùng Vương, P.Ba Đồn",TX.Ba Đồn,Quảng Bình,106.42176,17.752759,47000
168,"94 Nguyễn Tất Thành, khu phố 3A, TT. Ea Kar",H. Ea Kar,Đắk Lắk,108.44923,12.810476,63000
169,"94 Trần Hưng Đạo, P.Trần Phú",TP.Hà Giang,Hà Giang,104.9876153,22.8306472,20000
170,"974-976 đường 30/04, P. 11",TP. Vũng Tàu,Bà Rịa - Vũng Tàu,107.13358,10.409439,78000
171,"996 Đê La Thành, Phường Ngọc Khánh",Quận Ba Đình,Hà Nội,105.81089,21.02631,10000
172,"996 Đê La Thành, Phường Ngọc Khánh",Quận Ba Đình,Hà Nội,105.81089,21.02631,10000
173,"A12 Trần Hưng Đạo, P.Thắng Lợi",TP.Buôn Mê Thuột ,Đắk Lắk,108.049314,12.6858003,63000
174,"Ấp 5A, xã Trường Xuân",H. Tháp Mười,Đồng Tháp,105.78451,10.656319,81000
175,"Ấp Chánh, Xã Đức Lập Hạ",Huyện Đức Hòa,Long An,106.41811,10.901842,82000
176,"Ấp Nội Ô, TT. Ngan Dừa",H. Hồng Dân,Bạc Liêu,105.44796,9.5638741,97000
177,"Ấp Trung 3, TT. Phú Mỹ",H. Phú Tân,An Giang,105.35753,10.577157,90000
178,"C1B, đường Trần Phú, P.3",TP.Bạc Liêu,Bạc Liêu,105.7221007,9.2875659,97000
179,"C44 Ấp Phước Lộc, xã Phước Hưng",H.Long Điền,Bà Rịa - Vũng Tàu,107.22072,10.408123,78000
180,"Chợ TT. Vĩnh Tường, TT.Vĩnh Tường",H. Vĩnh Tường,Vĩnh Phúc,105.5143,21.215207,15000
181,"Cổng Nam 2 (nhà máy Samsung) khu CN Yên Bình, phường Đồng Tiến",tx Phổ Yên,Thái Nguyên,105.89522,21.420959,24000
182,"Đạc 7, xã Thọ Xuân",H. Đan Phượng,Hà Nội,105.64708,21.119004,10000
183,"Điện máy Xanh 01 Nguyễn Danh Phương, tổ dân phố An Phú, P. Hội Hợp",TP. Vĩnh Yên,Vĩnh Phúc,105.55268,21.293038,15000
184,"Điện máy Xanh 01 Nguyễn Văn Linh, TT.Phú Mỹ",H.Tân Thành,Bà Rịa - Vũng Tàu,107.05442,10.599903,78000
185,"Điện máy Xanh 01 Tôn Đức Thắng, P. Yên Thế",Tp. Pleiku,Gia Lai,107.98962,14.030759,61000
186,"Điện máy Xanh 02 Lý Thường Kiệt, Tiểu khu 5, TT. Quy Đạt",H. Minh Hóa,Quảng Bình,105.96673,17.808227,47000
187,"Điện máy Xanh 02/01 Ấp Nhân Tiến, Xã Xuyên Mộc",H. Xuyên Mộc,Bà Rịa - Vũng Tàu,107.42342,10.565301,78000
188,"Điện máy Xanh 03 Tỉnh Lộ 44, TT. Long Hải",H. Long Điền,Bà Rịa - Vũng Tàu,107.21984,10.409989,78000
189,"Điện máy Xanh 04, xã Đông Thạnh",huyện Cần Giuộc,Long An,106.672328,10.537451,82000
190,"Điện máy Xanh 09 Hùng Vương, Xóm Minh Phượng, P. Quảng Thọ",TX. Ba Đồn,Quảng Bình,106.4325,17.755778,47000
191,"Điện máy Xanh 1050 Phú Riềng Đỏ, khu phố Tân Đồng 1, phường Tân Xuân",Thị Xã Đồng Xoài,Bình Phước,106.90138,11.535964,67000
192,"Điện máy Xanh 105-107-109 Trần Phú, P. Nam Hồng",TX. Hồng Lĩnh,Hà Tĩnh,105.69904,18.529488,45000
193,"Điện máy Xanh 105-107-109 Trần Phú, P. Nam Hồng",TX. Hồng Lĩnh,Hà Tĩnh,105.69904,18.529488,45000
194,"Điện máy Xanh 105A3 Võ Nguyên Giáp, KP. Bình Khởi, P.6",Tp. Bến Tre,Bến Tre,106.35547,10.248889,86000
195,"Điện máy Xanh 107 Ngô Mây, P. Nguyễn Văn Cừ",TP. Quy Nhơn,Bình Định,109.21608,13.763867,55000
196,"Điện máy Xanh 109 Tuệ Tĩnh , Thôn Hồng Phong, TT. Mậu A",H. Văn Yên,Yên Bái,104.68516,21.880083,33000
197,"Điện máy Xanh 116 Nguyễn Tất Thành, TT. Tăng Bạt Hổ",H. Hoài Ân,Bình Định,108.96888,14.364256,55000
198,"Điện máy Xanh 116 Tôn Đức Thắng, P.Hòa Minh",Q.Liên Chiểu,Đà Nẵng,108.17478,16.059434,50000
199,"Điện máy Xanh 116 Trường Chinh, P. Đồng Xuân, TX. Phúc Yên",T. Vĩnh Phúc ( gần vòng tròn 1 Xuân Hòa,Vĩnh Phúc,105.72901,21.276804,15000
200,"Điện máy Xanh 117 QL1A , Khu Phố 5 , TT. Phước Dân ",H. Ninh Phước ,Ninh Thuận,108.92611,11.524585,59000
201,"Điện máy Xanh 118 Lê Thánh Tôn, KP. Hiệp Hoà, X. Tân Hải",TX. Lagi,Bình Thuận,107.87,10.725111,77000
202,"Điện máy Xanh 119 Đại Nghĩa, TT. Tế Tiêu",H. Mỹ Đức,Hà Nội,105.74134,20.686824,10000
203,"Điện máy Xanh 119 Đại Nghĩa, TT. Tế Tiêu",H. Mỹ Đức,Hà Nội,105.74134,20.686824,10000
204,"Điện máy Xanh 119 đường 21/8, khu 9, P.Phước Mỹ",TP.Phan Rang - Tháp Chàm,Ninh Thuận,108.98244,11.574361,59000
205,"Điện máy Xanh 119 đường Ngô Xuân Quảng, Thị trấn Trâu Quỳ",Huyện Gia Lâm,Hà Nội,105.93703,21.017893,10000
206,"Điện máy Xanh 12, khóm Thượng 1, thị trấn Thường Thới Tiền",huyện Hồng Ngự,Đồng Tháp,105.247648,10.812821,81000
207,"Điện máy Xanh 1225 Trần Hưng Đạo, Phường Đống Đa",Tp. Quy Nhơn,Bình Định,109.20638,13.786333,55000
208,"Điện máy Xanh 125 phố Hòa Nam, TT Quảng Uyên",H. Quảng Uyên,Cao Bằng,106.44279,22.68986,21000
209,"Điện máy Xanh 129 Trần Hưng Đạo, Phường Mỹ Phước",Thành Phố Long Xuyên,An Giang,105.44224,10.374751,90000
210,"Điện máy Xanh 130-132b Nguyễn Hữu Tiến, TT. Đồng Văn",H. Duy Tiên,Hà Nam,105.92244,20.643361,18000
211,"Điện máy Xanh 1311 đường Hùng Vương, phường Thống Nhất",thị xã Buôn Hồ,Đắk Lắk,108.25598,12.86445,63000
212,"Điện máy Xanh 136 Hai Bà Trưng, TT. Lim",H. Tiên Du,Bắc Ninh,106.02308,21.145917,16000
213,"Điện máy Xanh 137-143 Đường Yên Ninh , KP. Khánh Chữ 1 , TT. Khánh Hải ",H. Ninh Hải ,Ninh Thuận,109.0365,11.597249,59000
214,"Điện máy Xanh 14/4 Đường Nguyễn Du, KP. Bình Đáng, P. Bình Hòa, TP. Thuận An",T. Bình Dương (cạnh cây xăng Hoàng Phương,Bình Dương,106.73395,10.920996,75000
215,"Điện máy Xanh 141 Hùng Vương, TT. Quán Hàu",H. Gia Ninh,Quảng Bình,106.63924,17.404253,47000
216,"Điện máy Xanh 146 Phố Vọng, Phường Phương Liệt",Quận Thanh Xuân,Hà Nội,105.842794,20.996096,10000
217,"Điện máy Xanh 148 Võ Thị Sáu, KP. Long Bình, TT. Long Điền",H. Long Điền,Bà Rịa - Vũng Tàu,107.21057,10.48379,78000
218,"Điện máy Xanh 15 Tôn Đức Thắng, ấp Mỹ Lương, TT. Phú Mỹ",H. Phú Tân,An Giang,105.35316,10.596897,90000
219,"Điện máy Xanh 15 Tôn Đức Thắng, ấp Mỹ Lương, TT. Phú Mỹ",H. Phú Tân,An Giang,105.35316,10.596897,90000
220,"Điện máy Xanh 155 Nguyễn Thái Học, Phường 7",Thành Phố Vũng Tàu,Bà Rịa - Vũng Tàu,107.08474,10.367315,78000
221,"Điện máy Xanh 1572, QL91C, Ấp Đồng Ky, Xã Quốc Thái",Huyện An Phú,An Giang,105.08255,10.916361,90000
222,"Điện máy Xanh 1574C, Tổ 2, KP Mỹ Hiệp, P. Thái Hòa",TX. Tân Uyên,Bình Dương,106.7557,10.976173,75000
223,"Điện máy Xanh 16 Nguyễn Tất Thành, Khối Tân Hòa, Phường Tân An",Thành Phố Hội An,Quảng Nam,108.32159,15.886063,51000
224,"Điện máy Xanh 162/3 thôn Xuân Trường 1, Xuân Trường",thành phố Đà Lạt,Lâm Đồng,108.548328,11.887396,66000
225,"Điện máy Xanh 1622 đường 30/04, P. 12",TP. Vũng Tàu,Bà Rịa - Vũng Tàu,107.1568,10.422333,78000
226,"Điện máy Xanh 165-167 Nguyễn Huệ, Thôn Dương Liễu Tây, TT. Bình Dương",H. Phù Mỹ,Bình Định,109.07821,14.294122,55000
227,"Điện máy Xanh 168 - 172 Phạm Hùng, Xã Hòa Châu, Huyện Hòa Vang",Thành phố Đà Nẵng,Đà Nẵng,108.207015,15.99966,50000
228,"Điện máy Xanh 170 Lê Trọng Tấn, P. La Khê",Q. Hà Đông,Hà Nội,105.75772,20.966656,10000
229,"Điện máy Xanh 171 Phạm Văn Đồng, TT. Ba Tơ",H. Ba Tơ,Quảng Ngãi,108.73352,14.763893,53000
230,"Điện máy Xanh 175 tỉnh lộ 941, Ấp Vĩnh Lộc, X. Vĩnh Bình",H. Châu Thành,An Giang,105.17241,10.442686,90000
231,"Điện máy Xanh 177-196 Đường 3 tháng 2, khóm Mỹ Cẩm A, TT. Cầu Ngang",H. Cầu Ngang,Trà Vinh,106.45178,9.799264,87000
232,"Điện máy Xanh 179 Nguyễn Tất Thành (Quốc Lộ 26), thị trấn M’Drắk",huyện M’Drắk,Đắk Lắk,108.737562,12.754492,63000
233,"Điện máy Xanh 181 Võ Nguyên Giáp, khóm 6, P.8",Tp. Trà Vinh,Trà Vinh,106.31425,9.914128,87000
234,"Điện máy Xanh 181 Võ Nguyên Giáp, khóm 6, P.8",Tp. Trà Vinh,Trà Vinh,106.31425,9.914128,87000
235,"Điện máy Xanh 186 Đường 3/2, Thị Trấn Trà Cú ",Huyện Trà Cú ,Trà Vinh,106.25994,9.691318,87000
236,"Điện máy Xanh 187 Xô Viết Nghệ Tĩnh, P. 08",TP. Đà Lạt,Lâm Đồng,108.42759,11.969674,66000
237,"Điện máy Xanh 191 Nguyễn Lương Bằng, TT. Thanh Miện",H. Thanh Miện,Hải Dương,106.24584,20.78498,3000
238,Điện máy Xanh 197 Cách Mạng Tháng Tám,P. Phan Đình Phùng,Thái Nguyên,105.84726,21.588408,24000
239,"Điện máy Xanh 199 Hùng Vương, Thị Trấn Phú Túc, Huyện Krông Pa",Tỉnh Gia Lai,Gia Lai,108.683722,13.202056,61000
240,"Điện máy Xanh 1A Tân Xuân, P. Đông Ngạc",Q. Bắc Từ Liêm,Hà Nội,105.78542,21.091237,10000
241,"Điện máy Xanh 1A Tân Xuân, P. Đông Ngạc",Q. Bắc Từ Liêm,Hà Nội,105.78542,21.091237,10000
242,"Điện máy Xanh 203 Đường Điện Biên Phủ, P. Hòa Khê",Q. Thanh Khê,Đà Nẵng,108.19655,16.065472,50000
243,"Điện máy Xanh 205 Tôn Đức thắng, Hàng Bột",Quận Đống Đa,Hà Nội,105.831567,21.021876,10000
244,"Điện máy Xanh 207 Trần Hưng Đạo, Tổ 4 , TT. Kon Dơng ",H. Mang Yang,Gia Lai,108.25997,14.043535,61000
245,"Điện máy Xanh 21 Điện Biên Phủ, Khóm 4, Phường 6",Thành Phố Trà Vinh,Trà Vinh,106.34107,9.924263,87000
246,"Điện máy Xanh 213 - 215 Điện Biên Phủ, P. Hòa Khê",Q. Thanh Khê,Đà Nẵng,108.19594,16.065422,50000
247,"Điện máy Xanh 222 Nguyễn Văn Linh, Phường Thạc Gián",Quận Thanh Khê,Đà Nẵng,108.21042,16.059789,50000
248,"Điện máy Xanh 226 Trần Hưng Đạo, Phường Nam Lý",Thành phố Đồng Hới,Quảng Bình,106.6102,17.468728,47000
249,"Điện máy Xanh 240 Nguyễn Tất Thành, KP. Xuân An 2, TT. Chợ Lầu",H. Bắc Bình,Bình Thuận,108.50405,11.221756,77000
250,"Điện máy Xanh 241 Trần Hưng Đạo, Phường Phú Thủy",Thành Phố Phan Thiết,Bình Thuận,108.10429,10.933694,77000
251,"Điện máy Xanh 25 Nguyễn Hữu Thọ, Phường Phước Trung",Thành Phố Bà Rịa,Bà Rịa - Vũng Tàu,107.1733,10.491974,78000
252,"Điện máy Xanh 250 Nguyễn Huệ, KP.Phú Hưng, P. Phú Thịnh",Thị xã Bình Long,Bình Phước,106.609059,11.6540385,67000
253,"Điện máy Xanh 251-251A Thống Nhất (Mới), P. 8",TP. Vũng Tàu,Bà Rịa - Vũng Tàu,107.08757,10.355043,78000
254,"Điện máy Xanh 254 Hùng Vương, Phường 03",Thành phố Tân An,Long An,106.41229,10.532586,82000
255,"Điện máy Xanh 256 Nguyễn Tri Phương, KP. Bình Đường 4, P. An Bình",TP. Dĩ An,Bình Dương,106.75948,10.889679,75000
256,"Điện máy Xanh 257 Phan Đình Phùng, Phường 02",TP. Đà Lạt,Lâm Đồng,108.435467,11.948706,66000
257,"Điện máy Xanh 257-261 Lê Duẩn, P. Đập Đá",TX. An Nhơn,Bình Định,109.0908,13.921528,55000
258,"Điện máy Xanh 266 Lê Duẩn, phường Tân Thành",thành phố Buôn Ma thuột,Đắk Lắk,108.033429,12.662255,63000
259,"Điện máy Xanh 268 Đường Trần Phú, Khu phố mới, Phường Đình Bảng",Thị Xã Từ Sơn,Bắc Ninh,105.95103,21.113388,16000
260,"Điện máy Xanh 27 Nguyễn Tất Thành, TT. Kiến Giang",H. Lệ Thủy,Quảng Bình,106.79409,17.223512,47000
261,"Điện máy Xanh 272 Hùng Vương, Tổ dân phố 2, Thị trấn Đắk Pơ, Huyện Đắk Pơ",Tỉnh Gia Lai,Gia Lai,108.640071,13.934529,61000
262,"Điện máy Xanh 273,Quốc lộ 1A,Khóm 2,P. Láng Tròn",TX. Giá Rai,Bạc Liêu,105.51379,9.25177,97000
263,"Điện máy Xanh 275 Quang Trung, Phường Trần Hưng Đạo",Thành Phố Quảng Ngãi,Quảng Ngãi,108.80253,15.126377,53000
264,"Điện máy Xanh 279 Ngô Gia Tự, Khu phố 5, Phường Tấn Tài",Thành phố Phan Rang – Tháp Chàm,Ninh Thuận,108.99518,11.562753,59000
265,"Điện máy Xanh 279 Nguyễn Tất Thành, Phường Phù Đổng",Tp. Pleiku,Gia Lai,108.015229,13.972709,61000
266,"Điện máy Xanh 279A Trường Chinh, P. An Khê",Q. Thanh Khê,Đà Nẵng,108.18432,16.046293,50000
267,"Điện máy Xanh 283 đường Xuân Phương, Vân Canh",Từ Liêm ,Hà Nội,105.739763,21.02992,10000
268,"Điện máy Xanh 3 Nguyễn Đình Chiểu, P. Trần Phú, TP. Quảng Ngãi",T. Quảng Ngãi (ngay vòng xoay Ga,Quảng Ngãi,108.78557,15.120446,53000
269,"Điện máy Xanh 303 Hùng Vương, tổ 6",TT. Bát Xát,Lào Cai,103.89333,22.536491,31000
270,"Điện máy Xanh 309 Lương Ngọc Quyến, P. Hoàng Văn Thụ",TP. Thái Nguyên,Thái Nguyên,105.82533,21.593219,24000
271,"Điện máy Xanh 312 Trần Đại Nghĩa, Phường Hòa Hải",Quận Ngũ Hành Sơn,Đà Nẵng,108.255719,15.98289,50000
272,"Điện máy Xanh 32/1 Khu Phố Bình Giao, P.Thuận Giao",TP.Thuận An,Bình Dương,106.71005,10.934122,75000
273,"Điện máy Xanh 321 Hùng Vương, TT. Ia Kha",H. Ia Grai,Gia Lai,107.8406,13.962087,61000
274,"Điện máy Xanh 321, Quốc Lộ 91, TT. Cái Dầu",H. Châu Phú,An Giang,105.23735,10.574761,90000
275,"Điện máy Xanh 322 Đại Lộ Bình Dương, Khu Phố 1, Phường Phú Hòa",Thành Phố Thủ Dầu Một,Bình Dương,106.6672,10.980946,75000
276,"Điện máy Xanh 327 Bạch Đằng, Ấp An Thịnh, TT. An Phú",H. An Phú,An Giang,105.09311,10.814333,90000
277,"Điện máy Xanh 33 Phan Chu Trinh, P.09",TP. Đà Lạt,Lâm Đồng,108.46608,11.951694,66000
278,"Điện máy Xanh 330 Bình Giã, P.Nguyễn An Ninh",TP.Vũng Tàu,Bà Rịa - Vũng Tàu,107.09367,10.362825,78000
279,"Điện máy Xanh 330 Bình Giã, P.Nguyễn An Ninh",TP.Vũng Tàu,Bà Rịa - Vũng Tàu,107.09367,10.362825,78000
280,"Điện máy Xanh 339 Đường Tôn Đức Thắng, Phường Hòa Minh",Quận Liên Chiểu,Đà Nẵng,108.166472,16.056979,50000
281,"Điện máy Xanh 364 Trần Hưng Đạo, P. Đức Thắng",TP. Phan Thiết,Bình Thuận,108.0978,10.924138,77000
282,"Điện máy Xanh 37 Nguyễn Tất Thành, Phường Tân Lợi",Thành Phố Buôn Ma Thuột,Đắk Lắk,108.05677,12.688314,63000
283,"Điện máy Xanh 37 Quốc lộ 14, xã Minh Lập",huyện Chơn Thành,Bình Phước,106.74562,11.51745,67000
284,"Điện máy Xanh 371 Cửa Đại, P. Cẩm Châu",Tp. Hội An,Quảng Nam,108.34599,15.882418,51000
285,"Điện máy Xanh 387 Võ Văn Kiệt, Khóm 3 , TT. Tràm Chim",H. Tam Nông,Đồng Tháp,105.56234,10.669609,81000
286,"Điện máy Xanh 393 Trần Phú, P. Cao Xanh, TP. Hạ Long",T. Quảng Ninh (Siêu thị Hạ Trang cũ,Quảng Ninh,107.08188,20.971139,1000
287,"Điện máy Xanh 396 Nguyễn Văn Linh, Phường Trương Quang Trọng",TP. Quảng Ngãi,Quảng Ngãi,108.79658,15.152889,53000
288,"Điện máy Xanh 396 Vũ Văn Hiếu, Phường Hà Tu, thành phố Hạ Long",tỉnh Quảng Ninh (Gốc cây khế,Quảng Ninh,107.14968,20.955803,1000
289,"Điện máy Xanh 397 Cách Mạng Tháng 8, TT. Võ Xu",H. Đức Linh,Bình Thuận,107.56701,11.187546,77000
290,"Điện máy Xanh 41 Quốc lộ 53, ấp Nguyệt Lãng B, xã Bình Phú",H. Càng Long,Trà Vinh,106.24356,9.959583,87000
291,"Điện máy Xanh 424 Quang Trung, Phường Quảng Long",Thị Xã Ba Đồn,Quảng Bình,106.417614,17.756893,47000
292,"Điện máy Xanh 430, đường Võ Văn Kiệt, phường Khánh Xuân",thành phố Buôn Ma Thuột,Đắk Lắk,108.001294,12.63129,63000
293,"Điện máy Xanh 460 Quang Trung, TT. Phù Mỹ",H. Phù Mỹ,Bình Định,109.05169,14.17729,55000
294,"Điện máy Xanh 477 Quang Trung, Thị Trấn Chư Ty",Huyện Đức Cơ,Gia Lai,107.69697,13.799861,61000
295,"Điện máy Xanh 477-479 Hai Bà Trưng, Phường Tân An",TP. Hội An,Quảng Nam,108.327594,15.887049,51000
296,"Điện máy Xanh 48 Huỳnh Minh Thạnh, TT. Phước Bửu",H. Xuyên Mộc,Bà Rịa - Vũng Tàu,107.39964,10.533425,78000
297,"Điện máy Xanh 483 Nguyễn Thị Hạnh, ấp Tân Hiệp A, TT. Óc Eo",H. Thoại Sơn,An Giang,105.15559,10.254521,90000
298,"Điện máy Xanh 483 Nguyễn Thị Hạnh, ấp Tân Hiệp A, TT. Óc Eo",H. Thoại Sơn,An Giang,105.15559,10.254521,90000
299,"Điện máy Xanh 486 Phạm Văn Đồng, Tổ dân phố 4, TT. Châu Ổ",H. Bình Sơn,Quảng Ngãi,108.76188,15.294583,53000
300,"Điện máy Xanh 495 Trần Hưng Đạo, KP. Lập Hòa, TT. Thuận Nam",H. Hàm Thuận Nam,Bình Thuận,107.86299,10.840698,77000
301,"Điện máy Xanh 503 - 505 Nguyễn Văn Cừ, phường Lộc Phát",thành phố Bảo Lộc,Lâm Đồng,107.839464,11.561457,66000
302,"Điện máy Xanh 507 Nguyễn Trực, X. Bích Hòa",H. Thanh Oai,Hà Nội,105.76056,20.910896,10000
303,"Điện máy Xanh 509 đường Ấp Mới, Xã Mỹ Hạnh Nam",Huyện Đức Hòa,Long An,106.50715,10.87694,82000
304,"Điện máy Xanh 51/104 FA, Ấp 6, xã Nhị Thành",huyện Thủ Thừa,Long An,106.434748,10.583296,82000
305,"Điện máy Xanh 511 Đại Lộ Nguyễn Thái Học, Tổ 40, P. Hồng Hà",TP. Yên Bái,Yên Bái,104.87444,21.697774,33000
306,"Điện máy Xanh 530/7A, Khu Phố Đông Thành, P. Đông Hiệp",TP. Dĩ An,Bình Dương,106.76918,10.915637,75000
307,"Điện máy Xanh 540 Phan Chu Trinh, P.An Sơn",TP.Tam Kỳ,Quảng Nam,108.49449,15.565013,51000
308,"Điện máy Xanh 549B Đồng Khởi, Phường Phú Khương",Thành Phố Bến Tre,Bến Tre,106.37182,10.252524,86000
309,"Điện máy Xanh 55 Hùng Vương, Thị Trấn Hoàn Lão",huyện Bố Trạch,Quảng Bình,106.5349,17.58423,47000
310,"Điện máy Xanh 55 Nguyễn Hoàng, Thôn Phú Mỹ, P. Mỹ Đình 1",Q. Nam Từ Liêm,Hà Nội,105.7723,21.032743,10000
311,"Điện máy Xanh 562 Nguyễn Văn Cừ, phường Gia Thụy",Quận Long Biên,Hà Nội,105.884424,21.050143,10000
312,"Điện máy Xanh 566 KP.9, P.Phú Hòa",TP.Thủ Dầu Một,Bình Dương,106.6877818,10.9864416,75000
313,"Điện máy Xanh 57 Hùng Vương, TT. Ea Súp",H. Ea Súp,Đắk Lắk,107.88139,13.070312,63000
314,"Điện máy Xanh 583 Trần Phú, Phường B'Lao",Thành phố Bảo Lộc,Lâm Đồng,107.81036,11.5429,66000
315,"Điện máy Xanh 59 Hùng Vương, Trà My",Bắc Trà My,Quảng Nam,108.21492,15.336753,51000
316,"Điện máy Xanh 64 Xô Viết Nghệ Tĩnh, Thị trấn Nghèn",huyện Can Lộc,Hà Tĩnh,105.77544,18.454126,45000
317,"Điện máy Xanh 65 An Bình, KP. Bình Đường 2, P. An Bình",TP. Dĩ An,Bình Dương,106.75447,10.87267,75000
318,"Điện máy Xanh 661 Quang Trung, P.Nghĩa Chánh",TP.Quảng Ngãi,Quảng Ngãi,108.80796,15.114785,53000
319,"Điện máy Xanh 661 Quang Trung, P.Nghĩa Chánh",TP.Quảng Ngãi,Quảng Ngãi,108.80796,15.114785,53000
320,"Điện máy Xanh 69 Ngô Quyền, Phường Vĩnh Trại",Thành phố Lạng Sơn,Lạng Sơn,106.76705,21.853634,25000
321,"Điện máy Xanh 7 Nguyễn Văn Linh, P. Bình Hiên",Q. Hải Châu,Đà Nẵng,108.22225,16.060832,50000
322,"Điện máy Xanh 7/1 Đường ĐH 406, Tổ 1, Khu phố Khánh Lộc, Phường Khánh Bình",Thị xã Tân Uyên,Bình Dương,106.761333,11.031444,75000
323,"Điện máy Xanh 724 Cù Chính Lan, Tổ 03, Phường Đồng Tiến",Thành Phố Hòa Bình,Hòa Bình,105.34642,20.823176,36000
324,"Điện máy Xanh 727 Nguyễn Hữu Thọ, P. Khuê Trung",Q. Cẩm Lệ,Đà Nẵng,108.2108,16.020334,50000
325,"Điện máy Xanh 72C Lê Lợi, P.Phước Hội",Thị xã La Gi,Bình Thuận,107.77428,10.66236,77000
326,"Điện máy Xanh 734 Hùng Vương,Thị Trấn Madaguoi ",Huyện Đạ Huoai ,Lâm Đồng,107.53655,11.386055,66000
327,"Điện máy Xanh 746 - 748 - 750 - 752 Quang Trung, P.Phú La",Q.Hà Đông,Hà Nội,105.75753,20.957013,10000
328,"Điện máy Xanh 75 Lý Thường Kiệt, Phường Đồng Mỹ",Thành Phố Đồng Hới,Quảng Bình,106.62075,17.477181,47000
329,"Điện máy Xanh 750 Phạm Văn Đồng, khối 4, TT. Núi Thành",H. Núi Thành,Quảng Nam,108.6643,15.426782,51000
330,"Điện máy Xanh 784 - 786 Trần Hưng Đạo, tiểu khu Bình Thắng, TT. Bình Mỹ",H. Bình Lục,Hà Nam,106.00545,20.490951,18000
331,"Điện máy Xanh 83 Quốc lộ 50, Ấp Kim Điền, xã Tân Kim",H. Cần Giuộc,Long An,106.66159,10.629897,82000
332,"Điện máy Xanh 86 Thống Nhất, TT. Phan Rí Cửa",H. Tuy Phong,Bình Thuận,108.56388,11.177028,77000
333,"Điện máy Xanh 88 Võ Chí Công, Phường Hòa Xuân",Quận Cẩm Lệ,Đà Nẵng,108.222831,16.004414,50000
334,Điện máy Xanh 883 Dương Tự Minh,P. Hoàng Văn Thụ,Thái Nguyên,105.82027,21.603222,24000
335,"Điện máy Xanh 904B Hùng Vương, TT. Chư Sê",H. Chư Sê,Gia Lai,108.07777,13.692559,61000
336,"Điện máy Xanh 93 Quốc lộ L1A, Phường 5",Tp. Tân An,Long An,106.41608,10.55,82000
337,"Điện máy Xanh 951A Phan Đình Phùng, Phường Quyết Thắng",Thành phố KonTum,Kon Tum,107.99435,14.354678,60000
338,"Điện máy Xanh 99 Hùng Vương, P. Tích Sơn",TP. Vĩnh Yên,Vĩnh Phúc,105.58576,21.307666,15000
339,"Điện máy Xanh Ấp 02, Xã Mỹ Long",huyện Cao Lãnh,Đồng Tháp,105.78254,10.351809,81000
340,"Điện máy Xanh Ấp 08, Xã Ea Ô",Huyện Ea Kar,Đắk Lắk,108.486199,12.708505,63000
341,"Điện máy Xanh Ấp 15, Xã Vĩnh Mỹ B",Huyện Hoà Bình,Bạc Liêu,105.628403,9.280824,97000
342,"Điện máy Xanh Ấp 2, xã Hắc Dịch",H. Tân Thành,Bà Rịa - Vũng Tàu,107.12309,10.642657,78000
343,"Điện máy Xanh Ấp 2, xã Mỹ An",huyện Thủ Thừa,Long An,106.34318,10.586114,82000
344,"Điện máy Xanh Ấp 2A, xã phong thạnh tây B",huyện Phước Long,Bạc Liêu,105.460271,9.434407,97000
345,"Điện máy Xanh Ấp 4, xã Long Hậu",huyện Cần Giuộc,Long An,106.686768,10.653963,82000
346,"Điện máy Xanh Ấp 4, xã Quới Sơn, H. Châu Thành",T. Bến Tre (KCN Giao Long,Bến Tre,106.39013,10.304778,86000
347,"Điện máy Xanh Ấp 5,Xã Lạc Tấn",Huyện Tân Trụ ,Long An,106.46441,10.552869,82000
348,"Điện máy Xanh Ấp 6B, Xã Trường Xuân",Huyện Tháp Mười,Đồng Tháp,105.78749,10.648871,81000
349,"Điện máy Xanh Ấp 7, Xã Lộc Thái",Huyện Lộc Ninh,Bình Phước,106.600461,11.809746,67000
350,"Điện máy Xanh Ấp An Định 2, X. An Ngãi Trung, H. Ba Tri",T. Bến Tre (Ngã 4 Giồng Tre,Bến Tre,106.53953,10.071061,86000
351,"Điện máy Xanh Ấp An Hoà, Xã An Thới",Huyện Mỏ Cày Nam,Bến Tre,106.363921,10.068429,86000
352,"Điện máy Xanh Ấp An Lộc Thị, xã An Thạnh",huyện Mỏ Cày Nam,Bến Tre,106.291563,10.098784,86000
353,"Điện máy Xanh Ấp An Lợi B, xã Định Yên",huyện Lấp Vò,Đồng Tháp,105.53626,10.310082,81000
354,"Điện máy Xanh Ấp An Thạnh, xã Mỹ An Hưng B",huyện Lấp Vò,Đồng Tháp,105.607699,10.405663,81000
355,"Điện máy Xanh Ấp Bình Lợi, Xã Hòa Khánh Đông",Huyện Đức Hòa,Long An,106.420692,10.840707,82000
356,"Điện máy Xanh Ấp Bình Tiền 1, Xã Đức Hoà Hạ",H. Đức Hoà,Long An,106.461939,10.820483,82000
357,"Điện máy Xanh Ấp Bình Tiền 2, Xã Đức Hòa Hạ",Huyện Đức Hòa,Long An,106.50447,10.794253,82000
358,"Điện máy Xanh Ấp Bình Trung, xã Bình Thành",huyện Thanh Bình,Đồng Tháp,105.541602,10.535518,81000
359,"Điện máy Xanh Ấp Cái Dầy, Thị Trấn Châu Hưng",Huyện Vĩnh Lợi,Bạc Liêu,105.715644,9.341734,97000
360,"Điện máy Xanh Ấp Cầu Đỏ, Xã Vĩnh Lộc",Huyện Hồng Dân,Bạc Liêu,105.357473,9.591466,97000
361,"Điện máy Xanh Ấp Cây Giang A, xã Long Điền",huyện Đông Hải,Bạc Liêu,105.4866389,9.21375,97000
362,"Điện máy Xanh Ấp Chà Và, xã Vinh Kim",huyện Cầu Ngang,Trà Vinh,106.444003,9.852588,87000
363,"Điện máy Xanh Ấp Chánh, Xã Tiên Thủy",Huyện Châu Thành,Bến Tre,106.244447,10.27238,86000
364,"Điện máy Xanh Ấp Chiến Thắng, Xã Tân Hộ Cơ, Huyện Tân Hồng",Tỉnh Đồng Tháp,Đồng Tháp,105.4420023,10.9383473,81000
365,"Điện máy Xanh Ấp Chợ Dưới, Xã Phước Hưng",Huyện Trà Cú,Trà Vinh,106.308923,9.759422,87000
366,"Điện máy Xanh Ấp Chợ Xếp, Xã Tân Thành Bình",Huyện Mỏ Cày Bắc,Bến Tre,106.3285305,10.2025872,86000
367,"Điện máy Xanh Ấp Chợ, X. Mỹ Thạnh",H. giồng Trôm,Bến Tre,106.43344,10.221833,86000
368,"Điện máy Xanh Ấp Chợ, Xã Phú Phụng",Huyện Chợ Lách,Bến Tre,106.046304,10.276094,86000
369,"Điện máy Xanh Ấp Cụm dân cư trung tâm, xã Tân Phú Trung",huyện Châu Thành,Đồng Tháp,105.738306,10.255435,81000
370,"Điện máy Xanh Ấp Diêm Điền, xã Điền Hải",huyện Đông Hải,Bạc Liêu,105.490828,9.133303,97000
371,"Điện máy Xanh Ấp Đông Mỹ, Xã Mỹ Hội",Huyện Cao Lãnh,Đồng Tháp,105.727973,10.395071,81000
372,"Điện máy Xanh Ấp Giao Hòa B, Xã Giao Thạnh, Huyện Thạnh Phú",Tỉnh Bến Tre (Cách trường tiểu học giao thạnh 100 m,Bến Tre,106.610359,9.880776,86000
373,"Điện máy Xanh Ấp Hưng Thạnh Đông, xã Long Hưng B",huyện Lấp Vò,Đồng Tháp,105.52261,10.361479,81000
374,"Điện máy Xanh Ấp K10, xã Phú Hiệp",huyện Tam Nông,Đồng Tháp,105.511541,10.75646,81000
375,"Điện máy Xanh Ấp Kênh Nhà Thờ, xã Tân Lập",huyện Tân Thạnh,Long An,105.944218,10.627549,82000
376,"Điện máy Xanh Ấp Khánh An, xã Tân Khánh Trung",huyện Lấp Vò,Đồng Tháp,105.709108,10.37742,81000
377,"Điện máy Xanh Ấp Khúc Tréo A, xã Tân Phong",huyện Giá Rai (Nay là thị xã Giá Rai),Bạc Liêu,105.329368,9.195829,97000
378,"Điện máy Xanh Ấp Kiến Hưng 1, Xã Kiến Thành",Huyện Chợ Mới,An Giang,105.431925,10.507747,90000
379,"Điện máy Xanh Ấp Kỳ Châu, Xã Bình Quới",Huyện Châu Thành,Long An,106.465849,10.508852,82000
380,"Điện máy Xanh Ấp La Bang Chợ, xã Đôn Châu",huyện Duyên Hải,Trà Vinh,106.380306,9.656472,87000
381,"Điện máy Xanh Ấp Lộc Bình, X. Lộc Giang, H. Đức Hòa",T. Long An (Cách chợ Lộc Giang 150m,Long An,106.31324,11.00686,82000
382,"Điện máy Xanh Ấp Lộc Tiền, Xã Mỹ Lộc",Huyện Cần Giuộc,Long An,106.622756,10.604972,82000
383,"Điện máy Xanh Ấp Long Hiệp, Xã Long An",Thị Xã Tân Châu,An Giang,105.206506,10.802675,90000
384,"Điện máy Xanh Ấp Long Phú A, xã Phú Thành A",huyện Tam Nông,Đồng Tháp,105.437845,10.689587,81000
385,"Điện máy Xanh Ấp Long Thanh , Xã Long Trạch , Huyện Cần Đước ",Tỉnh Long An (Cách Khu công nghiệp Cầu Tràm 200m,Long An,106.588527,10.623308,82000
386,"Điện máy Xanh Ấp Long Thành, TT.Phước Long",H.Phước Long,Bạc Liêu,105.46256,9.435295,97000
387,"Điện máy Xanh Ấp Long Thành, TT.Phước Long",H.Phước Long,Bạc Liêu,105.46256,9.435295,97000
388,"Điện máy Xanh Ấp Mỹ Hòa, xã Nhơn Mỹ",Huyện Chợ Mới,An Giang,105.379417,10.466517,90000
389,"Điện máy Xanh Ấp Mỹ Hội, Xã Mỹ Hội Đông",Huyện Chợ Mới ,An Giang,105.330761,10.541247,90000
390,"Điện máy Xanh Ấp Mỹ Hội, Xã Mỹ Hội Đông",Huyện Chợ Mới ,An Giang,105.330761,10.541247,90000
391,"Điện máy Xanh Ấp Mỹ Thiện, xã Mỹ Đức",huyện Châu Phú,An Giang,105.190384,10.660989,90000
392,"Điện máy Xanh Ấp Nguyễn Rớt, Xã Hậu Thạnh Đông",Huyện Tân Thạnh,Long An,105.88403,10.63882,82000
393,"Điện máy Xanh Ấp Phú Hưng, Xã Phú Thuận",Huyện Bình Đại,Bến Tre,106.494912,10.253253,86000
394,"Điện máy Xanh Ấp Phú Thạnh, xã Phú Lễ",huyện Ba Tri,Bến Tre,106.618777,10.065165,86000
395,"Điện máy Xanh Ấp Phước Thạnh 1, Xã Long Thạnh",Huyện Vĩnh Lợi,Bạc Liêu,105.711402,9.360996,97000
396,"Điện máy Xanh Ấp Phước Thành, xã Phước Long",huyện Phước Long,Bạc Liêu,105.39217,9.374078,97000
397,"Điện máy Xanh Ấp Quân An, Xã Long Thới",Huyện Chợ Lách,Bến Tre,106.186333,10.232778,86000
398,"Điện máy Xanh Ấp Rọ Say, xã Ngũ Lạc",huyện Duyên Hải,Trà Vinh,106.44068,9.608065,87000
399,Điện máy Xanh Ấp Sa Bình,Xã Long Đức. Thành phố Trà Vinh,Trà Vinh,106.339857,9.958729,87000
400,"Điện máy Xanh Ấp Sơn Tân, Xã Vọng Đông",Huyện Thoại Sơn,An Giang,105.201167,10.262833,90000
401,"Điện máy Xanh Ấp Tân Bảnh, xã Tân Phước",huyện Tân Hồng,Đồng Tháp,105.514691,10.820402,81000
402,"Điện máy Xanh Ấp Tân Bình, Xã Phong Hòa",Huyện Lai Vung,Đồng Tháp,105.673585,10.171387,81000
403,"Điện máy Xanh Ấp Tân Khánh, Thị Trấn Long Bình",Huyện An Phú,An Giang,105.081952,10.951907,90000
404,"Điện máy Xanh Ấp Tân Lợi, xã Tân Thành",huyện Lai Vung,Đồng Tháp,105.593667,10.256778,81000
405,"Điện máy Xanh Ấp Tân Phong, Xã Tân Huề",Huyện Thanh Bình,Đồng Tháp,105.358219,10.613353,81000
406,"Điện máy Xanh Ấp Tân Thanh 2, xã Tân Xuân",huyện Ba Tri,Bến Tre,106.628972,10.119306,86000
407,"Điện máy Xanh Ấp Tân Thanh A, xã Phước Lại",huyện Cần Giuộc,Long An,106.679095,10.607747,82000
408,"Điện máy Xanh Ấp Tân Thanh A, xã Phước Lại",huyện Cần Giuộc,Long An,106.679095,10.607747,82000
409,"Điện máy Xanh Ấp Tân Thanh, Xã Thanh Tân",Huyện Mỏ Cày Bắc,Bến Tre,106.326888,10.22897,86000
410,"Điện máy Xanh Ấp Tân Thuận, Xã Tân Nhuận Đông",Huyện Châu Thành,Đồng Tháp,105.830154,10.270248,81000
411,"Điện máy Xanh Ấp Tây Bình, Xã Vĩnh Trạch",Huyện Thoại Sơn,An Giang,105.3162,10.351386,90000
412,"Điện máy Xanh Ấp Tây Lộc, Xã Vĩnh Thành",Huyện Chợ Lách,Bến Tre,106.21572,10.213008,86000
413,"Điện máy Xanh Ấp Thạnh B, Xã Tân Phong",Huyện Thạnh Phú,Bến Tre,106.446278,10.003167,86000
414,"Điện máy Xanh Ấp Thạnh Hòa A, TT. Thạnh Phú",H. Thạnh Phú,Bến Tre,106.51054,9.949143,86000
415,"Điện máy Xanh Ấp Thanh Hòa, Xã Thanh Lương",Thị xã Bình Long,Bình Phước,106.590448,11.711021,67000
416,"Điện máy Xanh Ấp Thanh Tân, xã Thanh Phú Long",huyện Châu Thành,Long An,106.516127,10.454601,82000
417,"Điện máy Xanh Ấp Thị, Xã Hương Mỹ",huyện Mỏ Cày Nam,Bến Tre,106.401352,10.016534,86000
418,"Điện máy Xanh Ấp Thị, Xã Mỹ Hiệp",Huyện Chợ Mới,An Giang,105.5563975,10.493231,90000
419,"Điện máy Xanh Ấp Thuận Điền, Xã An Hiệp",Huyện Châu Thành,Bến Tre,106.28386,10.277694,86000
420,"Điện máy Xanh Ấp Trà Kha, xã Đại An",huyện Trà Cú,Trà Vinh,106.259288,9.700615,87000
421,"Điện máy Xanh Ấp Vĩnh Hiệp, Xã Vĩnh Gia",Huyện Tri Tôn,An Giang,104.792695,10.506269,90000
422,Điện máy Xanh Ấp Vĩnh Hòa,xã Vĩnh Thanh,Bạc Liêu,105.520452,9.35853,97000
423,"Điện máy Xanh ấp Vĩnh Lạc, Xã Vĩnh Thịnh, Huyện Hòa Bình",Tỉnh Bạc Liêu,Bạc Liêu,105.574861,9.163132,97000
424,"Điện máy Xanh Ấp Vĩnh Lợi, X. Vĩnh Thạnh",H. Lấp Vò,Đồng Tháp,105.61927,10.334909,81000
425,"Điện máy Xanh Bản 8 ( Nay là thôn Tát Diêu), Xã Khánh Hòa",huyện Lục Yên,Yên Bái,104.767636,22.110491,33000
426,"Điện máy Xanh Bản Vạn 1, Xã Bế Triều, Huyện Hòa An",Tỉnh Cao Bằng,Cao Bằng,106.15575,22.733117,21000
427,"Điện máy Xanh Cách Mạng Tháng 8, KP. Thạnh Lợi, P. An Thạnh",TP. Thuận An,Bình Dương,106.68775,10.947374,75000
428,Điện máy Xanh Cát Tiến,huyện Phù Cát,Bình Định,109.053653,14.004622,55000
429,"Điện máy Xanh Chợ Sơn, xã Việt Đoàn",huyện Tiên Du,Bắc Ninh,106.03702,21.11168,16000
430,"Điện máy Xanh Cụm 11, xã Tân Hội",H. Đan Phượng,Hà Nội,105.70542,21.095078,10000
431,"Điện máy Xanh Cụm 11, xã Tân Hội",H. Đan Phượng,Hà Nội,105.70542,21.095078,10000
432,"Điện máy Xanh Cụm 2, xã Thọ Xuân",huyện Đan Phượng,Hà Nội,105.646615,21.121256,10000
433,"Điện máy Xanh Cụm 5, xã Vân Phúc",H. Phúc Thọ,Hà Nội,105.59444,21.148284,10000
434,"Điện máy Xanh Cụm 9, X. Hồng Hà, H. Đan Phượng",TP. Hà Nội (ngã 3 Đê - Hồng Hà,Hà Nội,105.6794,21.127994,10000
435,"Điện máy Xanh Cụm 9, Xóm Trung Phú, Xã Phụng Thượng",Huyện Phúc Thọ,Hà Nội,105.545681,21.104245,10000
436,"Điện máy Xanh Địa chỉ đội 24, xã Noong Hẹt",huyện Điện Biên,Điện Biên,103.010638,21.317551,32000
437,"Điện máy Xanh Đội 10, xã Tân Phú",H. Tân Sơn,Phú Thọ,105.01643,21.218465,35000
438,"Điện máy Xanh Đội 6, Thôn Đông, Xã Cổ Dũng, Huyện Kim Thành",Tỉnh Hải Dương,Hải Dương,106.511064,20.965431,3000
439,"Điện máy Xanh Đội 7, Thôn 2, xã Quảng Bị",H. Chương Mỹ,Hà Nội,105.70034,20.863196,10000
440,"Điện máy Xanh ĐT 954, Ấp Phú Xương, TT. Chợ Vàm",H. Phú Tân,An Giang,105.34455,10.713943,90000
441,"Điện máy Xanh Đường 280 Thị Trấn Thứa, Thị Trấn Thứa",H. Lương Tài,Bắc Ninh,106.2006,21.018394,16000
442,"Điện máy Xanh Đường 328, Thửa số 761, tờ bản đồ số 71, ấp 2 Đông, xã Bàu Lâm",huyện Xuyên Mộc,Bà Rịa - Vũng Tàu,107.3885231,10.6937971,78000
443,"Điện máy Xanh Đường 673, thửa đất số 1619, tờ bản đồ số 02, khu phố Định Tố, Thị Trấn Vĩnh Thạnh",huyện Vĩnh Thạnh,Bình Định,108.78395,14.10101,55000
444,"Điện máy Xanh Đường 70, X. Tân Triều, H. Thanh Trì",TP. Hà Nội (gần ngã ba Xa La,Hà Nội,105.79449,20.964337,10000
445,"Điện máy Xanh Đường 882, Ấp Phước Khánh , Xã Phước Mỹ Trung",H. Mỏ Cày Bắc,Bến Tre,106.27346,10.1885,86000
446,"Điện máy Xanh Đường 885, Ấp Tân Bình, X. Tân Thuỷ",H. Ba Tri,Bến Tre,106.62085,10.008795,86000
447,"Điện máy Xanh Đường DH411, Khu phố 2, Thị trấn Tân Thành",Huyện Bắc Tân Uyên,Bình Dương,106.844007,11.149222,75000
448,"Điện máy Xanh Đường ĐH704, ấp Hòa Cường, Xã Minh Hòa",Huyện Dầu Tiếng,Bình Dương,106.48402,11.446194,75000
449,"Điện máy Xanh Đường ĐT 328, Xã Hòa Bình",Huyện Xuyên Mộc,Bà Rịa - Vũng Tàu,107.372236,10.626754,78000
450,"Điện máy Xanh Đường ĐT 722, Thôn 1, Xã Rô Men, Huyện Đam Rông",Tỉnh Lâm Đồng,Lâm Đồng,108.145231,12.118889,66000
451,"Điện máy Xanh Đường DT 724, Thôn Tân Trung, Xã Tân Hội",Huyện Đức Trọng,Lâm Đồng,108.28979,11.71401,66000
452,"Điện máy Xanh Đường ĐT 757, Ấp Thanh Sơn, Xã Thanh An",Huyện Hớn Quản,Bình Phước,106.724086,11.7383778,67000
453,"Điện máy Xanh Đường ĐT 760, Xã Bom Bo",Huyện Bù Đăng,Bình Phước,107.186639,11.913139,67000
454,"Điện máy Xanh Đường ĐT 763, Tổ Dân Phố 01, Thị Trấn Ia Ly, Huyện Chư Păh",Tỉnh Gia Lai,Gia Lai,107.837389,14.205528,61000
455,"Điện máy Xanh Đường DT 833, Ấp Bà Mía, Xã Mỹ Lạc, Huyện Thủ Thừa",Tỉnh Long An,Long An,106.3134769,10.6413217,82000
456,"Điện máy Xanh Đường DT624, xã Hành Thiện",huyện Nghĩa Hành,Quảng Ngãi,108.777194,15.05279,53000
457,"Điện máy Xanh Đường DT742, tổ 1, ấp Phú Trung, phường Phú Chánh",thị xã Tân Uyên,Bình Dương,106.697528,11.070083,75000
458,"Điện máy Xanh Đường ĐT744, tổ 4, Ấp Chợ, Xã Thanh Tuyền",Huyện Dầu Tiếng,Bình Dương,106.448142,11.160963,75000
459,"Điện máy Xanh Đường Giáp Văn Cương, Phố Thanh Xuân, TT. Đồi Ngô",H. Lục Nam,Bắc Giang,106.3810363,21.301464,26000
460,"Điện máy Xanh Đường Hạnh Phúc, thị trấn Mèo Vạc",huyện Mèo Vạc,Hà Giang,105.410731,23.16325,20000
461,"Điện máy Xanh Đường Hùng Vương, Khối 8, thị trấn Đăk Tô",huyện Đăk Tô,Kon Tum,107.844045,14.646464,60000
462,"Điện máy Xanh Đường Hùng Vương, tổ 5, khu vực 7, P.Trần Quang Diệu",TP. Quy Nhơn,Bình Định,109.14943,13.793085,55000
463,"Điện máy Xanh Đường Hương Lộ 5, tổ 6, ấp Phước Thuận, X. Phước Tỉnh",H. Long Điền,Bà Rịa - Vũng Tàu,107.18902,10.406488,78000
464,"Điện máy Xanh Đường Lê Duẩn, TT. Liên Hương",H. Tuy Phong,Bình Thuận,108.72807,11.225558,77000
465,"Điện máy Xanh Đường Lộc An - Láng Dài, Ấp An Hòa, Xã Lộc An, Huyện Đất Đỏ",Tỉnh Bà Rịa - Vũng Tàu,Bà Rịa - Vũng Tàu,107.270413,10.48959,78000
466,"Điện máy Xanh Đường Long Hậu, Khu dân cư Long Hậu, Ấp 3, Xã Long Hậu",Huyện Cần Giuộc,Long An,106.729861,10.631024,82000
467,"Điện máy Xanh Đường Mê Pu, xã Mê Pu",huyện Đức Linh,Bình Thuận,107.566403,11.187873,77000
468,"Điện máy Xanh Đường Mỹ Xuân – Ngãi Giao, Ấp 3, Xã Sông Xoài",Thị xã Phú Mỹ,Bà Rịa - Vũng Tàu,107.055002,10.59721,78000
469,"Điện máy Xanh Đường NE8, Khu đô thị Mỹ Phước 3, Khu 3B, Phường Thới Hòa",Thị xã Bến Cát,Bình Dương,106.63716,11.097512,75000
470,"Điện máy Xanh Đường Nguyễn Hoàng, TT. Hà Lam",H. Thăng Bình,Quảng Nam,108.35875,15.742566,51000
471,"Điện máy Xanh Đường Nguyễn Huệ, Ấp Bắc Sơn, TT. Núi Sập",H. Thoại Sơn,An Giang,105.26688,10.267361,90000
472,"Điện máy Xanh Đường Nguyễn Huệ, tổ 3, thị trấn Kông Chro",huyện Kông Chro,Gia Lai,108.524573,13.777088,61000
473,"Điện máy Xanh Đường Nguyễn Tất Thành, TT. Ái Nghĩa",H. Đại Lộc,Quảng Nam,108.11152,15.882951,51000
474,"Điện máy Xanh Đường Nguyễn Văn Tiết, khu phố Bình Hòa, phường Lái Thiêu",thành phố Thuận An,Bình Dương,106.704149,10.911357,75000
475,"Điện máy Xanh Đường Phan Bội Châu, Phường Tân Thạnh",Thành phố Tam Kỳ,Quảng Nam,108.48179,15.573799,51000
476,"Điện máy Xanh Đường QL 13, Khu phố Tây, Phường Vĩnh Phú, Thành Phố Thuận An",Tỉnh Bình Dương,Bình Dương,106.699701,10.877112,75000
477,"Điện máy Xanh Đường QL3, Tổ 4, Phường Đề Thám",thành phố Cao Bằng,Cao Bằng,106.258046,22.664012,21000
478,"Điện máy Xanh Đường QL37B, Thôn Điện Biên, Xã Bình Thanh",Huyện Kiến Xương,Thái Bình,106.441377,20.322273,6000
479,"Điện máy Xanh Đường QL39A, Thôn Tân Việt, Trưng Trắc A, xã Đông Á",huyện Đông Hưng,Thái Bình,106.40509,20.50957,6000
480,"Điện máy Xanh Đường QL55, xã Tân Hà",huyện Hàm Tân,Bình Thuận,107.72101,10.803542,77000
481,"Điện máy Xanh Đường Quang Trung, P.Sông Trí",T.X Kỳ Anh,Hà Tĩnh,106.28862,18.078358,45000
482,"Điện máy Xanh Đường Quang Trung, TDP 7, TT. K'Bang",H. K'Bang,Gia Lai,108.60356,14.137224,61000
483,"Điện máy Xanh Đường Quang Trung, TT. Khánh Yên",H. Văn Bàn,Lào Cai,104.25259,22.089676,31000
484,"Điện máy Xanh Đường Quốc Lộ 1 A, X. Bình Trung, H. Quốc Lộ 1A, Xã Bình Trung",Huyện Thăng Bình,Quảng Nam,108.41022,15.67278,51000
485,"Điện máy Xanh Đường Quốc Lộ 2, TDP. Tân An, TT. Tân Yên",H. Hàm Yên,Tuyên Quang,105.0329,22.058082,22000
486,"Điện máy Xanh Đường Quốc Lộ 20, Xã Hòa Ninh",Huyện Di Linh,Lâm Đồng,107.94406,11.53916,66000
487,"Điện máy Xanh Đường Quốc lộ 20C, Khu 04, Thị trấn Di Linh",Huyện Di Linh,Lâm Đồng,108.111895,11.613507,66000
488,"Điện máy Xanh Đường Quốc lộ 24B, xã Tịnh Hà",huyện Sơn Tịnh,Quảng Ngãi,108.797379,15.15779,53000
489,"Điện máy Xanh Đường Quốc lộ 27, thị trấn D'Ran",huyện Đơn Dương,Lâm Đồng,108.602,11.845556,66000
490,"Điện máy Xanh Đường Quốc Lộ 27, Thôn Trung Tâm, Xã Phi Liêng, Huyện Đam Rông",Tỉnh Lâm Đồng,Lâm Đồng,108.138363,11.93943,66000
491,"Điện máy Xanh Đường Quốc Lộ 28, xã Hàm Trí",huyện Hàm Thuận Bắc,Bình Thuận,108.130902,11.07298,77000
492,"Điện máy Xanh Đường Quốc Lộ 37, thôn Lãng Xuyên, xã Gia Tân, huyện Gia Lộc",tỉnh Hải Dương (Cây xăng vòng xuyến Gia Lộc,Hải Dương,106.296421,20.881061,3000
493,"Điện máy Xanh Đường quốc lộ 70, Khu Phố, xã Tây Cốc",H. Đoan Hùng,Phú Thọ,105.13213,21.632305,35000
494,"Điện máy Xanh Đường Quốc lộ ĐT 721, Thị trấn Phước Cát",Huyện Cát Tiên,Lâm Đồng,107.312309,11.565448,66000
495,"Điện máy Xanh Đường Sao Bọng - Đăng Hà, ấp 3, Xã Thống Nhất",Huyện Bù Đăng,Bình Phước,107.2007727,11.6624396,67000
496,"Điện máy Xanh Đường Thanh Niên, Tổ 9, P.Trung Tâm",TX. Nghĩa Lộ,Yên Bái,104.50975,21.601693,33000
497,"Điện máy Xanh Đường Tỉnh Lộ 1, thôn 15, xã Tân Hòa",huyện Buôn Đôn,Đắk Lắk,107.90043,12.80586,63000
498,"Điện máy Xanh Đường Tỉnh lộ 52, xã Hòa Long",huyện Châu Thành (Nay là TP. Bà Rịa),Bà Rịa - Vũng Tàu,107.204515,10.521181,78000
499,"Điện máy Xanh Đường Trần Đăng Ninh, tổ dân phố 6, P. Tân Thanh",TP. Điện Biên Phủ,Điện Biên,103.01464,21.392529,32000
500,"Điện máy Xanh Đường Trần Hưng Đạo, Ngã 6, Tổ 14, Phường Kim Tân",Tp Lào Cai,Lào Cai,103.976,22.481462,31000
501,"Điện máy Xanh Đường Trần Hưng Đạo, P. Mỹ Thới",TP. Long Xuyên,An Giang,105.46266,10.349667,90000
502,"Điện máy Xanh Đường Trần Hưng Đạo, Thôn 1, TT. Sa Thầy",H. Sa Thầy,Kon Tum,107.80062,14.40454,60000
503,"Điện máy Xanh Đường Trần Nhân Tông, Tổ 7, Khu 1, P.Yên Thanh",TP.Uông Bí,Quảng Ninh,106.75742,21.033755,1000
504,"Điện máy Xanh Đường Trần Phú, Khóm 2, Phường 7",TP. Bạc liêu,Bạc Liêu,105.72125,9.303639,97000
505,"Điện máy Xanh Đường Trần Phú, Khóm Long Thạnh D, P. Long Thạnh",TX. Tân Châu,An Giang,105.23769,10.795982,90000
506,"Điện máy Xanh Đường Võ Nguyên Giáp, phường Duy Tân",thành phố Kon Tum,Kon Tum,108.00957,14.3763,60000
507,"Điện máy Xanh Đường Võ Nguyên Giáp, tổ dân phố 3, thị trấn Măng Đen",huyện Kon Plong,Kon Tum,108.288585,14.603454,60000
508,"Điện máy Xanh Đường Võ Thị Sáu, Khu phố Phước Trung, Thị Trấn Phước Hải",Huyện Đất Đỏ,Bà Rịa - Vũng Tàu,107.292434,10.427115,78000
509,"Điện máy Xanh Đường Võ Văn Kiệt, Tổ 4, khu phố Trảng Cát, phường Hắc Dịch, thị xã Phú Mỹ",tỉnh Bà Rịa - Vũng Tàu,Bà Rịa - Vũng Tàu,107.090051,10.64039,78000
510,"Điện máy Xanh Đường Võ Văn Kiệt, tổ 7, TT. Quang Minh",H. Mê Linh,Hà Nội,105.7808,21.194417,10000
511,"Điện máy Xanh Góc đường N1–D6, Khu phố 4, Phường Mỹ Phước, Thị Xã Bến Cát",Tỉnh Bình Dương,Bình Dương,106.593509,11.151431,75000
512,"Điện máy Xanh Khối 2 (An Thái), TT Tam Quan",H. Hoài Nhơn,Bình Định,109.040029,14.540153,55000
513,"Điện máy Xanh Khối 3A Đường Nguyễn Tất Thành,Thị trấn Ea Kar",Huyện Ea Kar,Đắk Lắk,108.44909,12.81029,63000
514,"Điện máy Xanh Khối 4, Thị trấn Tây Sơn, Huyện Hương Sơn",Tỉnh Hà Tĩnh (Ngã tư Trung Tâm,Hà Tĩnh,105.300852,18.458133,45000
515,"Điện máy Xanh Khối 6, Thị Trấn Khâm Đức",Huyện Phước Sơn,Quảng Nam,107.797099,15.444151,51000
516,"Điện máy Xanh Khối 7, thị trấn Xuân An",huyện Nghi Xuân,Hà Tĩnh,105.720249,18.644119,45000
517,"Điện máy Xanh Khối Phố Tiên Bình, TT. Tiên Kỳ",H. Tiên Phước,Quảng Nam,108.30629,15.488546,51000
518,"Điện máy Xanh Khối Viêm Trung, P. Điện Ngọc",TX. Điện Bàn,Quảng Nam,108.25478,15.936128,51000
519,"Điện máy Xanh Khóm 02, Thị Trấn Châu Thành",Huyện Châu Thành,Trà Vinh,106.347378,9.871831,87000
520,"Điện máy Xanh Khóm 02, thị trấn Mỹ Long",huyện Cầu Ngang,Trà Vinh,106.506586,9.8084,87000
521,"Điện máy Xanh Khóm 02, TT. Tầm Vu",H. Châu Thành,Long An,106.46734,10.44195,82000
522,"Điện máy Xanh Khóm 06, thị trần Long Thành",huyện Duyên Hải,Trà Vinh,106.439701,9.606919,87000
523,"Điện máy Xanh Khóm 1, thị trấn Cầu Quan",huyện Tiểu Cần,Trà Vinh,106.130582,9.772369,87000
524,"Điện máy Xanh Khóm 1, TT. Chi Lăng",H. Tịnh Biên,An Giang,105.02636,10.532007,90000
525,"Điện máy Xanh Khóm 1, TT. Lai Vung",H. Lai Vung,Đồng Tháp,105.66269,10.285972,81000
526,"Điện máy Xanh Khóm Bình Thạnh 1, TT. Lấp Vò",H. Lấp Vò,Đồng Tháp,105.52446,10.362655,81000
527,"Điện máy Xanh Khóm Tân Hòa, P. An Hòa",Tp. Sa Đéc,Đồng Tháp,105.74624,10.312271,81000
528,"Điện máy Xanh Khu 02, Thị trấn Lộc Thắng",Huyện Bảo Lâm,Lâm Đồng,107.839737,11.625492,66000
529,"Điện máy Xanh Khu 06, thị trấn Cát Tiên",huyện Cát Tiên,Lâm Đồng,107.360528,11.584667,66000
530,"Điện máy Xanh Khu 11, TT. Bo",H. Kim Bôi,Hòa Bình,105.53665,20.672963,36000
531,"Điện máy Xanh Khu 11, TT. Hàng Trạm",H. Yên Thủy,Hòa Bình,105.62228,20.395425,36000
532,"Điện máy Xanh Khu 11, TT.Lập Thạch",H.Lập Thạch,Vĩnh Phúc,105.46388,21.413925,15000
533,"Điện máy Xanh Khu 15, thôn Yên Nhân, xã Tiền Phong",H. Mê Linh,Hà Nội,105.75677,21.15038,10000
534,"Điện máy Xanh Khu 2, thị trấn Chi Nê",huyện Lạc Thủy,Hòa Bình,105.77706,20.491507,36000
535,"Điện máy Xanh Khu 2, TT. Thác Bà",H. Yên Bình,Yên Bái,105.04694,21.747429,33000
536,"Điện máy Xanh Khu 2, Xã Phú Lạc",Huyện Cẩm Khê,Phú Thọ,105.14786,21.39078,35000
537,"Điện máy Xanh Khu 2, xã Trạm Thản",huyện Phù Ninh,Phú Thọ,105.313537,21.411027,35000
538,"Điện máy Xanh Khu 22, xã Hoàng Xá",huyện Thanh Thuỷ,Phú Thọ,105.281216,21.115137,35000
539,"Điện máy Xanh Khu 3, Ngã 3 Mãn Đức , TT Mường Khến",Huyện Tân Lạc,Hòa Bình,105.27742,20.620945,36000
540,"Điện máy Xanh Khu 3, thôn Đoài, Thị Trấn Yên Lạc",Huyện Yên Lạc,Vĩnh Phúc,105.574955,21.235308,15000
541,"Điện máy Xanh Khu 3, TT. An Châu, H. Sơn Động",T. Bắc Giang (Cách chợ An Châu 100 m,Bắc Giang,106.84965,21.335077,26000
542,"Điện máy Xanh Khu 4, phường Quang Hanh",thành phố Cẩm Phả,Quảng Ninh,107.21962,21.0050784,1000
543,"Điện máy Xanh Khu 4, Phường Vàng Danh, Thành phố Uông Bí",Tỉnh Quảng Ninh,Quảng Ninh,106.7968847,21.0983277,1000
544,"Điện máy Xanh Khu 5, P. Mông Dương",TP. Cẩm Phả,Quảng Ninh,107.32459,21.065952,1000
545,"Điện máy Xanh Khu 5A, Thị Trấn Than Uyên, Huyện Than Uyên",Tỉnh Lai Châu,Lai Châu,103.885024,21.952422,30000
546,"Điện máy Xanh Khu 6, thôn Thuỵ Lôi, xã Thuỵ Lâm",huyện Đông Anh,Hà Nội,105.90631,21.175943,10000
547,"Điện máy Xanh Khu 7, P. Nam Hoà",TX. Quảng Yên,Quảng Ninh,106.79692,20.930258,1000
548,"Điện máy Xanh Khu 8, Thị Trấn Thanh Ba",Huyện Thanh Ba,Phú Thọ,105.13431,21.498774,35000
549,"Điện máy Xanh Khu 8, TT. Diêm Điền",H. Thái Thụy,Thái Bình,106.56584,20.56331,6000
550,"Điện máy Xanh Khu 8, TT. Hạ Hòa",H. Hạ Hòa,Phú Thọ,105.00111,21.56117,35000
551,"Điện máy Xanh Khu Cầu Đặng, X. Bình Phú",H. Thạch Thất,Hà Nội,105.60936,21.020031,10000
552,"Điện máy Xanh Khu Chợ, Xã Hiền Ninh",Huyện Sóc Sơn,Hà Nội,105.77095,21.24763,10000
553,"Điện máy Xanh Khu Chùa Tổng, thôn Ngãi Câu, X. An Khánh",H. Hoài Đức,Hà Nội,105.7291,20.991696,10000
554,"Điện máy Xanh Khu Cộng Hòa, Thị Trấn Thanh Nê",Huyện Kiến Xương,Thái Bình,106.434386,20.389105,6000
555,"Điện máy Xanh Khu công nghiệp Đại Đồng - Hoàn Sơn, Xã Hoàn Sơn, Huyện Tiên Du",Tỉnh Bắc Ninh,Bắc Ninh,105.9896,21.109249,16000
556,"Điện máy Xanh Khu Đầm Săn, TT. Liên Quan",H. Thạch Thất,Hà Nội,105.57512,21.059155,10000
557,"Điện máy Xanh Khu dân cư 15, thôn Thạch Trụ Tây, xã Đức Lân",H. Mộ Đức,Quảng Ngãi,108.92129,14.887879,53000
558,"Điện máy Xanh Khu dân cư Bắc Thăng Long, xã Hải Bối",H. Đông Anh,Hà Nội,105.78908,21.113228,10000
559,"Điện máy Xanh Khu dân cư mới TT. Bố Hạ, phố Hòa Bình",H. Yên Thế,Bắc Giang,106.1913,21.446916,26000
560,"Điện máy Xanh Khu dân cư O - CL3 Tây Bắc, Thôn Agrong, Xã A Tiêng",Huyện Tây Giang,Quảng Nam,107.4907497,15.887484,51000
561,"Điện máy Xanh Khu dân cư Quang Thành 3B, Phường Hòa Khánh Bắc, Quận Liên Chiểu",Thành phố Đà Nẵng,Đà Nẵng,108.146475,16.081114,50000
562,"Điện máy Xanh Khu dân cư quy hoạch, thị trấn Bình Liêu",H. Bình Liêu,Quảng Ninh,107.399381,21.525249,1000
563,"Điện máy Xanh Khu đầu chợ Phượng, thôn Phượng Nghĩa, Xã Phụng Châu",Huyện Chương Mỹ ,Hà Nội,105.704747,20.921719,10000
564,"Điện máy Xanh Khu Đầu, Thị Trấn Hưng Nhân",Huyện Hưng Hà,Thái Bình,106.153202,20.620977,6000
565,"Điện máy Xanh Khu Đức Lập, TT. Đức Phong",H. Bù Đăng,Bình Phước,107.24816,11.812887,67000
566,"Điện máy Xanh Khu F4 Trung tâm Thương Mại, TT. Tam Đường",H. Tam Đường,Lai Châu,103.62452,22.32136,30000
567,"Điện máy Xanh Khu Minh Tân, Xã Minh Tân",Huyện Cẩm Khê,Phú Thọ,105.0815658,21.4708789,35000
568,"Điện máy Xanh Khu nhà ở Phù Khê, Đường Nguyễn Văn Cừ, Xã Phù Khê",Thị xã Từ Sơn,Bắc Ninh,105.93673,21.139233,16000
569,"Điện máy Xanh Khu Nhà Thờ, TT. Lộc Bình",H. Lộc Bình,Lạng Sơn,106.92256,21.759655,25000
570,"Điện máy Xanh Khu Nhân Cầu 2, TT. Hưng Hà",H. Hưng Hà,Thái Bình,106.22492,20.588605,6000
571,Điện máy Xanh Khu phố 02 thị trấn Tân Minh,huyện Hàm Tân,Bình Thuận,107.633423,10.842109,77000
572,Điện máy Xanh Khu phố 03,phường Đông Hải,Ninh Thuận,109.023533,11.548804,59000
573,"Điện máy Xanh Khu phố 03, phường Chánh Phú Hòa",thị xã Bến Cát,Bình Dương,106.670312,11.14635,75000
574,"Điện máy Xanh Khu phố 03, Thị trấn Đạ M’ri",Huyện Đạ Huoai,Lâm Đồng,107.659137,11.41077,66000
575,"Điện máy Xanh Khu phố 1, thị trấn Bình Đại",huyện Bình Đại,Bến Tre,106.69113,10.191404,86000
576,"Điện máy Xanh Khu phố 2, thị trấn Tân Nghĩa",huyện Hàm Tân,Bình Thuận,107.726381,10.823842,77000
577,"Điện máy Xanh Khu phố 2, TT. Bến Lức",H. Bến Lức,Long An,106.48506,10.643201,82000
578,"Điện máy Xanh Khu phố 2, TT. Giồng Trôm",H. Giồng Trôm,Bến Tre,106.50555,10.150815,86000
579,"Điện máy Xanh Khu phố 2, TT. Hương Canh",H. Bình Xuyên,Vĩnh Phúc,105.65011,21.272633,15000
580,"Điện máy Xanh Khu phố 5, Phường Phong Cốc, Thị xã Quảng Yên",Tỉnh Quảng Ninh,Quảng Ninh,106.804309,20.941885,1000
581,"Điện máy Xanh Khu phố 6, Thị Trấn Cổ Phúc",H. Trấn Yên,Yên Bái,104.83247,21.751389,33000
582,"Điện máy Xanh Khu phố Bình Chuẩn, P. Bình Chuẩn",TP. Thuận An,Bình Dương,106.720632,10.981154,75000
583,"Điện máy Xanh Khu phố Bình Hoà, thị trấn Tân Trụ",huyện Tân Trụ,Long An,106.5068865,10.514485,82000
584,"Điện máy Xanh Khu phố Bình Quới, P. Bình Chuẩn",TP.Thuận An,Bình Dương,106.70734,10.988083,75000
585,"Điện máy Xanh Khu phố Cửa Nhì ( Nay là tổ dây phố Trung Tâm), Xã Sơn Thịnh ( Nay là thị trấn Sơn Thịnh)",huyện Văn Chấn,Yên Bái,104.57863,21.56545,33000
586,"Điện máy Xanh Khu phố Đường Ngang, phường Minh Thành",thị xã Quảng Yên,Quảng Ninh,106.85725,21.005543,1000
587,"Điện máy Xanh Khu phố mới, Tỉnh lộ 477, TT. Me",H. Gia Viễn,Ninh Bình,105.83296,20.347621,8000
588,"Điện máy Xanh Khu phố Nội Hóa 2, phường Bình An",thị phố Dĩ An,Bình Dương,106.793391,10.902984,75000
589,"Điện máy Xanh Khu QHDC phía Đông đường Tây tỉnh, xã Nhơn Phúc",thị xã An Nhơn,Bình Định,109.0160579,13.9075001,55000
590,Điện máy Xanh Khu quy hoạch cảng cá Cà Ná mở rộng,Huyện Thuận Nam,Ninh Thuận,108.8889,11.343303,59000
591,"Điện máy Xanh Khu Tân Hưng, Thị Trấn Hưng Hóa",Huyện Tam Nông,Phú Thọ,105.291606,21.254324,35000
592,"Điện máy Xanh Khu Tân Hương, xã Hương Cần",Thanh Sơn,Phú Thọ,105.241514,21.022423,35000
593,"Điện máy Xanh Khu Tân Tiến, TT Lâm Thao",H.Lâm Thao,Phú Thọ,105.28395,21.325407,35000
594,"Điện máy Xanh Khu TM4 - Quốc lộ 1A, P. Thanh Châu",TP. Phủ Lý,Hà Nam,105.91411,20.532209,18000
595,"Điện máy Xanh Khu trung tâm 2, xã Thu Cúc",Thanh Sơn,Phú Thọ,104.90718,21.27654,35000
596,"Điện máy Xanh Khu Trung Tâm, Xã Lương Sơn",Huyện Yên Lập,Phú Thọ,104.9720924,21.4531437,35000
597,"Điện máy Xanh Khu Trung Yên, TT. Yên Thịnh",H. Yên Mô,Ninh Bình,106.00562,20.161854,8000
598,"Điện máy Xanh Khu Vĩnh Tuy 1, phường Mạo Khê",thị xã Đông Triều,Quảng Ninh,106.60723,21.053961,1000
599,"Điện máy Xanh Khu vực 1, Thị Trấn Đông Thành",Huyện Đức Huệ,Long An,106.30787,10.893667,82000
600,"Điện máy Xanh Khu vực 2, Thị Trấn Đức Hòa",Huyện Đức Hòa,Long An,106.45447,10.817014,82000
601,"Điện máy Xanh Kilomet 28, quốc lộ 6, X. Trường Yên",H. Chương Mỹ,Hà Nội,105.64295,20.918951,10000
602,"Điện máy Xanh Kiot Số 8-9-10 Nguyễn Đình Chiểu, TT. Đạ Tẻh",H. Đạ Tẻh,Lâm Đồng,107.48767,11.505143,66000
603,"Điện máy Xanh Km 38, Quốc lộ 26, Xã Ea Kuăng, Huyện Krông Pắk",Tỉnh Đắk Lắk,Đắk Lắk,108.367807,12.731291,63000
604,"Điện máy Xanh KM 40 + 500, Quốc lộ 5A, thôn Tràng Kỹ, xã Tân Trường",huyện Cẩm Giàng,Hải Dương,106.218255,20.937247,3000
605,"Điện máy Xanh Km 62, QL 26, TT. Ea Knốp",H. Eakar,Đắk Lắk,108.53845,12.806457,63000
606,"Điện máy Xanh KP Đông Chiêu, P. Tân Đông Hiệp",TP. Dĩ An,Bình Dương,106.76034,10.926944,75000
607,"Điện máy Xanh KP. 4, P. Yên Giang",TX. Quảng Yên,Quảng Ninh,106.79409,20.940249,1000
608,"Điện máy Xanh KP. Hòa Lân 2, P. Thuận Giao",TP. Thuận An,Bình Dương,106.71802,10.94834,75000
609,"Điện máy Xanh Làng Hiệp Hội, thị trấn Vân Canh",huyện Vân Canh,Bình Định,108.996236,13.631725,55000
610,"Điện máy Xanh Lô 01A trích thửa 305 và lô 01B trích thửa 305, tờ bản đồ số 02, thị tứ Tân Lập, xã Tân Lập",huyện Vũ Thư,Thái Bình,106.290358,20.434184,6000
611,"Điện máy Xanh Lô 01-B6.1 Nguyễn Tất Thành, P. Xuân Hà",Q. Thanh Khê,Đà Nẵng,108.191815,16.072426,50000
612,"Điện máy Xanh Lô A8, đường Võ Văn Kiệt, P. An Hải Đông",Q. Sơn Trà,Đà Nẵng,108.2348,16.061916,50000
613,"Điện máy Xanh Lô D3, Đường Hoàng Hoa Thám, TT.Cao Thượng",H.Tân Yên,Bắc Giang,106.12715,21.38607,26000
614,"Điện máy Xanh Lô số 263B, Tờ BDGT số 01, Tổ 4 đội 3 (nay là Thôn Việt Hoà, Xã Vân Hoà",Ba Vì,Hà Nội,105.4338763,21.0770943,10000
615,"Điện máy Xanh Lô số 285,108,293, đường D3, khu Tái Định Cư, thôn Phú Xuân, xã Gia Phú",huyện Bảo Thắng,Lào Cai,104.081433,22.368056,31000
616,"Điện máy Xanh Ngã 3 Tuần Giáo, Khối Tân Thủy, TT. Tuần Giáo",H. Tuần Giáo,Điện Biên,103.42144,21.588993,32000
617,"Điện máy Xanh Ngã ba Cát Lem, Xã Bằng Luân",Huyện Đoan Hùng,Phú Thọ,105.07815,21.68093,35000
618,"Điện máy Xanh Ngã ba Diêm, Thôn Kiều Trai, Xã Minh Tân",Huyện Hưng Hà,Thái Bình,106.180975,20.570305,6000
619,"Điện máy Xanh Ngã ba Trần Nhân Tông và Tuệ Tĩnh, P. Vĩnh Điện",TX. Điện Bàn,Quảng Nam,108.24797,15.891529,51000
620,"Điện máy Xanh Ngã Tư bưu điện huyện Cẩm Khê,Thị trấn Sông Thao ",Huyện Sông Thao (nay là huyện Cẩm Khê),Phú Thọ,105.13305,21.421639,35000
621,"Điện máy Xanh Ngã Tư Đông Côi, TT. Hồ",huyện Thuận Thành,Bắc Ninh,106.09522,21.038694,16000
622,"Điện máy Xanh Ngã tư nhà máy sứ Hải Dương, đường Phạm Ngũ Lão",TP. Hải Dương,Hải Dương,106.32117,20.938796,3000
623,"Điện máy Xanh Ngã tư Sơn Đồng, xã Sơn Đồng",H. Hoài Đức,Hà Nội,105.7039,21.047361,10000
624,"Điện máy Xanh Nguyễn Hội, Phường Phú Trinh",TP Phan Thiết,Bình Thuận,108.09715,10.93516,77000
625,"Điện máy Xanh Nguyễn Tất Thành, TT. Krông Năng, H. Krông Năng",T. Đăk Lăk (Ngã 4 Krông Năng,Đắk Lắk,108.34268,12.951943,63000
626,"Điện máy Xanh Ô số 1-2-3, Khu A, Lô II-7, Khu đô thị mới, Thị Trấn Sóc Sơn",Huyện Sóc Sơn,Hà Nội,105.84895,21.258279,10000
627,"Điện máy Xanh P. Khánh Bình, TX. Tân Uyên",T. Bình Dương (Kế bên chợ Quang Vinh 1,Bình Dương,106.75239,11.048473,75000
628,Điện máy Xanh P. Minh Khai,Q. Bắc Từ Liêm,Hà Nội,105.7418,21.04902,10000
629,"Điện máy Xanh Phố 2, TT. Yên Ninh",H. Yên Khánh,Ninh Bình,106.06358,20.182306,8000
630,"Điện máy Xanh Phố Ba Mỏ, TT. Thanh Sơn",H. Thanh Sơn,Phú Thọ,105.17894,21.205883,35000
631,"Điện máy Xanh Phố Bái, TT. Nho Quan",H. Nho Quan,Ninh Bình,105.75087,20.323225,8000
632,"Điện máy Xanh Phố Chờ, thị trấn Chờ",huyện Yên Phong,Bắc Ninh,105.956508,21.193909,16000
633,"Điện máy Xanh Phố Giang Trung, TT. Giang Tiên",H. Phú Lương,Thái Nguyên,105.73909,21.673239,24000
634,"Điện máy Xanh Phố Hoàng Hoa Thám, Thị Trấn Quảng Hà, Huyện Hải Hà, Tỉnh Quảng Ninh",Việt Nam. (Đối diện chợ Đức Dương,Quảng Ninh,107.750463,21.450683,1000
635,"Điện máy Xanh Phố Keo, Xã Kim Sơn",Huyện Gia Lâm,Hà Nội,105.9888704,21.0262523,10000
636,"Điện máy Xanh Phố Me, Thị Trấn Hợp Hòa",Huyện Tam Dương,Vĩnh Phúc,105.541468,21.377837,15000
637,"Điện máy Xanh Phố Ngã Ba, TT. Phủ Thông",H. Bạch Thông,Bắc Kạn,105.87981,22.272272,23000
638,"Điện máy Xanh Phố Nhông, Xã Phú Sơn, Huyện Ba Vì",Thành phố Hà Nội,Hà Nội,105.37671,21.22803,10000
639,"Điện máy Xanh Phố Phú Hòa,Thị Trấn Hòa Mạc",Huyện Duy Tiên,Hà Nam,105.99021,20.643096,18000
640,"Điện máy Xanh Phố Sàn, xã Phương Sơn",huyện Lục Nam,Bắc Giang,106.3336203,21.2969738,26000
641,"Điện máy Xanh Phố Thanh Xuyên, Xã Trung Thành",Thị xã Phổ Yên,Thái Nguyên,105.8741,21.3661,24000
642,"Điện máy Xanh Phố Thống Nhất, TT. Vụ Bản",H. Lạc Sơn,Hòa Bình,105.43924,20.465814,36000
643,"Điện máy Xanh Phố Thượng Kiệm, TT. Phát Diệm",H. Kim Sơn,Ninh Bình,106.08558,20.091151,8000
644,"Điện máy Xanh Phố Thụy Ứng, Thị Trấn Phùng, Huyện Đan Phượng",Thành phố Hà Nội,Hà Nội,105.663577,21.0861316,10000
645,"Điện máy Xanh Phố Trần Phú, TT. Đầm Hà",H. Đầm Hà,Quảng Ninh,107.58688,21.354874,1000
646,Điện máy Xanh Phường 6,Thành phố Cao Lãnh,Đồng Tháp,105.634389,10.429194,81000
647,Điện máy Xanh Phường Chùa Hang,TP Thái Nguyên,Thái Nguyên,105.84345,21.62297,24000
648,Điện máy Xanh Phường Điện Dương,Thị xã Điện Bàn,Quảng Nam,108.310161,15.933,51000
649,Điện máy Xanh Phường Quang Trung,Thành phố Quy Nhơn,Bình Định,109.205509,13.759254,55000
650,Điện máy Xanh Phường Thạnh Phước,Thị Xã Tân Uyên,Bình Dương,106.766865,11.003581,75000
651,"Điện máy Xanh QH điều chỉnh lần 2 khu dân cư xóm Cửa Tràng, Bắc Cầu Chợ Rộc, xã Tiền An",thị xã Quảng Yên,Quảng Ninh,106.82937,20.93805,1000
652,"Điện máy Xanh QL 13, Tổ 18, Ấp 1, X Trừ Văn Thố",H. Bàu Bàng,Bình Dương,106.64,11.344944,75000
653,"Điện máy Xanh QL 14, X. Nghĩa Trung",H. Bù Đăng,Bình Phước,107.06516,11.668481,67000
654,"Điện máy Xanh QL 18, Phố Long Thành,TT. Tiên Yên",H. Tiên Yên,Quảng Ninh,107.39713,21.33105,1000
655,"Điện máy Xanh QL 1A , Ấp 1 , X. Thạnh Đức , H. Bến Lức",T. Long An (Ngã Tư Bình Nhựt,Long An,106.46903,10.63641,82000
656,"Điện máy Xanh QL 1A, Đội 6, thôn Năng Tây 2, X. Nghĩa Phương",H. Tư Nghĩa,Quảng Ngãi,108.84706,15.051213,53000
657,"Điện máy Xanh QL 30, Xã An Long",Huyện Tam Nông,Đồng Tháp,105.38127,10.700521,81000
658,"Điện máy Xanh QL 31, Khu Trường Chinh, TT. Chũ",H. Lục Ngạn,Bắc Giang,106.5683863,21.374075,26000
659,"Điện máy Xanh QL 91, ấp Hòa Long 4, TT. An Châu",H. Châu Thành,An Giang,105.38532,10.444218,90000
660,"Điện máy Xanh QL14, TT. Nhơn Hòa",H. Chư Pưh,Gia Lai,108.09949,13.547023,61000
661,"Điện máy Xanh QL1A, khu phố Phú Thành, thị trấn Phú Long",huyện Hàm Thuận Bắc,Bình Thuận,108.130902,11.07298,77000
662,"Điện máy Xanh QL20, Thôn 1, X. Lộc An",H. Bảo Lâm,Lâm Đồng,107.9016,11.546658,66000
663,"Điện máy Xanh Quốc lộ 12C - Tiểu khu 2, TT. Đồng Lê",H. Tuyên Hóa,Quảng Bình,106.0235,17.885389,47000
664,"Điện máy Xanh Quốc lộ 13, Ấp 2, Thị trấn Tân Khai, Huyện Hớn Quản",Tỉnh Bình Phước,Bình Phước,106.61433,11.55557,67000
665,"Điện máy Xanh Quốc lộ 13, ấp Hiệp Tâm A, Xã Lộc Hiệp, Huyện Lộc Ninh",Tỉnh Bình Phước,Bình Phước,106.690935,11.883919,67000
666,"Điện máy Xanh Quốc lộ 13, KP. 2, P. Tân Định",TX. Bến Cát,Bình Dương,106.63389,11.04503,75000
667,"Điện máy Xanh Quốc lộ 13, Kp. 4, P. Mỹ Phước",TX. Bến Cát,Bình Dương,106.60547,11.133224,75000
668,"Điện máy Xanh Quốc lộ 14 , xã pơngdrang",huyện Krông Buk ,Đắk Lắk,108.24713,12.953664,63000
669,"Điện máy Xanh Quốc Lộ 1A, ấp thị trấn B, TT. Hòa Bình",H. Hòa Bình,Bạc Liêu,105.62367,9.281064,97000
670,"Điện máy Xanh Quốc Lộ 1A, lô số 242, khu A1, Làng Cá Sa Huỳnh, X. phổ Thạnh",H. Đức Phổ,Quảng Ngãi,109.06461,14.678136,53000
671,"Điện máy Xanh Quốc lộ 1A, Ngã 3, Xóm 7, Thôn Vĩnh Phúc , Xã Vĩnh Tân, Huyện Tuy Phong",Tỉnh Bình Thuận,Bình Thuận,108.78714,11.319199,77000
672,"Điện máy Xanh Quốc Lộ 1A, TDP, 14",H. Cẩm Xuyên,Hà Tĩnh,105.9986311,18.2515446,45000
673,"Điện máy Xanh Quốc Lộ 1A, Thôn Bồ Mưng 2, X. Điện Thắng Bắc",H. Điện Bàn ,Quảng Nam,108.22218,15.943135,51000
674,"Điện máy Xanh Quốc Lộ 1A, thôn Di Luân, X. Quảng Tùng",H. Quảng Trạch,Quảng Bình,106.44236,17.877111,47000
675,"Điện máy Xanh Quốc Lộ 1A, Thôn Diêm Phổ, Xã Tam Anh Nam",Huyện Núi Thành,Quảng Nam,108.59066,15.475611,51000
676,"Điện máy Xanh Quốc Lộ 1A, Thôn Dinh Mười, X. Gia Ninh",H. Quảng Ninh,Quảng Bình,106.67588,17.366028,47000
677,"Điện máy Xanh Quốc lộ 1A, TT. La Hà",H. Tư Nghĩa,Quảng Ngãi,108.82554,15.086339,53000
678,"Điện máy Xanh Quốc Lộ 1A, Xã Đức Thạnh",Huyện Mộ Đức,Quảng Ngãi,108.87768,14.986366,53000
679,"Điện máy Xanh Quốc lộ 20, X. Ninh Gia",H. Đức Trọng,Lâm Đồng,108.30674,11.633917,66000
680,"Điện máy Xanh Quốc Lộ 25, TDP 12, TT. Phú Thiện",H. Phú Thiện,Gia Lai,108.31711,13.529306,61000
681,"Điện máy Xanh Quốc lộ 26, TT. Phước An",H. Krông Pắk,Đắk Lắk,108.30259,12.710879,63000
682,"Điện máy Xanh Quốc lộ 27, Thôn Hạnh Trí 1, X. Quảng Sơn",H. Ninh Sơn,Ninh Thuận,108.79212,11.746018,59000
683,"Điện máy Xanh Quốc lộ 27, Thôn Phi Có, Xã Đạ Rsal, Huyện Đam Rông",Tỉnh Lâm Đồng,Lâm Đồng,108.135535,12.178415,66000
684,"Điện máy Xanh Quốc lộ 30, Khóm Tân Đông B, TT. Thanh Bình",H. Thanh Bình,Đồng Tháp,105.49037,10.557959,81000
685,"Điện máy Xanh Quốc lộ 30, Khóm Tân Đông B, TT. Thanh Bình",H. Thanh Bình,Đồng Tháp,105.49037,10.557959,81000
686,"Điện máy Xanh Quốc lộ 51, khu 3, ấp Ông Trịnh, xã Phước Hòa",H. Tân Thành,Bà Rịa - Vũng Tàu,107.06087,10.562504,78000
687,"Điện máy Xanh Quốc Lộ 51, X. Mỹ Xuân",H. Tân Thành,Bà Rịa - Vũng Tàu,107.05434,10.624311,78000
688,Điện máy Xanh Số 009 Hoàng Liên,P. Cốc Lếu,Lào Cai,103.96681,22.499031,31000
689,"Điện máy Xanh Số 01 Hùng Vương, P. Hoàng Văn Thụ",TP. Bắc Giang,Bắc Giang,106.20523,21.268855,26000
690,"Điện máy Xanh Số 01 Lê Hồng Phong, P. Vân Giang",TP. Ninh Bình,Ninh Bình,105.97203,20.25686,8000
691,"Điện máy Xanh Số 03, Quốc lộ 30, Phường Mỹ Phú",Thành phố Cao Lãnh,Đồng Tháp,105.64381,10.461373,81000
692,"Điện máy Xanh Số 03, quốc lộ 60, khóm 4, TT. Tiểu Cần",H. Tiểu Cần,Trà Vinh,106.19053,9.81428,87000
693,"Điện máy Xanh Số 05-07 Lê Văn Hiến, Phường Khuê Mỹ",Quận Ngũ Hành Sơn,Đà Nẵng,108.24486,16.035049,50000
694,Điện máy Xanh Số 06 Thoại Ngọc Hầu,TX. Hồng Ngự,Đồng Tháp,105.34139,10.811495,81000
695,"Điện máy Xanh Số 07 Lê Duẩn, P. Hải Châu 1",Q. Hải Châu,Đà Nẵng,108.22265,16.071487,50000
696,"Điện máy Xanh Số 07, khu 05, xã Tử Đà",huyện Phù Ninh,Phú Thọ,105.313537,21.411027,35000
697,"Điện máy Xanh Số 09 Quốc Lộ 55, Phước Sơn, TT. Đất Đỏ",H. Đất Đỏ,Bà Rịa - Vũng Tàu,107.26995,10.489926,78000
698,"Điện máy Xanh Số 1 ngõ 349 đường Minh Khai, phường Vĩnh Tuy",quận Hai Bà Trưng,Hà Nội,105.865293,20.997559,10000
699,"Điện máy Xanh Số 1 ngõ 349 đường Minh Khai, phường Vĩnh Tuy",quận Hai Bà Trưng,Hà Nội,105.865293,20.997559,10000
700,"Điện máy Xanh Số 1 Nguyễn Lương Bằng, P. Phạm Ngũ Lão",TP. Hải Dương,Hải Dương,106.32023,20.938387,3000
701,"Điện máy Xanh Số 1, đường Nguyễn Văn Cừ, Phường Lộc Sơn",Thành phố Bảo Lộc,Lâm Đồng,107.8230144,11.5354313,66000
702,"Điện máy Xanh Số 10, Quốc Lộ 62, KP3, TT. Tân Thạnh",H. Tân Thạnh,Long An,106.0473,10.610044,82000
703,"Điện máy Xanh Số 10/13, QL 20, Finom, xã Hiệp Thạnh",H. Đức Trọng,Lâm Đồng,108.41043,11.783008,66000
704,"Điện máy Xanh Số 101 Phố Tiểu Hoàng ,TT. Tiền Hải ",H. Tiền Hải,Thái Bình,106.50156,20.402843,6000
705,"Điện máy Xanh Số 104, Đường quốc lộ 62, Khu phố 3, Phường 3",Thị xã Kiến Tường,Long An,105.927716,10.778757,82000
706,"Điện máy Xanh Số 107 đường QL 14, thôn 5, Xã Hòa Thuận",TP. Buôn Ma Thuột,Đắk Lắk,108.11213,12.730521,63000
707,"Điện máy Xanh Số 107 đường QL 14, thôn 5, Xã Hòa Thuận",TP. Buôn Ma Thuột,Đắk Lắk,108.11213,12.730521,63000
708,"Điện máy Xanh Số 11/29, Khu phố Bình Đức 3, P. Bình Hòa",TP. Thuận An,Bình Dương,106.738702,10.908308,75000
709,"Điện máy Xanh Số 110 Trần Phú, Khu đô thị Mỗ Lao, P. Mộ Lao, Q. Hà Đông",TP. Hà Nội (Tầng 1 toà nhà Hồ Gươm Plaza,Hà Nội,105.78542,20.979543,10000
710,"Điện máy Xanh Số 114-116 Nguyễn Trãi, TT. Mỹ Thọ",H. Cao Lãnh,Đồng Tháp,105.69498,10.44699,81000
711,"Điện máy Xanh Số 1142, Đường Quốc Lộ 20, Thôn 1, Xã Đại Lào, Thành phố Bảo Lộc",Tỉnh Lâm Đồng,Lâm Đồng,107.7495185,11.5119545,66000
712,"Điện máy Xanh Số 115 - 115B, đường Quốc Lộ 62, Phường 2",Thành phố Tân An,Long An,106.403659,10.542206,82000
713,"Điện máy Xanh Số 115 Đường Nghi Tàm, Phường Yên Phụ",Quận Tây Hồ,Hà Nội,105.837438,21.053589,10000
714,"Điện máy Xanh Số 115 Quốc Lộ 1K, KP. Tây B, P. Đông Hòa",TP. Dĩ An,Bình Dương,106.7832,10.890626,75000
715,"Điện máy Xanh Số 119 Hùng Vương, Khóm 4, TT. Mỹ An",H. Tháp Mười,Đồng Tháp,105.84384,10.518649,81000
716,"Điện máy Xanh Số 122 phố Ga (QL 1A), TT. Thường Tín",H. Thường Tín,Hà Nội,105.86355,20.874151,10000
717,"Điện máy Xanh Số 122 phố Ga (QL 1A), TT. Thường Tín",H. Thường Tín,Hà Nội,105.86355,20.874151,10000
718,"Điện máy Xanh Số 1283 Giải Phóng, P. Hoàng Liệt",Q. Hoàng Mai,Hà Nội,105.84156,20.9701,10000
719,"Điện máy Xanh Số 1283 Giải Phóng, P. Hoàng Liệt",Q. Hoàng Mai,Hà Nội,105.84156,20.9701,10000
720,"Điện máy Xanh Số 13/1 Ấp Thanh Bình 3, X. Bình Châu",H. Xuyên Mộc,Bà Rịa - Vũng Tàu,107.54771,10.555168,78000
721,"Điện máy Xanh Số 132 đường Trần Thái Tông, Tổ 29, Phường Bồ Xuyên",Thành phố Thái Bình,Thái Bình,106.33834,20.453604,6000
722,"Điện máy Xanh Số 132, Quốc lộ 13, KP. Ninh Thịnh, TT. Lộc Ninh",H. Lộc Ninh,Bình Phước,106.58817,11.850163,67000
723,"Điện máy Xanh Số 1361 Hoàng Hoa Thám, phường Song Mai",thành phố Bắc Giang,Bắc Giang,106.16556,21.30449,26000
724,"Điện máy Xanh Số 138 đường Hùng Vương, TT. Buôn Trấp",H. Krông A Na,Đắk Lắk,108.03018,12.485729,63000
725,Điện máy Xanh Số 141 phường Thạch Bàn,Quận Long Biên,Hà Nội,105.908014,21.024949,10000
726,"Điện máy Xanh Số 142 đường Ngọc Thụy, Phường Ngọc Thụy",Quận Long Biên,Hà Nội,105.8641674,21.0522117,10000
727,"Điện máy Xanh Số 1457 Đại Lộ Bình Dương, KP.04, P. Hiệp An",TP. Thủ Dầu Một,Bình Dương,106.64058,11.032806,75000
728,"Điện máy Xanh Số 146 phố Kim Mã, phường Kim Mã",quận Ba Đình,Hà Nội,105.826603,21.032234,10000
729,"Điện máy Xanh Số 150, Đường Nguyễn Du, Thị Trấn Quỳnh Côi",H. Quỳnh Phụ,Thái Bình,106.325796,20.650317,6000
730,"Điện máy Xanh Số 151 - 153 Trần Phú, P. Bình Định",TX. An Nhơn,Bình Định,109.11318,13.889224,55000
731,"Điện máy Xanh Số 152-154 Đinh Tiên Hoàng, tổ 03, P. Đồng Tâm",Tp. Yên Bái,Yên Bái,104.91651,21.726086,33000
732,"Điện máy Xanh Số 154, Tổ 4, thị trấn Vị Xuyên",huyện Vị Xuyên,Hà Giang,104.9831,22.668297,20000
733,"Điện máy Xanh Số 155 Nguyễn Văn Cừ, Phường Hồng Hà",thành phố Hạ Long,Quảng Ninh,107.121304,20.941445,1000
734,"Điện máy Xanh Số 157, đường DT749A, ấp Long Thọ, xã Long Hoà",huyện Dầu Tiếng,Bình Dương,106.491776,11.313797,75000
735,"Điện máy Xanh Số 159 Thái Hà, P. Láng Hạ",Q. Đống Đa,Hà Nội,105.8185,21.013882,10000
736,"Điện máy Xanh Số 1606A Hùng Vương, P. Gia Cẩm",TP. Việt Trì,Phú Thọ,105.38595,21.321231,35000
737,"Điện máy Xanh Số 162D, thôn Đoàn Kết, xã Cảm Ân",huyện Yên Bình,Yên Bái,104.960032,21.729288,33000
738,"Điện máy Xanh Số 165 Trần Hưng Đạo, P. Bình Khánh",Tp. Long Xuyên,An Giang,105.42313,10.397024,90000
739,"Điện máy Xanh Số 170 Đường ĐT741, đội 3, thôn Đăk Lim, xã Đăk Ơ",Huyện Bù Gia Mập,Bình Phước,107.092657,12.044557,67000
740,"Điện máy Xanh Số 1729 Quốc lộ 14, Ấp 2, Xã Tân Thành",Thành phố Đồng Xoài,Bình Phước,106.830898,11.520191,67000
741,"Điện máy Xanh Số 173, Phố Ngô Quyền",P.Ngô Quyền,Hà Nội,105.49773,21.145973,10000
742,"Điện máy Xanh Số 176, đường Nguyễn Trãi, tổ 15, P. Nguyễn Trãi",TP. Hà Giang,Hà Giang,104.98102,22.813265,20000
743,"Điện máy Xanh Số 178B Hùng Vương, P. Ka Long",TP. Móng Cái,Quảng Ninh,107.95625,21.53156,1000
744,"Điện máy Xanh Số 183, phố Thái Long, TT. Đình Cả",H. Võ Nhai,Thái Nguyên,106.07418,21.752029,24000
745,"Điện máy Xanh Số 186 phố Tây Sơn, TT. Phùng",H. Đan Phượng,Hà Nội,105.67274,21.083563,10000
746,"Điện máy Xanh Số 186 Trương Định, P. Trương Định",Q. Hai Bà Trưng,Hà Nội,105.84799,20.990489,10000
747,"Điện máy Xanh Số 189, Quốc lộ 8A, Khối 12, TT. Phố Châu",H. Hương Sơn,Hà Tĩnh,105.42481,18.508392,45000
748,"Điện máy Xanh Số 190 quốc Lộ 13, KP. 5, TT. Chơn Thành",H. Chơn Thành,Bình Phước,106.61565,11.419032,67000
749,"Điện máy Xanh Số 192 Cách Mạng Tháng 8, P. Thắng Lợi",TP. Sông Công,Thái Nguyên,105.84536,21.468133,24000
750,"Điện máy Xanh Số 193 Huỳnh Văn Lũy, P. Phú Lợi",Tp. Thủ Dầu Một,Bình Dương,106.67406,10.992169,75000
751,"Điện máy Xanh Số 194 Phạm Văn Đồng, Tổ 1, P. Mai Dịch",Q. Cầu Giấy ,Hà Nội,105.78106,21.046619,10000
752,Điện máy Xanh Số 194-196-198-200 Đường Vạn Phúc,Hà Đông,Hà Nội,105.76783,20.983173,10000
753,"Điện máy Xanh Số 196 Phan Chu Trinh, Phường Tân Lợi, TP.Buôn Ma Thuột",Tỉnh Đắk Lắk,Đắk Lắk,108.051939,12.693208,63000
754,"Điện máy Xanh Số 196 Tam Trinh, P. Yên Sở",Q. Hoàng Mai,Hà Nội,105.86632,20.965252,10000
755,"Điện máy Xanh Số 196 Tam Trinh, P. Yên Sở",Q. Hoàng Mai,Hà Nội,105.86632,20.965252,10000
756,"Điện máy Xanh Số 2 Đại Cồ Việt, P. Lê Đại Hành",Q. Hai Bà Trưng,Hà Nội,105.85096,21.008883,10000
757,"Điện máy Xanh Số 2 Nguyễn Thái Học, P. Sao Đỏ, TX. Chí Linh",T. Hải Dương (Cách Ngã 3 Sao Đỏ 50 m,Hải Dương,106.39275,21.11328,3000
758,"Điện máy Xanh Số 2 Trần Hưng Đạo, Phố Phúc Trọng, Phường Phúc Thành",Thành Phố Ninh Bình,Ninh Bình,105.97427,20.250399,8000
759,"Điện máy Xanh Số 2, ngõ 34, đường Xuân La, phường Xuân La",quận Tây Hồ,Hà Nội,105.804862,21.066091,10000
760,"Điện máy Xanh Số 2, ngõ 34, đường Xuân La, phường Xuân La",quận Tây Hồ,Hà Nội,105.804862,21.066091,10000
761,"Điện máy Xanh Số 2, thôn Tử Dương, xã Tô Hiệu",H. Thường Tín,Hà Nội,105.88396,20.804049,10000
762,"Điện máy Xanh Số 200 đường Phạm Văn Đồng, tổ dân phố 4, P. Ba Hàng",TX. Phổ Yên,Thái Nguyên,105.87092,21.417215,24000
763,"Điện máy Xanh Số 200-202, tổ 3A, P. Xuân Khanh",TX. Sơn Tây,Hà Nội,105.44935,21.10977,10000
764,"Điện máy Xanh Số 203 - 205 - 207, đường Hà Huy Tập, Thị Trấn Yên Viên, Huyện Gia Lâm",Thành phố Hà Nội,Hà Nội,105.91376,21.081794,10000
765,"Điện máy Xanh Số 203 đường Vũ Mạnh Hùng, khu 2, TT.Phú Thứ",H.Kinh Môn,Hải Dương,106.56229,21.026808,3000
766,"Điện máy Xanh Số 205/B - 207/B Tổ 5, Kp 1, P. Uyên Hưng",Tx.Tân Uyên,Bình Dương,106.79089,11.056486,75000
767,"Điện máy Xanh Số 209, đường HL612, ấp 03, xã Hưng Hoà",huyện Bàu Bàng,Bình Dương,106.6963576,11.2377167,75000
768,"Điện máy Xanh Số 21 Nguyễn Văn Cừ, P. Ninh Xá",TP. Bắc Ninh,Bắc Ninh,106.05766,21.176849,16000
769,"Điện máy Xanh Số 21 Tổ 02, Khu phố Khánh Thạnh, Phường Tân Phước Khánh",Thị xã Tân Uyên,Bình Dương,106.71731,11.00425,75000
770,"Điện máy Xanh Số 211 Khâm Thiên, Phường Thổ Quan",Quận Đống Đa,Hà Nội,105.833988,21.019208,10000
771,"Điện máy Xanh Số 216, đường DT 744 ấp Lồ Ồ, xã An Tây",H. Bến Cát,Bình Dương,106.54849,11.087381,75000
772,"Điện máy Xanh Số 21A1, Trần Hưng Đạo, khu phố 2, TT. Ba Tri",H. Ba Tri,Bến Tre,106.58731,10.045525,86000
773,"Điện máy Xanh Số 22 Đinh Tiên Hoàng, P. Hùng Vương",TX. Phú Thọ,Phú Thọ,105.21208,21.4047,35000
774,"Điện máy Xanh Số 22 Quang Trung, P. Hải Đình",TP. Đồng Hới,Quảng Bình,106.62461,17.461409,47000
775,"Điện máy Xanh Số 220 - 222, KP. Vân Trì, X. Vân Nội",H. Đông Anh,Hà Nội,105.8162,21.153947,10000
776,"Điện máy Xanh Số 220 - 222, KP. Vân Trì, X. Vân Nội",H. Đông Anh,Hà Nội,105.8162,21.153947,10000
777,"Điện máy Xanh Số 222 Đường Lê Hoàn, Phường Hai Bà Trưng",Thành Phố Phủ Lý,Hà Nam,105.91241,20.540345,18000
778,"Điện máy Xanh Số 222, Đường Thần Công Tài, Thị Trấn Nếnh, Huyện Việt Yên",Tỉnh Bắc Giang,Bắc Giang,106.10094,21.240495,26000
779,"Điện máy Xanh Số 223 - 225 đường Lĩnh Nam, Phường Vĩnh Hưng",Quận Hoàng Mai ,Hà Nội,105.87279,20.984669,10000
780,"Điện máy Xanh Số 230 - 232 Hùng Vương, Thị Trấn Ngãi Giao",Huyện Châu Đức,Bà Rịa - Vũng Tàu,107.24636,10.647114,78000
781,"Điện máy Xanh Số 232, đường ĐT 741, ấp Chợ, xã Tân Tiến",H. Đồng Phú,Bình Phước,106.85731,11.425405,67000
782,"Điện máy Xanh Số 235 Quốc Lộ 1, Phường 4",Thành phố Tân An,Long An,106.400444,10.535556,82000
783,"Điện máy Xanh Số 24 QL 27, Thôn 2, X. Ea Tiêu",H. Cư Kuin,Đắk Lắk,108.13352,12.606806,63000
784,"Điện máy Xanh Số 24, Đường Quang Trung, P. Lê Hồng Phong",Tp. Quảng Ngãi,Quảng Ngãi,108.80143,15.132256,53000
785,"Điện máy Xanh Số 242 Nguyễn Hữu Thọ, P. Hòa Cường Bắc",Q. Hải Châu,Đà Nẵng,108.21034,16.040017,50000
786,"Điện máy Xanh Số 245 đường Trần Hưng Đạo, P. Đoàn Kết",TX. Ayunpa,Gia Lai,108.44275,13.404931,61000
787,"Điện máy Xanh Số 246 Quang Trung, TT. Ngô Mây",H. Phù Cát,Bình Định,109.0578,13.997984,55000
788,"Điện máy Xanh Số 246-248, Khu Dân Cư Tự Xây Khu 10, Thị Trấn Trới, Huyện Hoành Bồ",Tỉnh Quảng Ninh,Quảng Ninh,106.988773,21.020981,1000
789,"Điện máy Xanh Số 249, Ấp 3, Long Hòa",Cần Đước,Long An,106.58844,10.588306,82000
790,"Điện máy Xanh Số 249, Ấp 3, Long Hòa",Cần Đước,Long An,106.58844,10.588306,82000
791,"Điện máy Xanh Số 249, Quốc Lộ 53, Khóm 1, Phường 2, Thị Xã Duyên Hải",Tỉnh Trà Vinh,Trà Vinh,106.509865,9.686584,87000
792,"Điện máy Xanh Số 249, tổ 11, đường Ngô Gia Tự, khóm An Hòa A, TT. Ba Chúc",H. Tri Tôn,An Giang,104.90947,10.493049,90000
793,"Điện máy Xanh Số 25 Đường Lý Thái Tổ, P. Đình Bảng",TX. Từ Sơn,Bắc Ninh,105.95928,21.110554,16000
794,"Điện máy Xanh Số 25, Đường 19 tháng 5, Ấp 4, Thị Trấn Gành Hào",Huyện Đông Hải,Bạc Liêu,105.426605,9.034115,97000
795,"Điện máy Xanh Số 25-27 Nguyễn Văn Cừ, Phường 1",Thành phố Đà Lạt,Lâm Đồng,108.43243,11.940104,66000
796,"Điện máy Xanh Số 260 Cầu Giấy , P. Quan Hoa",Q. Cầu Giấy,Hà Nội,105.7932,21.034671,10000
797,"Điện máy Xanh Số 260 Cầu Giấy , P. Quan Hoa",Q. Cầu Giấy,Hà Nội,105.7932,21.034671,10000
798,"Điện máy Xanh Số 260 Phạm Văn Đồng, khối 2, TT. Núi Thành",H. Núi Thành,Quảng Nam,108.6447,15.435434,51000
799,"Điện máy Xanh Số 268-268A, Quốc lộ 60, KP.02, TT. Mỏ Cày",H. Mỏ Cày Nam,Bến Tre,106.33177,10.129667,86000
800,"Điện máy Xanh Số 27 Lê Văn Lương, P. Nhân Chính",Q. Thanh Xuân,Hà Nội,105.80466,21.004997,10000
801,"Điện máy Xanh Số 27, đường ĐT 741, KP.03, P. Phước Bình",TX. Phước Long,Bình Phước,106.95387,11.812627,67000
802,"Điện máy Xanh Số 271, đường Quang Trung, P. Tân Thịnh",TP. Thái Nguyên,Thái Nguyên,105.81642,21.579678,24000
803,"Điện máy Xanh Số 275 Quang Trung, TT. Phú Phong",H. Tây Sơn,Bình Định,108.9209,13.906444,55000
804,"Điện máy Xanh Số 286 Tỉnh Lộ 835, X. Phước Lợi",H. Bến Lức,Long An,106.53633,10.636223,82000
805,"Điện máy Xanh Số 291-293, Ấp Bình Tiền 2, Xã Đức Hòa Hạ",Huyện Đức Hòa,Long An,106.47657,10.810855,82000
806,"Điện máy Xanh Số 295, đường Nguyễn Tất Thành, tổ dân phố số 3, Thị Trấn Yên Thế",Huyện Lục Yên,Yên Bái,104.765666,22.111668,33000
807,"Điện máy Xanh Số 296 Hùng Vương, tổ dân phố 6, TT. Đắk Hà",H. Đắk Hà,Kon Tum,107.92021,14.515376,60000
861,"Điện máy Xanh Số 456 Lý Bôn, P. Đề Thám",TP. Thái Bình,Thái Bình,106.33643,20.446312,6000
808,"Điện máy Xanh Số 3 Đường Ngọc Uyển , Tổ Dân Phố Bắc Hà 1 , Thị Trấn Bắc Hà",H. Bắc Hà ,Lào Cai,104.292235,22.532292,31000
809,"Điện máy Xanh Số 305-307/19 khóm Thới Hòa, TT. Nhà Bàng",H. Tịnh Biên,An Giang,105.00275,10.62125,90000
810,"Điện máy Xanh Số 309 Quang Trung, Phường Trung Sơn",TP Tam Điệp,Ninh Bình,105.91452,20.154589,8000
811,"Điện máy Xanh Số 311-315 Đường Nguyễn Trãi, KP. Nguyễn Trãi, P. Lái Thiêu",TP. Thuận An,Bình Dương,106.70511,10.902063,75000
812,"Điện máy Xanh Số 314 Huỳnh Thúc Kháng, KP. 4, P. Mũi Né",TP. Phan Thiết,Bình Thuận,108.28537,10.93759,77000
813,"Điện máy Xanh Số 315-317, Quốc lộ 53, Khóm 5, TT.Càng Long",H.Càng Long,Trà Vinh,106.20553,9.998735,87000
814,"Điện máy Xanh Số 317, ấp Lộc Hòa, Xã Lộc Thuận",Huyện Bình Đại,Bến Tre,106.58261,10.220861,86000
815,"Điện máy Xanh Số 319, Đường Nguyễn Thái Học, T. 69, P. Nguyễn Thái Học",TP. Yên Bái,Yên Bái,104.87771,21.703209,33000
816,"Điện máy Xanh Sô 320 Phan Bội Châu, Phường Lê Hồng Phong",Thành phố Quy Nhơn,Bình Định,109.226467,13.777599,55000
817,"Điện máy Xanh Số 329-331 QL 27, Tổ dân phố nghĩa lập 1, TT. Thạnh Mỹ",H. Đơn Dương,Lâm Đồng,108.48307,11.760114,66000
818,"Điện máy Xanh Số 33 Hùng Vương, KP. 4B, TT. Dầu Tiếng",H. Dầu Tiếng,Bình Dương,106.36387,11.280861,75000
819,"Điện máy Xanh Số 33 Lý Thái Tổ, P. Ninh Xá",TP. Bắc Ninh,Bắc Ninh,106.065,21.173927,16000
820,"Điện máy Xanh Số 33, Xã Hội An",Huyện Chợ Mới,An Giang,105.55012,10.432833,90000
821,"Điện máy Xanh Số 330 Nguyễn Nghiêm, TT. Đức Phổ",H. Đức Phổ,Quảng Ngãi,108.95391,14.815668,53000
822,"Điện máy Xanh Số 34 tổ dân phố Phú Thành, TT. Phố Lu",H. Bảo Thắng,Lào Cai,104.18536,22.321897,31000
823,"Điện máy Xanh Số 34, tổ 2, khu Xuân Hà, TT. Xuân Mai",H. Chương Mỹ,Hà Nội,105.58038,20.900991,10000
824,"Điện máy Xanh Số 341-343 Quốc lộ 62, Phường 1",Thị xã Kiến Tường,Long An,105.93874,10.774706,82000
825,"Điện máy Xanh Số 347 đường ĐT 741, KP. Phú Nghị, P. Hòa Lợi, TX. Bến Cát",T. Bình Dương (Đối diện chợ Nhật huy,Bình Dương,106.6633,11.079609,75000
826,"Điện máy Xanh Số 348 - đường Trần Hưng Đạo, Phường Quyết Thắng, Thành phố Kon Tum",Tỉnh Kon Tum,Kon Tum,108.002778,14.349938,60000
827,"Điện máy Xanh Số 349 đường 3/2, TT. Đức Tài",H. Đức Linh,Bình Thuận,107.5058,11.147694,77000
828,"Điện máy Xanh Số 352 đường Giải Phóng, Phường Phương Liệt",Quận Thanh Xuân,Hà Nội,105.840264,20.98811,10000
829,"Điện máy Xanh Số 358 đường 30 tháng 4, tổ 11, KP.02, P. Mỹ Phước",TX. Bến Cát,Bình Dương,106.59536,11.150325,75000
830,Điện máy Xanh Số 359 Quang Trung,Thị Xã An Khê,Gia Lai,108.66386,13.954444,61000
831,"Điện máy Xanh Số 36 Cầu Bươu, Km số 3, P. Kiến Hưng",Q. Hà Đông,Hà Nội,105.80173,20.960272,10000
832,"Điện máy Xanh Số 36 Cầu Bươu, Km số 3, P. Kiến Hưng",Q. Hà Đông,Hà Nội,105.80173,20.960272,10000
833,"Điện máy Xanh Số 36 Phố Đồng Tâm, TT. Đoan Hùng",H. Đoan Hùng,Phú Thọ,105.18816,21.621004,35000
834,"Điện máy Xanh Số 360-362 đường Lý Thường Kiệt, P. Thị Cầu",TP. Bắc Ninh,Bắc Ninh,106.08658,21.196345,16000
835,"Điện máy Xanh Số 360-362 Lê Thánh Tông, Phường Phả Lại, Thành phố Chí Linh",Tỉnh Hải Dương,Hải Dương,106.392682,21.112166,3000
836,"Điện máy Xanh Số 366, Phường Sơn Lộc",Thị Xã Sơn Tây,Hà Nội,105.50181,21.126168,10000
837,"Điện máy Xanh Số 366, Phường Sơn Lộc",Thị Xã Sơn Tây,Hà Nội,105.50181,21.126168,10000
838,"Điện máy Xanh Số 37 Đường Cầu Diễn, Phường Phúc Diễn",Quận Bắc Từ Liêm,Hà Nội,105.75877,21.042437,10000
839,"Điện máy Xanh Số 37, Trần Huỳnh, Phường 7",Thành phố Bạc Liêu,Bạc Liêu,105.71701,9.292704,97000
840,"Điện máy Xanh Số 372 tỉnh lộ 10, TT. Hậu Nghĩa",H. Đức Hòa,Long An,106.39066,10.900014,82000
841,"Điện máy Xanh Số 373 Quang Trung, TT. Bồng Sơn",H. Hoài Nhơn,Bình Định,109.01818,14.438256,55000
842,"Điện máy Xanh Số 38 Trần Phú, P. Cẩm Tây",TP. Cẩm Phả,Quảng Ninh,107.28763,21.010577,1000
843,"Điện máy Xanh Số 383,Ấp Tam Hưng, Xã Vĩnh Hưng",Huyện Vĩnh Lợi,Bạc Liêu,105.59894,9.390333,97000
844,"Điện máy Xanh Số 388 Thân Nhân Trung, TT. Bích Động, H. Việt Yên",T. Bắc Giang (gần Ngã tư TT Bích Động,Bắc Giang,106.10148,21.272181,26000
845,"Điện máy Xanh Số 389A, đường Hai Bà Trưng, Khu 5, Xã Tiền Châu",Thị Xã Phúc Yên,Vĩnh Phúc,105.69456,21.230664,15000
846,"Điện máy Xanh Số 39 Quốc Lộ 50, Ấp Thuận Nam, X. Thuận Thành",H. Cần Giuộc,Long An,106.62962,10.556257,82000
847,"Điện máy Xanh Số 390 Hợp Thành, TT. Chợ Chu",H. Định Hóa,Thái Nguyên,105.64215,21.907511,24000
848,"Điện máy Xanh Số 396 Trần Phú, TT. Hương Khê",H. Hương Khê,Hà Tĩnh,105.70265,18.172894,45000
849,"Điện máy Xanh Số 406 đường Quảng Oai, TT. Tây Đằng",H. Ba Vì,Hà Nội,105.42772,21.195735,10000
850,"Điện máy Xanh Số 406 Tổ 10, Khu phố 1, TT. Ma Lâm",H. Hàm Thuận Bắc,Bình Thuận,108.12934,11.066307,77000
851,"Điện máy Xanh Số 41 đường Hùng Vương, Thị Trấn Quảng Phú",Huyện Cư M'Gar,Đắk Lắk,108.07513,12.814855,63000
852,"Điện máy Xanh Số 418, đường Quang Trung, Phường La Khê",Quận Hà Đông,Hà Nội,105.764498,20.962282,10000
853,"Điện máy Xanh Số 42 – 44 – 46 – 48 đường Tây Mỗ, Phường Tây Mỗ, Quận Nam Từ Liêm",Thành phố Hà Nội,Hà Nội,105.766603,21.040247,10000
854,"Điện máy Xanh Số 42 Điện Biên, Tổ 11, Phường Yên Ninh",Thành phố Yên Bái,Yên Bái,104.88785,21.712433,33000
855,"Điện máy Xanh Số 42, Thôn Xuân Phong Nam, Xã An Hòa",Huyện An Lão,Bình Định,108.900408,14.556072,55000
856,"Điện máy Xanh Số 421, Đường Phạm Văn Đồng, Tổ dân phố Hoàng 14, Phường Cổ Nhuế 1, Quận Bắc Từ Liêm",Thành phố Hà Nội,Hà Nội,105.783639,21.0605,10000
857,"Điện máy Xanh Số 44 Phố Kim Đồng, Phường Hợp Giang",Thành phố Cao Bằng,Cao Bằng,106.25952,22.663492,21000
858,"Điện máy Xanh Số 443/2, Ấp 2, Xã Hoà Phú",Huyện Châu Thành,Long An,106.424859,10.490549,82000
859,"Điện máy Xanh Số 444 Hùng Vương, tổ dân phố 4, P. An Bình",TX. Buôn Hồ,Đắk Lắk,108.26476,12.918358,63000
860,"Điện máy Xanh Số 45 Hùng Vương, tổ 2, P. Ngô Quyền",TP. Bắc Giang,Bắc Giang,106.19859,21.280662,26000
1328,"Khóm 2, TT. Tiểu Cần",H. Tiểu Cần,Trà Vinh,106.18931,9.811196,87000
862,"Điện máy Xanh Số 462 - 464 Quốc Lộ 20, Khu Phố 2, Thị Trấn Liên Nghĩa",Huyện Đức Trọng,Lâm Đồng,108.37223,11.730538,66000
863,"Điện máy Xanh Số 466 Đường Trần Hưng Đạo, T.T Lạc Tánh",H.Tánh Linh,Bình Thuận,107.68181,11.081969,77000
864,"Điện máy Xanh Số 47 Trần Phú, P. Diên Hồng",TP. Pleiku,Gia Lai,107.99676,13.977613,61000
865,"Điện máy Xanh Số 474-476 Hữu Nghị, khóm Xuân Hoà, TT. Tịnh Biên",H. Tịnh Biên,An Giang,104.94673,10.603537,90000
866,"Điện máy Xanh Số 486 đường 30/04, P. Rạch Dừa",TP. Vũng Tàu,Bà Rịa - Vũng Tàu,107.113322,10.398387,78000
867,"Điện máy Xanh Số 501-503 đường Vũ Tông Phan, Phường Khương Đình, Quận Thanh Xuân",Thành phố Hà Nội,Hà Nội,105.814222,20.986222,10000
868,"Điện máy Xanh Số 529 đường Hoàng Quốc Việt , P. Pom Hán ",Tp. Lào Cai ,Lào Cai,104.01961,22.419489,31000
869,"Điện máy Xanh Số 56 Hùng Vương, TT. Chư Prông",H. Chư Prông,Gia Lai,107.88902,13.758416,61000
870,"Điện máy Xanh Số 561 Giải Phóng, TT. Ea Drăng",H. Ea H'leo,Đắk Lắk,108.20691,13.20446,63000
871,"Điện máy Xanh Số 564 đường DT 741, TT. Phước Vĩnh",H. Phú Giáo,Bình Dương,106.79455,11.289886,75000
872,"Điện máy Xanh Số 564 đường DT 741, TT. Phước Vĩnh",H. Phú Giáo,Bình Dương,106.79455,11.289886,75000
873,"Điện máy Xanh Số 567, Ấp 1, P. Hội Nghĩa",TX. Tân Uyên,Bình Dương,106.76977,11.098056,75000
874,"Điện máy Xanh số 56B-58-60A Phan Đình Phùng, tổ 11, phường Tây Sơn",TP. Pleiku,Gia Lai,108.002703,13.984639,61000
875,"Điện máy Xanh Số 57 đường Nguyễn Trãi, Khu phố Thắng Lợi 2, P. Dĩ An, TP. Dĩ An",T,Bình Dương,106.758081,10.906862,75000
876,"Điện máy Xanh Số 57, đường xóm chợ, Xã Thủy Xuân Tiên",Huyện Chương Mỹ,Hà Nội,105.578153,20.880211,10000
877,"Điện máy Xanh Số 577-579-581 Đường Cách Mạng Tháng 8, P. Phú Cường",TP. Thủ Dầu Một,Bình Dương,106.658341,10.97535,75000
878,"Điện máy Xanh Số 6 Phố Vác, thôn Canh Hoạch, X. Dân Hòa",H. Thanh Oai,Hà Nội,105.77541,20.815625,10000
879,"Điện máy Xanh Số 602 Trường Chinh, Tổ 4, TT.Việt Quang",H.Bắc Quang,Hà Giang,104.80886,22.411714,20000
880,"Điện máy Xanh Số 61 Lê Văn Lương, P. Trung Hòa",Q. Cầu Giấy,Hà Nội,105.80954,21.009362,10000
881,"Điện máy Xanh Số 62, QL. 80, khóm Mỹ Phú, TT Cái Tàu Hạ",H. Châu Thành,Đồng Tháp,105.87553,10.26063,81000
882,"Điện máy Xanh Số 624 Hùng Vương, TT. Đinh Văn",H. Lâm Hà,Lâm Đồng,108.24809,11.787342,66000
883,"Điện máy Xanh Số 625-627 đường Thống Nhất, Phường Tân An",Thị xã La Gi,Bình Thuận,107.749932,10.684136,77000
884,"Điện máy Xanh Số 659 đường Lạc Long Quân, Phường Phú Thượng",Quận Tây Hồ,Hà Nội,105.811764,21.070455,10000
885,"Điện máy Xanh Số 671 đường 21/8, P.Bảo An",TP.Phan Rang - Tháp Chàm,Ninh Thuận,108.95462,11.592951,59000
886,"Điện máy Xanh Số 68 Trần Hưng Đạo, TT. Vĩnh Trụ",H. Lý Nhân,Hà Nam,106.03012,20.559343,18000
887,"Điện máy Xanh Số 68, đường DT 741, Phường Thác Mơ",Thị xã Phước Long,Bình Phước,106.993438,11.839918,67000
888,"Điện máy Xanh Số 688, Đường Quốc Lộ 14, Phường Tân Phú",Thành phố Đồng Xoài,Bình Phước,106.88159,11.53195,67000
889,"Điện máy Xanh Số 691 (Khu tái định cư phường Tân Bình), đường Phú Riềng Đỏ, Tổ 1, Phường Tân Bình",Thành phố Đồng Xoài,Bình Phước,106.89373,11.521559,67000
890,"Điện máy Xanh Số 707, Ấp Long Hưng, Xã Long Hựu Tây",Huyện Cần Đước,Long An,106.668167,10.488806,82000
891,"Điện máy Xanh Số 70-72-74 đường Hồ Tùng Mậu, Phường Mai Dịch, Quận Cầu Giấy",Thành phố Hà Nội,Hà Nội,105.801422,21.030866,10000
892,"Điện máy Xanh Số 71/7B, KP.02, TT. Chợ Lách",H. Chợ Lách,Bến Tre,106.1196,10.258194,86000
893,"Điện máy Xanh Số 73-75 Phan Châu Trinh, TT. Đông Phú",H. Quế Sơn,Quảng Nam,108.21661,15.672389,51000
894,"Điện máy Xanh Số 738-740-742-742A-744 đường Trần Phú, Phường Lộc Tiến, Thành phố Bảo Lộc",Tỉnh Lâm Đồng,Lâm Đồng,107.784951,11.535569,66000
895,"Điện máy Xanh Số 74 Nguyễn Huệ, khóm 01, TT. Sa Rài, H. Tân Hồng",T. Đồng Tháp (Ngã Tư Đèn Đỏ,Đồng Tháp,105.4516,10.879249,81000
896,"Điện máy Xanh Số 74, QL 13, Ấp 3B, X. Minh Hưng",H. Chơn Thành,Bình Phước,106.61475,11.481807,67000
897,"Điện máy Xanh Số 75 đường Hùng Vương, thị trấn Nam Sách",huyện Nam Sách,Hải Dương,106.33668,21.003496,3000
898,"Điện máy Xanh Số 769 Trần Hưng Đạo, Phường Lê Hồng Phong",Thành Phố Quy Nhơn,Bình Định,109.22102,13.781863,55000
899,"Điện máy Xanh Số 77/4 Trần Phú, TT. Phú Hòa",H. Thoại Sơn,An Giang,105.37631,10.359587,90000
900,"Điện máy Xanh Số 78, KP. Thanh Bình, TT. Thanh Bình",H. Bù Đốp,Bình Phước,106.79644,11.95785,67000
901,"Điện máy Xanh Số 7-9 Đường Nguyễn Văn Linh, P. Gia Thụy, Q. Long Biên",TP. Hà Nội (Tầng 2,Hà Nội,105.89281,21.050472,10000
902,"Điện máy Xanh Số 81, đường Lê Đức Thọ, Phường Mỹ Đình 2",Quận Nam Từ Liêm,Hà Nội,105.7692194,21.0300373,10000
903,"Điện máy Xanh Số 81-83-85 Quốc lộ 5, KP. Ga, TT. Phú Thái",H. Kim Thành,Hải Dương,106.51079,20.966956,3000
904,"Điện máy Xanh Số 83 đường Cần Trạm, thị trấn Vôi",huyện Lạng Giang,Bắc Giang,106.26011,21.354445,26000
905,"Điện máy Xanh Số 83 Khu 1B , TT. Cần Đước ",H. Cần Đước ,Long An,106.6034,10.509044,82000
906,"Điện máy Xanh Số 84, khu B QH khu định cư Đông Ga Hạ Long, P. Giếng Đáy, Tp. Hạ Long",Quảng Ninh (Cách Ngã Tư Ao Cá 200m,Quảng Ninh,107.017809,20.974191,1000
907,"Điện máy Xanh Số 85 Trần Nguyên Hãn, Phường Bến Gót",Thành phố Việt Trì,Phú Thọ,105.42165,21.304081,35000
908,"Điện máy Xanh Số 86 đường Lang Biang, TDP Hợp Thành, TT. Lạc Dương",H. Lạc Dương,Lâm Đồng,108.41706,12.007394,66000
909,"Điện máy Xanh Số 87, Đường Núi Đôi, Tổ 2, TT. Sóc Sơn",H. Sóc Sơn,Hà Nội,105.85758,21.257595,10000
910,"Điện máy Xanh Số 87-89, tổ 3, P. Trần Phú",Tp. Hà Tĩnh,Hà Tĩnh,105.89197,18.342113,45000
911,"Điện máy Xanh Số 88 đường Trường Chinh, phường Phương Mai",quận Đống Đa,Hà Nội,105.838221,20.998777,10000
912,"Điện máy Xanh Số 90 Điện Biên Phủ, KP. Long Xuyên 2, TT. Nam Phước",H. Duy Xuyên,Quảng Nam,108.28313,15.841117,51000
913,"Điện máy Xanh Số 90 Hùng Vương, Phường 1",Thành Phố Sa Đéc,Đồng Tháp,105.76693,10.290549,81000
914,"Điện máy Xanh Số 90 Miếu Đầm, Phường Mễ Trì",Quận Nam Từ Liêm,Hà Nội,105.782661,21.00517,10000
915,"Điện máy Xanh Số 908A Tôn Đức Thắng, Phường Hòa Khánh Bắc",Quận Liên Chiểu,Đà Nẵng,108.15075,16.071215,50000
916,"Điện máy Xanh Số 92, Thôn Quỳnh Ngọc, Xã Ea Na, Huyện Krông Ana",Tỉnh Đắk Lắk,Đắk Lắk,108.030077,12.484356,63000
917,"Điện máy Xanh Số 95 Giải Phóng, TT. Mường Khương",H. Mường Khương,Lào Cai,104.11282,22.759201,31000
918,"Điện máy Xanh Số 96-98, đường 2/9, khóm 1, P. 01",TX. Duyên Hải,Trà Vinh,106.49317,9.633841,87000
919,"Điện máy Xanh Số 980A - 980B - 982 đường Hùng Vương, tổ dân phố 7, TT. Di Linh",H. Di Linh,Lâm Đồng,108.07835,11.586881,66000
920,"Điện máy Xanh Số E1/9 - E1/10 Khu Dân Cư Thuận Giao, P.Thuận Giao",TP. Thuận An,Bình Dương,106.7198,10.964195,75000
921,"Điện máy Xanh Số nhà 118, Đường Trần Hưng Đạo, Tổ 6, Phường Đoàn Kết",Thành phố Lai Châu,Lai Châu,103.456073,22.400125,30000
922,"Điện máy Xanh Số nhà 1241, đường Quốc Lộ 30, khóm 01, phường 11",TP. Cao Lãnh,Đồng Tháp,105.584048,10.484891,81000
923,"Điện máy Xanh Số nhà 15 Đại Lộ Hùng Vương , X. Tráng Liệt, TT. Kẻ Sặt",H. Bình Giang,Hải Dương,106.14827,20.908417,3000
924,"Điện máy Xanh Số nhà 187, 189, 191, Đường Nguyễn Thái Học, Phường Trần Phú",Thành phố Hà Giang,Hà Giang,104.985392,22.830936,20000
925,"Điện máy Xanh Số nhà 21, Đường Quốc Lộ 14, Ấp 3, Xã Minh Thành, Huyện Chơn Thành",Tỉnh Bình Phước,Bình Phước,106.617322,11.418027,67000
926,"Điện máy Xanh Số nhà 248, Đường Nguyễn Tất Thành, Tổ Dân Phố Hiệp Thành, Thị Trấn Liên Sơn",Huyện Lắk,Đắk Lắk,108.173204,12.408026,63000
927,"Điện máy Xanh Số nhà 256 - 258 Đường ĐT 741, ẤP 3, Xã Tân Lập, Huyện Đồng Phú",Tỉnh Bình Phước,Bình Phước,106.868845,11.450489,67000
928,"Điện máy Xanh Số nhà 29-31-33 Đường Trần Hưng Đạo, Thị Trấn An Bài",H. Quỳnh Phụ,Thái Bình,106.422541,20.647531,6000
929,"Điện máy Xanh Số nhà 34, Đường ĐT 748, Ấp Tân Phú, Xã Tân Thành, Huyện Bù Đốp",Tỉnh Bình Phước,Bình Phước,106.75517,11.894623,67000
930,"Điện máy Xanh Số nhà 39, Đường Lý Tự Trọng, Tổ dân Phố 5, TT. Thạch Hà",H. Thạch Hà,Hà Tĩnh,105.86297,18.366357,45000
931,"Điện máy Xanh Số nhà 40, Đường ĐT 760, Tổ 1, Thôn 3, Xã Phú Văn, Huyện Bù Gia Mập",Tỉnh Bình Phước,Bình Phước,106.939908,11.853523,67000
932,"Điện máy Xanh Số nhà 42, Khu 3, TT.Cao Phong",H.Cao Phong,Hòa Bình,105.32561,20.712599,36000
933,"Điện máy Xanh Số nhà 43/1A đường 22/12, khu phố 1A, phường An Phú",thành phố Thuận An,Bình Dương,106.740078,10.946978,75000
934,"Điện máy Xanh Số nhà 442/1, Đường Cách mạng Tháng 8, Phường Trung Thành",thành phố Thái Nguyên,Thái Nguyên,105.870246,21.546303,24000
935,"Điện máy Xanh Số nhà 81, Phan Văn Tình, TT. Thủ Thừa",H. Thủ Thừa,Long An,106.40364,10.600073,82000
936,"Điện máy Xanh Số nhà 84, khu 15, xã Phú Hộ",TX. Phú Thọ,Phú Thọ,105.25549,21.438459,35000
937,"Điện máy Xanh Tầng 1 Tòa nhà CT2 Eco Green City, KĐT. Tây Nam Kim Giang I, X. Tân Triều",H. Thanh Trì,Hà Nội,105.80886,20.983359,10000
938,"Điện máy Xanh TDP Cổ Độ, thị trấn Gia Khánh",huyện Bình Xuyên,Vĩnh Phúc,105.6321826,21.3534486,15000
939,"Điện máy Xanh TDP. Độc Lập, thị trấn Thanh Lãng",huyện Bình Xuyên,Vĩnh Phúc,105.621262,21.2458265,15000
940,Điện máy Xanh Thị Trấn Ba Hàng Đồi,Huyện Lạc Thủy,Hòa Bình,105.68032,20.593884,36000
941,Điện máy Xanh Thị trấn Bắc Sơn,huyện Phổ Yên,Thái Nguyên,105.779871,21.451692,24000
942,Điện máy Xanh Thị trấn Cầu Gồ,Huyện Yên Thế,Bắc Giang,106.12692,21.477358,26000
943,Điện máy Xanh Thị trấn Hùng Sơn,huyện Lâm Thao,Phú Thọ,105.29336,21.35641,35000
944,Điện máy Xanh Thị trấn Mường Tè,Huyện Mường Tè,Lai Châu,102.801589,22.383719,30000
945,Điện máy Xanh Thị trấn Nhã Nam,huyện Tân Yên,Bắc Giang,106.0984678,21.4384071,26000
946,Điện máy Xanh Thị trấn Nông Trường Việt Lâm,huyện Vị Xuyên,Hà Giang,104.9576,22.62591,20000
947,Điện máy Xanh Thị trấn Phố Mới,Huyện Quế Võ,Bắc Ninh,106.158226,21.152481,16000
948,Điện máy Xanh Thị trấn Phong Châu,huyện Phù Ninh,Phú Thọ,105.31308,21.40756,35000
949,Điện máy Xanh Thị trấn Tân Hưng,huyện Tân Hưng,Long An,105.666972,10.834766,82000
950,Điện máy Xanh Thị trấn Thạnh Hoá,huyện Thạnh Hoá,Long An,106.1832117,10.6548084,82000
951,Điện máy Xanh Thị trấn Tri Tôn,huyện Tri Tôn,An Giang,105.00149,10.428994,90000
952,Điện máy Xanh Thị trấn Vĩnh Thạnh Trung,Huyện Châu Phú,An Giang,105.238893,10.575479,90000
953,Điện máy Xanh Thị trấn Yên Bình,huyện Quang Bình,Hà Giang,104.578647,22.413518,20000
954,"Điện máy Xanh Thị tứ Đồng Gia, xã Đồng Gia( nay là xã Đồng Cẩm)",huyện Kim Thành,Hải Dương,106.518554,20.895087,3000
955,"Điện máy Xanh Thôn 1, X. Đại Đồng",H. Vĩnh Tường,Vĩnh Phúc,105.5085,21.270944,15000
956,"Điện máy Xanh Thôn 10, xã Cẩm Trung",huyện Cẩm Xuyên,Hà Tĩnh,106.088907,18.217041,45000
957,"Điện máy Xanh Thôn 16/5, thị trấn Đăk Glei",huyện Đăk Glei,Kon Tum,107.741203,15.074833,60000
958,"Điện máy Xanh Thôn 1A, xã Trà Tân",huyện Đức Linh,Bình Thuận,107.474415,11.062734,77000
959,"Điện máy Xanh Thôn 2, TT. Tân An",H. Hiệp Đức,Quảng Nam,108.10774,15.582334,51000
960,"Điện máy Xanh Thôn 2, Xã Đức Liễu",Huyện Bù Đăng,Bình Phước,107.140044,11.712782,67000
961,"Điện máy Xanh Thôn 2, Xã Hoà Nam",Huyện Di Linh,Lâm Đồng,108.074181,11.580233,66000
962,"Điện máy Xanh Thôn 2, Xã Thạch Đà",Huyện Mê Linh,Hà Nội,105.673405,21.171769,10000
963,"Điện máy Xanh Thôn 2, Xã Thạch Đà",Huyện Mê Linh,Hà Nội,105.673405,21.171769,10000
964,"Điện máy Xanh Thôn 2, Xã Vũ Quý",Huyện Kiến Xương,Thái Bình,106.384613,20.400879,6000
965,"Điện máy Xanh Thôn 22, Xã EaNing",Huyện Cư Kuin,Đắk Lắk,108.196109,12.635535,63000
966,"Điện máy Xanh Thôn 3, Xã Ea Ral",Huyện Ea H’leo,Đắk Lắk,108.15509,13.250749,63000
967,"Điện máy Xanh Thôn 3, Xã Măng Tố",Huyện Tánh Linh,Bình Thuận,107.701609,11.210164,77000
968,"Điện máy Xanh Thôn 4, xã Đa Kia",huyện Bù Gia Mập,Bình Phước,106.872659,11.885002,67000
969,"Điện máy Xanh Thôn 5, Xã Ba Trại",Huyện Ba Vì,Hà Nội,105.3507,21.12856,10000
970,"Điện máy Xanh Thôn 6A, Xã Ea Kly, Huyện Krông Pắc",Tỉnh Đắk Lắk,Đắk Lắk,108.299818,12.711506,63000
971,"Điện máy Xanh Thôn 8, Quốc lộ 1A, xã Hương An",H. Quế Sơn,Quảng Nam,108.32893,15.781259,51000
972,"Điện máy Xanh Thôn 9, xã Đăk Ruồng",huyện Kon Rẫy,Kon Tum,108.241512,14.506041,60000
973,"Điện máy Xanh Thôn An Cơ, xã Thanh Tân",huyện Kiến Xương,Thái Bình,106.422968,20.435401,6000
974,"Điện máy Xanh Thôn Ấn Đạt, xã Lợi Hải",huyện Thuận Bắc,Ninh Thuận,109.061698,11.717315,59000
975,"Điện máy Xanh Thôn An Hội Bắc, Xã Nghĩa Kỳ",Huyện Tư Nghĩa,Quảng Ngãi,108.741222,15.119374,53000
976,"Điện máy Xanh Thôn An Lộc Bắc, xã Bình Trị, huyện Bình Sơn",tỉnh Quảng Ngãi,Quảng Ngãi,108.75707,15.304875,53000
977,"Điện máy Xanh Thôn An Ninh, xã An Lão",huyện Bình Lục,Hà Nam,106.008221,20.415189,18000
978,"Điện máy Xanh Thôn An Ninh, xã Yên Phụ",huyện Yên Phong,Bắc Ninh,105.953489,21.19837,16000
979,"Điện máy Xanh Thôn An Thái, xã Lê Lợi",huyện Kiến Xương,Thái Bình,106.456746,20.435968,6000
980,"Điện máy Xanh Thôn An Tiến, xã Hùng An",huyện Bắc Quang,Hà Giang,104.805916,22.414438,20000
981,"Điện máy Xanh Thôn An Xuân, xã Đồng Yên",huyện Bắc Quang,Hà Giang,104.774768,22.197827,20000
982,"Điện máy Xanh Thôn Anh Trỗi, Xã Quỳnh Lưu",Huyện Nho quan,Ninh Bình,105.84354,20.22299,8000
983,"Điện máy Xanh Thôn Bắc Cường, Thị Trấn Thổ Tang, Huyện Vĩnh Tường",Tỉnh Vĩnh Phúc,Vĩnh Phúc,105.511778,21.216079,15000
984,"Điện máy Xanh Thôn Bắc Ngầm, Xã Xuân Quang",huyện Bảo Thắng,Lào Cai,104.243626,22.379875,31000
985,"Điện máy Xanh Thôn Bái Đô, Xã Tri Thuỷ",Huyện Phú Xuyên,Hà Nội,105.957172,20.682524,10000
986,"Điện máy Xanh Thôn Bình Long, xã Lương Điền",huyện Cẩm Giàng,Hải Dương,106.166734,20.956324,3000
987,"Điện máy Xanh Thôn Bỉnh Ri, xã Hợp Lý",huyện Lập Thạch,Vĩnh Phúc,105.4911699,21.4965678,15000
988,"Điện máy Xanh Thôn Cấn Thượng, Xã Cấn Hữu",Huyện Quốc Oai,Hà Nội,105.61531,20.95261,10000
989,"Điện máy Xanh Thôn Cầu Đào, Xã Nhân Thắng",Huyện Gia Bình,Bắc Ninh,106.22835,21.06267,16000
990,"Điện máy Xanh Thôn Cậy, Xã Long Xuyên, Huyện Bình Giang",Tỉnh Hải Dương,Hải Dương,106.147222,20.909712,3000
991,"Điện máy Xanh Thôn Chẩn Kỳ, Xã Trung Tú",Huyện Ứng Hòa,Hà Nội,105.833312,20.719108,10000
992,"Điện máy Xanh Thôn Chánh Giáo, xã Mỹ An, huyện Phù Mỹ",tỉnh Bình Định,Bình Định,109.041748,14.169932,55000
993,"Điện máy Xanh Thôn Chánh Thiện, Xã Mỹ Chánh",Huyện Phù Mỹ,Bình Định,109.12243,14.15831,55000
994,"Điện máy Xanh Thôn Chánh Trực, xã Mỹ Thọ",huyện Phù Mỹ,Bình Định,109.161293,14.2167101,55000
995,"Điện máy Xanh Thôn Chấu, xã Bắc Sơn",Huyện Sóc Sơn,Hà Nội,105.828506,21.352717,10000
996,"Điện máy Xanh Thôn Chợ Cuồi, Xã Tiến Hóa",Huyện Tuyên Hóa,Quảng Bình,106.235244,17.799026,47000
997,"Điện máy Xanh Thôn Chợ, xã Bình Minh",huyện Thanh Oai,Hà Nội,105.763,20.8885,10000
998,"Điện máy Xanh Thôn Chu Xá, Xã Kiêu Kỵ",Huyện Gia Lâm,Hà Nội,105.955519,20.967497,10000
999,"Điện máy Xanh Thôn Đà Lâm, Xã Đà Loan",Huyện Đức Trọng,Lâm Đồng,108.386277,11.57682,66000
1000,"Điện máy Xanh Thôn Đại Thuận, Xã Mỹ Hiệp, Huyện Phú Mỹ",Tỉnh Bình Định,Bình Định,109.041748,14.169932,55000
1001,"Điện máy Xanh Thôn Đản Mỗ, X. Uy Nỗ",H. Đông Anh,Hà Nội,105.84597,21.146564,10000
1002,"Điện máy Xanh Thôn Đan Thê, Xã Sơn Đà",Huyện Ba Vì,Hà Nội,105.302623,21.179675,10000
1003,"Điện máy Xanh Thôn Đoài, Xã Bắc Lý",Huyện Hiệp Hòa,Bắc Giang,105.956634,21.292113,26000
1004,"Điện máy Xanh Thôn Đoài, Xã Việt Hùng",Huyện Đông Anh,Hà Nội,105.86865,21.14052,10000
1005,"Điện máy Xanh Thôn Đoàn Kết, xã Cổ Đông",TX. Sơn Tây,Hà Nội,105.50521,21.048354,10000
1006,"Điện máy Xanh Thôn Đội 4 Sơn Hạ, xã Xuân Vân",huyện Yên Sơn,Tuyên Quang,105.224051,21.9413676,22000
1007,"Điện máy Xanh Thôn Đôn Hậu, P. Khai Quang",TP. Vĩnh Yên,Vĩnh Phúc,105.61971,21.31105,15000
1008,"Điện máy Xanh Thôn Đông Bình, Xã Bình Chánh",Huyện Bình Sơn,Quảng Ngãi,108.72572,15.367457,53000
1009,"Điện máy Xanh Thôn Đông Hòe, xã Đồng Tiến",huyện Quỳnh Phụ,Thái Bình,106.323904,20.65531,6000
1010,"Điện máy Xanh Thôn Đồng Nanh, xã Tiên Phương",huyện Chương Mỹ,Hà Nội,105.704747,20.921719,10000
1011,"Điện máy Xanh Thôn Đông Sơn, X. Đông Xá, H. Vân Đồn",T. Quảng Ninh (Đối diện Cây xăng cũ,Quảng Ninh,107.41335,21.063673,1000
1012,"Điện máy Xanh Thôn Đông Yên, X. Đông Phong",H. Yên Phong,Bắc Ninh,106.00578,21.189072,16000
1013,"Điện máy Xanh Thôn Đông, X. Phù Lỗ",H. Sóc Sơn,Hà Nội,105.84879,21.199257,10000
1014,"Điện máy Xanh Thôn Đức Cơ, xã Đông Cơ",huyện Tiền Hải,Thái Bình,106.543908,20.392169,6000
1015,"Điện máy Xanh Thôn Dung, Thị trấn Thạnh Mỹ",Huyện Nam Giang,Quảng Nam,107.833435,15.746623,51000
1016,"Điện máy Xanh Thôn Hà An, xã Điện Phong",thị xã Điện Bàn,Quảng Nam,108.249785,15.850192,51000
1017,"Điện máy Xanh Thôn Hà Mỹ, Xã Duy Vinh",Huyện Duy Xuyên,Quảng Nam,108.3293739,15.844873,51000
1018,"Điện máy Xanh Thôn Hà Nha, xã Đại Đồng",huyện Đại Lộc,Quảng Nam,108.0131129,15.851035,51000
1019,"Điện máy Xanh Thôn Hà Phong, Xã Liên Hà",Huyện Đông Anh,Hà Nội,105.90008,21.15286,10000
1020,"Điện máy Xanh Thôn Hàm Hy, Xã Cộng Lạc, HuyệnTứ Kỳ",Tỉnh Hải Dương,Hải Dương,106.4546077,20.7822002,3000
1021,"Điện máy Xanh Thôn Hiếu Lễ, Xã Phước Hậu",Huyện Ninh Phước,Ninh Thuận,108.92477,11.577938,59000
1022,"Điện máy Xanh Thôn Hòa Lạc, xã Bình Yên",Huyện Thạch Thất,Hà Nội,105.518015,21.028534,10000
1023,"Điện máy Xanh Thôn Khê Ngoại 1, Xã Văn Khê",Mê Linh,Hà Nội,105.70723,21.16278,10000
1024,"Điện máy Xanh Thôn Kim 1, Xã Phượng Sơn",Huyện Lục Ngạn,Bắc Giang,106.493931,21.344085,26000
1025,"Điện máy Xanh Thôn kỳ phú, xã Tam Phước",huyện Phú Ninh,Quảng Nam,108.436097,15.53612,51000
1026,"Điện máy Xanh Thôn Lã Côi, X. Yên Viên",H. Gia Lâm,Hà Nội,105.92791,21.096527,10000
1027,"Điện máy Xanh Thôn Lâm Tùng, xã Ia Chim",thành phố Kon Tum,Kon Tum,107.927928,14.311836,60000
1028,"Điện máy Xanh Thôn Lập Thành, xã Mỹ Bằng",huyện Yên Sơn,Tuyên Quang,105.09051,21.74671,22000
1029,Điện máy Xanh Thôn Lặt,Xã Minh Quang,Hà Nội,105.3200319,21.0714014,10000
1030,"Điện máy Xanh Thôn Lệ Sơn 1, Xã Hòa Tiến",Huyện Hòa Vang,Đà Nẵng,108.180582,15.965236,50000
1031,"Điện máy Xanh Thôn Liên Minh, Xã Thụy An",Huyện Ba Vì,Hà Nội,105.412279,21.157489,10000
1032,"Điện máy Xanh Thôn Liên Trung, Xã Tân Hà",Huyện Lâm Hà,Lâm Đồng,108.19606,11.74672,66000
1033,"Điện máy Xanh Thôn Lim, Xã Giáp Sơn, Huyện Lục Ngạn",Tỉnh Bắc Giang,Bắc Giang,106.649324,21.389332,26000
1034,"Điện máy Xanh Thôn Lục Nam, xã Thái Xuyên",huyện Thái Thuỵ,Thái Bình,106.546856,20.507095,6000
1035,"Điện máy Xanh Thôn Lương An, xã Hưng Khánh",huyện Trấn Yên,Yên Bái,104.7645004,21.5955536,33000
1036,"Điện máy Xanh Thôn Lương Cách, Xã Hộ Hải",Huyện Ninh Hải,Ninh Thuận,108.995934,11.62942,59000
1037,"Điện máy Xanh Thôn Mai Thượng 3, Xã Hương Mai",Huyện Việt Yên,Bắc Giang,106.03986,21.31067,26000
1038,"Điện máy Xanh Thôn Mao Dộc, xã Phượng Mao",H. Quế Võ,Bắc Ninh,106.142054,21.154699,16000
1039,"Điện máy Xanh Thôn Mao Trung, X. Phượng Mao",h. Quế Võ,Bắc Ninh,106.14677,21.154333,16000
1040,"Điện máy Xanh Thôn Marin II, xã Ia Marơn",huyện Ia Pa,Gia Lai,108.443012,13.445461,61000
1041,"Điện máy Xanh Thôn Mỹ Tường 2, xã Nhơn Hải",huyện Ninh Hải,Ninh Thuận,109.116129,11.582492,59000
1042,"Điện máy Xanh Thôn Nam Sơn, xã Cương Gián",huyện Nghi Xuân,Hà Tĩnh,105.756349,18.6616,45000
1043,"Điện máy Xanh Thôn Nam Sơn, xã Nam Phương Tiến",H. Chương Mỹ,Hà Nội,105.60172,20.851944,10000
1044,"Điện máy Xanh Thôn Ngã Ba, Thị Trấn PRao",huyện Đông Giang,Quảng Nam,107.649618,15.924666,51000
1045,"Điện máy Xanh Thôn Ngã Ba, xã Cát Thịnh",huyện Văn Chấn,Yên Bái,104.723772,21.489107,33000
1046,"Điện máy Xanh Thôn Ngoài, xã Tiên Lục",huyện Lạng Giang,Bắc Giang,106.189055,21.413059,26000
1047,"Điện máy Xanh Thôn Ngọc Chúc 1, xã Chí Đám",huyện Đoan Hùng,Phú Thọ,105.184327,21.623811,35000
1048,"Điện máy Xanh Thôn Ngọc Hồi, X. Ngọc Hồi, H. Thanh Trì",TP. Hà Nội (Cạnh cầu Ngọc Hồi,Hà Nội,105.84965,20.923531,10000
1049,"Điện máy Xanh Thôn Nhân Phú, xã Hùng Dũng",huyện Hưng Hà,Thái Bình,106.247648,20.618422,6000
1050,"Điện máy Xanh Thôn Nhơn Thiện , xã Nhơn Hạnh",thị xã An Nhơn,Bình Định,109.1564369,13.9316935,55000
1051,"Điện máy Xanh Thôn Ninh Quý, xã Phước Sơn",huyện Ninh Phước,Ninh Thuận,108.929336,11.525722,59000
1052,"Điện máy Xanh Thôn Ô Mễ 2, Xã Tân Phong",Huyện Vũ Thư,Thái Bình,106.314484,20.472225,6000
1053,"Điện máy Xanh Thôn Phố Biển, xã Biển Động",huyện Lục Ngạn,Bắc Giang,106.75259,21.38851,26000
1054,"Điện máy Xanh Thôn Phong Lẫm, Xã Thuỵ Phong",Huyện Thái Thuỵ,Thái Bình,106.46434,20.549411,6000
1055,"Điện máy Xanh Thôn Phú Cường, xã Lãng Công",huyện Sông Lô,Vĩnh Phúc,105.420417,21.429134,15000
1056,"Điện máy Xanh Thôn Phú Gia, Xã Thanh Nguyên",Huyện Thanh Liêm,Hà Nam,105.918606,20.417029,18000
1057,"Điện máy Xanh Thôn Phú Hưng, xã Hàm Mỹ",huyện Hàm Thuận Nam,Bình Thuận,108.041879,10.927914,77000
1058,"Điện máy Xanh Thôn Phú Lộc, xã Cẩm Vũ",huyện Cẩm Giàng,Hải Dương,106.2491427,20.9761274,3000
1059,"Điện máy Xanh Thôn Phù Tải, xã Thanh Giang",huyện Thanh Miện,Hải Dương,106.251355,20.722926,3000
1060,"Điện máy Xanh Thôn Phú Thụy, Xã Phú Thị",huyện Gia Lâm,Hà Nội,105.96525,21.019447,10000
1061,"Điện máy Xanh Thôn Phụng Sơn, xã Phước Sơn",huyện Tuy Phước,Bình Định,109.187925,13.857829,55000
1062,"Điện máy Xanh Thôn Phước Đức, Xã Quế Châu, Huyện Quế Sơn ",Tỉnh Quảng Nam,Quảng Nam,108.221194,15.67233,51000
1063,"Điện máy Xanh Thôn Quảng Huế, Xã Đại An",Huyện Đại Lộc,Quảng Nam,108.12142,15.85278,51000
1064,"Điện máy Xanh Thôn Quý Thạnh 1, Xã Bình Quý",Huyện Thăng Bình,Quảng Nam,108.3402294,15.7129136,51000
1065,"Điện máy Xanh Thôn Quyết Tiến, Xã Hữu Văn",Huyện Chương Mỹ,Hà Nội,105.660907,20.867932,10000
1066,"Điện máy Xanh Thôn R'lơm, Xã Đạ Đờn",Huyện Lâm Hà,Lâm Đồng,108.2136037,11.8505873,66000
1067,"Điện máy Xanh Thôn Sậm, X. Tân Thịnh",H. Lạng Giang,Bắc Giang,106.27895,21.40928,26000
1068,"Điện máy Xanh Thôn Tam Dân, Xã Tam Dân",Huyện Phú Ninh,Quảng Nam,108.42267,15.525337,51000
1069,"Điện máy Xanh Thôn Tân An 4, Thị Trấn Yên Lập",Huyện Yên Lập,Phú Thọ,105.05877,21.351828,35000
1070,"Điện máy Xanh Thôn Tân An, xã Đại Lãnh",Huyện Đại Lộc,Quảng Nam,108.112594,15.883077,51000
1071,"Điện máy Xanh Thôn Tân Lực, Xã Bù Nho",Huyện Phú Riềng,Bình Phước,106.872973,11.731028,67000
1072,"Điện máy Xanh Thôn Tân Quảng, Xã Ea Tóh, Huyện Krông Năng",Tỉnh Đắk Lắk,Đắk Lắk,108.327722,13.03619,63000
1073,"Điện máy Xanh Thôn Tân Thạnh, Xã Ân Tường Tây, Huyện Hoài Ân",Tỉnh Bình Định,Bình Định,108.963894,14.360457,55000
1074,"Điện máy Xanh Thôn Tân Tiến, Xã Đạo Trù",Huyện Tam Đảo,Vĩnh Phúc,105.533082,21.496402,15000
1075,"Điện máy Xanh Thôn Tân Trại, Xã Phú Cường, Huyện Sóc Sơn",Thành phố Hà Nội,Hà Nội,105.792611,21.207222,10000
1076,"Điện máy Xanh Thôn Thái Mông, Xã Quang Thành",Thị xã Kinh Môn,Hải Dương,106.4317,21.03322,3000
1077,"Điện máy Xanh Thôn Thái, xã Nguyên Xá",huyện Vũ Thư,Thái Bình,106.303406,20.391773,6000
1078,"Điện máy Xanh Thôn Thần Khê, xã Thăng Long",huyện Đông Hưng,Thái Bình,106.27968,20.550935,6000
1079,"Điện máy Xanh Thôn Thành Dền, xã Đào Viên",huyện Quế Võ,Bắc Ninh,106.151861,21.1547,16000
1080,"Điện máy Xanh Thôn Thanh Khê, Xã Thanh Trạch",Huyện Bố Trạch,Quảng Bình,106.47792,17.69529,47000
1081,"Điện máy Xanh Thôn Thanh Vân, xã Tân Dân",huyện Sóc Sơn,Hà Nội,105.735838,21.242842,10000
1082,"Điện máy Xanh Thôn Thạnh Xuân Bắc, Xã Hoài Hương",Huyện Hoài Nhơn,Bình Định,109.089202,14.489327,55000
1083,"Điện máy Xanh Thôn Thấp Dương, xã Trung Kênh",huyện Lương Tài,Bắc Ninh,106.28439,21.04254,16000
1084,"Điện máy Xanh Thôn Thị Tứ, Xã Võ Lao",Huyện Văn Bàn,Lào Cai,104.205051,22.208422,31000
1085,"Điện máy Xanh Thôn Thuận Tốn, X. Đa Tốn",H. Gia Lâm,Hà Nội,105.92012,20.982784,10000
1086,"Điện máy Xanh Thôn Thượng Giang, xã Tây Giang",huyện Tây Sơn,Bình Định,108.824922,13.96165,55000
1087,"Điện máy Xanh Thôn Thường Lệ, xã Đại Thịnh",H. Mê Linh,Hà Nội,105.73107,21.175265,10000
1088,"Điện máy Xanh Thôn Thượng Phúc , xã Thụy Sơn",huyện Thái Thụy,Thái Bình,106.501274,20.558369,6000
1089,"Điện máy Xanh Thôn Tích Cực, xã Hợp Châu",huyện Tam Đảo,Vĩnh Phúc,105.618202,21.395401,15000
1090,"Điện máy Xanh Thôn Trái Hút, Xã An Bình",Huyện Văn Yên,Yên Bái,104.688824,21.878024,33000
1091,"Điện máy Xanh Thôn Tràng An, TT. Chúc Sơn",H. Chương Mỹ,Hà Nội,105.71234,20.927242,10000
1092,"Điện máy Xanh Thôn Trung Phước 3, xã Quế Trung",huyện Nông Sơn,Quảng Nam,108.059844,15.719382,51000
1093,"Điện máy Xanh Thôn Trung Tâm ( Nay thôn Yên Thịnh ), xã An Thịnh",huyện Văn Yên,Yên Bái,104.6504141,21.8678984,33000
1094,"Điện máy Xanh Thôn Trung Tâm, xã Bản Lầu",huyện Mường Khương,Lào Cai,104.106599,22.762226,31000
1095,"Điện máy Xanh Thôn Trung Thành, Xã Hùng Sơn, Huyện Hiệp Hòa",Tỉnh Bắc Giang,Bắc Giang,105.978537,21.356146,26000
1096,"Điện máy Xanh Thôn Trung Thịnh, Xã Trường Thịnh",Huyện Ứng Hoà,Hà Nội,105.76858,20.76567,10000
1097,"Điện máy Xanh Thôn Trung Tín 2, Thị Trấn Tuy Phước",Huyện Tuy Phước,Bình Định,109.165588,13.827818,55000
1098,"Điện máy Xanh Thôn Tự Phước, P.11",Tp. Đà Lạt,Lâm Đồng,108.49683,11.945389,66000
1099,"Điện máy Xanh Thôn Tư Thế, xã Trí Quả",Huyện Thuận Thành,Bắc Ninh,106.03899,21.035008,16000
1100,"Điện máy Xanh Thôn Tùng Giản, xã Phước Hoà",huyện Tuy Phước,Bình Định,109.17005,13.828164,55000
1101,"Điện máy Xanh Thôn Túy Loan Đông 1, Xã Hòa Phong",Huyện Hoà Vang,Đà Nẵng,108.140308,15.990952,50000
1102,"Điện máy Xanh Thôn Vân Lũng, Xã An Khánh",Huyện Hoài Đức,Hà Nội,105.72058,21.00561,10000
1103,"Điện máy Xanh Thôn Vân Tường, Xã Bình Hoà, Huyện Tây Sơn",Tỉnh Bình Định,Bình Định,108.91608,13.911015,55000
1104,"Điện máy Xanh Thôn Văn Văn Tây, xã Thái Hưng",huyện Thái Thụy,Thái Bình,106.566409,20.560814,6000
1105,"Điện máy Xanh Thôn Vạn Xuân Đông, xã Thụy Xuân",huyện Thái Thụy,Thái Bình,106.566409,20.560814,6000
1106,"Điện máy Xanh Thôn Vang, Xã Cổ Loa",Huyện Đông Anh,Hà Nội,105.849147,21.140395,10000
1107,"Điện máy Xanh Thôn Viêm Khê, Hợp Tiến",Mỹ Đức,Hà Nội,105.69914,20.68847,10000
1108,"Điện máy Xanh Thôn Việt Hùng, Xã Nam Trung",Huyện Tiền Hải,Thái Bình,106.541817,20.343242,6000
1109,"Điện máy Xanh Thôn Vĩnh Lộc, xã Quảng Lộc",thị xã Ba Đồn,Quảng Bình,106.3915,17.73839,47000
1110,"Điện máy Xanh Thôn Vĩnh Trường, Xã Cát Hanh",Huyện Phù Cát,Bình Định,109.0450519,14.0623472,55000
1111,"Điện máy Xanh Thôn Vọng Sơn, xã Triều Đề",huyện Lập Thạch,Vĩnh Phúc,105.462495,21.336487,15000
1112,"Điện máy Xanh Thôn Xa Mạc, Xã Liên Mạc",Huyện Mê Linh,Hà Nội,105.644692,21.190947,10000
1113,"Điện máy Xanh Thôn Xóm Mới, xã Hưng Thủy",huyện Lệ Thủy,Quảng Bình,106.853306,17.21325,47000
1114,"Điện máy Xanh Thôn Yên Thành, Xã Tản Lĩnh",Ba Vì,Hà Nội,105.389036,21.122682,10000
1115,"Điện máy Xanh Thửa 232 và 233, tờ bản đồ số 35, phố Bãi Nai 2. Xã Mông Hóa",Huyện Kỳ Sơn,Hòa Bình,105.334352,20.814303,36000
1116,"Điện máy Xanh Thửa đất 1177 và 1178, tờ bản đồ 43, ấp Đồng Sổ, xã Lai Uyên",huyện Bàu Bàng,Bình Dương,106.636597,11.240653,75000
1117,"Điện máy Xanh Thửa đất 12, Tờ bản đồ số 10, thôn 5, xã Hạ Bằng",huyện Thạch Thất,Hà Nội,105.5565582,21.0077813,10000
1118,"Điện máy Xanh Thửa đất số 1023, Tờ bản đồ số 01 (10-224458+230458+224464), Thôn 02, Xã Hàm Đức, Huyện Hàm Thuận Bắc",Tỉnh Bình Thuận,Bình Thuận,108.163188,11.032274,77000
1119,"Điện máy Xanh Thửa đất số 11 và 160, tờ bản đồ số 39, Xã Thạnh Mỹ Tây, Huyện Châu Phú",Tỉnh An Giang,An Giang,105.144705,10.541575,90000
1120,"Điện máy Xanh Thửa đất số 121a, Tờ bản đồ số 5, Xã Duy Trung",Huyện Duy Xuyên,Quảng Nam,108.248731,15.821793,51000
1121,"Điện máy Xanh Thửa đất số 129, tờ bản đồ số 11, Khu 13, Xã Cổ Tiết",Huyện Tam Nông,Phú Thọ,105.255742,21.28301,35000
1122,"Điện máy Xanh Thửa đất số 142A, tờ bản đồ số 05, thôn Minh Tiến, xã Hàm Minh",huyện Hàm Thuận Nam,Bình Thuận,107.922061,10.8659666,77000
1123,"Điện máy Xanh Thửa đất số 193, tờ bản đồ số 17, ấp Kinh Xáng, xã Lộc Ninh",huyện Hồng Dân,Bạc Liêu,105.448354,9.557174,97000
1124,"Điện máy Xanh Thửa đất số 271, tờ bản đồ số 04, địa chỉ: xã Tam Tiến",Huyện Núi Thành,Quảng Nam,108.658075,15.43069,51000
1125,"Điện máy Xanh Thửa đất số 47, tờ bản đồ số 17, thôn Bí Trung, xã Phương Đông",thị xã Uông Bí,Quảng Ninh,106.726011,21.039888,1000
1126,"Điện máy Xanh Thửa đất số 4738, tờ bản đồ số 06, Ấp 2, xã Mỹ Quý Tây",huyện Đức Huệ,Long An,106.2012858,10.9310801,82000
1127,"Điện máy Xanh Thửa đất số 53, tờ bản đồ số 15, Ấp 1, Xã Tân Hào",Huyện Giồng Trôm,Bến Tre,106.464233,10.133704,86000
1128,"Điện máy Xanh Thửa Đất số 577, Tờ bản đồ số 14, Đường Hoàng Hoa Thám, Khu phố 4, Thị Trấn Vĩnh Hưng, Huyện Vĩnh Hưng",Tỉnh Long An,Long An,105.789215,10.886605,82000
1129,"Điện máy Xanh Thửa đất số 765, tờ bản đồ số 07, xã Phổ Văn",huyện Đức Phổ,Quảng Ngãi,108.9386246,14.8491888,53000
1130,"Điện máy Xanh Thửa đất số 868, tờ bản đồ số 10, xã Nhơn Thành",huyện An Nhơn,Bình Định,109.0752391,13.9488397,55000
1131,"Điện máy Xanh Thửa đất: 689-690, tờ bản đồ: 6, thị trấn Bình Phong Thạnh",huyện Mộc Hoá,Long An,106.0585208,10.7284877,82000
1132,"Điện máy Xanh Thửa đất: 808 - 902, tờ bản đồ: 12, ấp Nhơn Hoà 1, xã Đức Hoà Thượng",huyện Đức Hoà,Long An,106.395796,10.893379,82000
1133,"Điện máy Xanh Thửa số 100,303,304, tờ bản đồ số 23, tổ 3, thị trấn Tam Sơn",Huyện Quản Bạ,Hà Giang,104.99302,23.065028,20000
1134,"Điện máy Xanh Thửa số 102, Quốc Lộ 1A, khóm 2, P. Hộ Phòng",TX. Giá Rai,Bạc Liêu,105.41254,9.226082,97000
1135,"Điện máy Xanh Thửa số 103/1+3 và 103 và 121, Tờ bản đồ 04, Xã Cẩm Chế",huyện Thanh Hà,Hải Dương,106.4308688,20.9303139,3000
1136,"Điện máy Xanh Thửa số 328 và 329 tờ bản đồ 82 xóm Làng Đèn, xã Tràng Xá",huyện Võ Nhai,Thái Nguyên,106.070901,21.75633,24000
1137,"Điện máy Xanh Thửa số 36, bản đồ số 92, bản Khổng Lào, xã Khổng Lào",huyện Phong Thổ,Lai Châu,103.355898,22.533391,30000
1138,"Điện máy Xanh Thửa số 618,619,601 tờ bản đồ số 17, tổ 8, thị trấn Trại Cau",huyện Đồng Hỷ,Thái Nguyên,105.9520043,21.5897463,24000
1139,"Điện máy Xanh Tiểu khu 13, TT.Lương Sơn",H.Lương Sơn,Hòa Bình,105.52932,20.871303,36000
1140,"Điện máy Xanh Tiểu khu 4, TT. Mai Châu",H. Mai Châu,Hòa Bình,105.08264,20.659882,36000
1141,"Điện máy Xanh Tiểu khu 4, TT. Neo",H. Yên Dũng,Bắc Giang,106.24942,21.200801,26000
1142,"Điện máy Xanh Tiểu Khu An Thái, Thị Trấn Đu",Huyện Phú Lương,Thái Nguyên,105.70822,21.725225,24000
1143,"Điện máy Xanh Tiểu khu Liên Phương, Thị Trấn Đà Bắc, Huyện Đà Bắc",Tỉnh Hòa Bình,Hòa Bình,105.252772,20.877544,36000
1144,"Điện máy Xanh Tiểu khu Phú Thịnh, Thị trấn Phú Minh",Huyện Phú Xuyên,Hà Nội,105.91677,20.78175,10000
1145,"Điện máy Xanh Tỉnh lộ 390, Thôn Xuân An, X. Thanh Khê",H. Thanh Hà,Hải Dương,106.42037,20.898012,3000
1146,"Điện máy Xanh Tỉnh lộ 685, Thôn 18B, xã Ea Bar",huyện Buôn Đôn,Đắk Lắk,107.990269,12.769245,63000
1147,"Điện máy Xanh Tỉnh lộ 911, ấp Tân An Chợ, X. Tân An",H. Càng Long,Trà Vinh,106.15191,9.910647,87000
1148,"Điện máy Xanh Tỉnh lộ 941, Ấp Cần Thạnh, X. Cần Đăng",H. Châu Thành,An Giang,105.29593,10.456707,90000
1149,"Điện máy Xanh Tỉnh lộ 942, TT, Mỹ Luông",H. Chợ Mới,An Giang,105.49221,10.505829,90000
1150,"Điện máy Xanh Tổ 05, thôn Phú Cường, X. Phú Riềng",H. Phú Riềng,Bình Phước,106.89913,11.65963,67000
1151,"Điện máy Xanh Tổ 06, thôn Phước Ấm, xã Bình Triều",huyện Thăng Bình,Quảng Nam,108.394777,15.759022,51000
1152,"Điện máy Xanh Tổ 1, TT. Chợ Mới",H. Chợ Mới,Bắc Kạn,105.78246,21.886,23000
1153,"Điện máy Xanh Tổ 1, TT. Cốc Pài",H. Xín Mần,Hà Giang,104.46188,22.684079,20000
1154,"Điện máy Xanh Tổ 10, Thôn Tân Long, Xã Châu Pha, Thị Xã Phú Mỹ",Tỉnh Bà - Rịa Vũng Tàu,Bà Rịa - Vũng Tàu,107.148969,10.586164,78000
1155,"Điện máy Xanh Tổ 11 Thị Trấn Mường Chà, Huyện Mường Chà",Tỉnh Điện Biên (Đối diện ngã 3 Mường Nhé,Điện Biên,103.09149,21.762416,32000
1156,"Điện máy Xanh Tổ 11/9, Thị Trấn Vĩnh Lộc",H. Chiêm Hóa,Tuyên Quang,105.27734,22.14425,22000
1157,"Điện máy Xanh Tổ 112, Khu 8B, Phường Cẩm Phú, Thành phố Cẩm Phả",Tỉnh Quảng Ninh,Quảng Ninh,107.273044,21.009484,1000
1158,"Điện máy Xanh Tổ 13, thị trấn Yên Bình",huyện Yên Bình,Yên Bái,104.96672,21.725116,33000
1159,"Điện máy Xanh Tổ 15, TT. Tân Uyên ",H. Tân Uyên ,Lai Châu,103.75554,22.171398,30000
1160,"Điện máy Xanh Tổ 2, Thị Trấn Kim Bài",Huyện Thanh Oai,Hà Nội,105.768894,20.852707,10000
1161,"Điện máy Xanh Tổ 2, TT. Yên Minh",H. Yên Minh,Hà Giang,105.13737,23.119403,20000
1162,"Điện máy Xanh Tổ 26, Phường Phú Xá",Tp.Thái Nguyên,Thái Nguyên,105.84754,21.548954,24000
1163,"Điện máy Xanh Tổ 2A, thị trấn Bằng Lũng",huyện Chợ Đồn,Bắc Kạn,105.59571,22.157603,23000
1164,"Điện máy Xanh Tổ 3, thị trấn Mù Cang Chải",huyện Mù Căng Chải,Yên Bái,104.08836,21.850906,33000
1165,"Điện máy Xanh Tổ 3, Thị Trấn SaPa",Huyện SaPa,Lào Cai,103.851,22.338617,31000
1166,"Điện máy Xanh Tổ 3, Thị trấn Trà Lĩnh",Huyện Trùng Khánh,Cao Bằng,106.32442,22.824925,21000
1167,"Điện máy Xanh Tổ 4, Khối 1, Thị trấn Đông Anh",Huyện Đông Anh,Hà Nội,105.84529,21.142154,10000
1168,"Điện máy Xanh Tổ 4, TT. Hương Sơn",H. Phú Bình,Thái Nguyên,105.97652,21.462264,24000
1169,"Điện máy Xanh Tổ 5, khu Hòa Lạc, P. Cẩm Bình",TP. Cẩm Phả,Quảng Ninh,107.28103,21.004416,1000
1170,"Điện máy Xanh Tổ 5, khu Nam Tân, P. Nam Khê",TP. Uông Bí,Quảng Ninh,106.80937,21.023403,1000
1171,"Điện máy Xanh Tổ 57 Khu 5, P.Cửa Ông",Tp.Cẩm Phả,Quảng Ninh,107.36506,21.030591,1000
1172,"Điện máy Xanh Tổ 6, thị trấn Đông Hưng",huyện Đông Hưng,Thái Bình,106.35549,20.554738,6000
1173,"Điện máy Xanh Tổ 6B1, TT.Phố Ràng",H.Bảo Yên,Lào Cai,104.47768,22.23502,31000
1174,"Điện máy Xanh Tổ 7, Thôn Phước Tấn, Xã Tân Hòa, Thị xã Phú Mỹ",Tỉnh Bà Rịa - Vũng Tàu,Bà Rịa - Vũng Tàu,107.0856998,10.5184734,78000
1175,"Điện máy Xanh Tổ 8B, Phường Đức Xuân",Thành Phố Bắc Kạn,Bắc Kạn,105.83461,22.144284,23000
1176,"Điện máy Xanh Tổ 9, Phường Tân Phong",Thành Phố Lai Châu,Lai Châu,103.46126,22.391292,30000
1177,"Điện máy Xanh Tổ 9, Thị Trấn Trùng Khánh",Huyện Trùng Khánh,Cao Bằng,106.52666,22.836932,21000
1178,"Điện máy Xanh Tổ dân phố 01, thị trấn Phú Hòa",huyện Chư Păh,Gia Lai,107.9732543,14.1015215,61000
1179,"Điện máy Xanh Tổ dân phố 1, Thị Trấn Bảo Lạc",Huyện Bảo Lạc,Cao Bằng,105.679311,22.94737,21000
1180,"Điện máy Xanh Tổ dân phố 1, Thị Trấn Trà Xuân",Huyện Trà Bồng,Quảng Ngãi,108.518688,15.255602,53000
1181,"Điện máy Xanh Tổ dân phố 1, TT. Đông Khê",H. Thạch An,Cao Bằng,106.43359,22.42691,21000
1182,"Điện máy Xanh Tổ dân phố 2, Quốc lộ 1A, Thị Trấn Mộ Đức",Huyện Mộ Đức,Quảng Ngãi,108.88999,14.948807,53000
1183,"Điện máy Xanh Tổ dân phố 2A, Thị trấn Nông Trường Lệ Ninh",Huyện Lệ Thủy,Quảng Bình,106.694944,17.23475,47000
1184,"Điện máy Xanh Tổ dân phố 3 Phương Xuân, Phường Bắc Nghĩa",Thành phố Đồng Hới,Quảng Bình,106.591622,17.444333,47000
1185,"Điện máy Xanh Tổ dân phố 3, Thị trấn Tiên Điền",Huyện Nghi Xuân,Hà Tĩnh,105.76009,18.66294,45000
1186,"Điện máy Xanh Tổ dân phố 4, TT. Nguyên Bình",H. Nguyên Bình,Cao Bằng,105.96009,22.649925,21000
1187,"Điện máy Xanh Tổ dân phố 4, TT. Vinh Quang",H. Hoàng Su Phì,Hà Giang,104.67943,22.742964,20000
1188,"Điện máy Xanh Tổ dân phố 5, TT. Đức Thọ",H. Đức Thọ,Hà Tĩnh,105.58802,18.538385,45000
1189,"Điện máy Xanh Tổ dân phố 7, TT. Mường Ảng",H. Mường Ảng,Điện Biên,103.22281,21.519869,32000
1190,"Điện máy Xanh Tổ dân phố Cầu Thành 1, TT. Hùng Sơn",H. Đại từ,Thái Nguyên,105.64686,21.633531,24000
1191,"Điện máy Xanh Tổ dân phố Đội Cấn, TT. Vĩnh Tường",H. Vĩnh Tường,Vĩnh Phúc,105.51682,21.211601,15000
1192,"Điện máy Xanh Tổ dân phố Đông Anh 2, TT. Nam Ban",H. Lâm Hà,Lâm Đồng,108.34225,11.843329,66000
1193,"Điện máy Xanh Tổ dân phố Đồng Tâm, Thị trấn Tủa Chùa",Huyện Tủa Chùa,Điện Biên,103.341109,21.856478,32000
1194,"Điện máy Xanh Tổ Dân Phố Gò Dép, TT. Di Lăng ",H. Sơn Hà,Quảng Ngãi,108.471,15.045643,53000
1195,"Điện máy Xanh Tổ dân phố Hòa Bình, Thị trấn Hoa Sơn",Huyện Lập Thạch,Vĩnh Phúc,105.5171147,21.4336774,15000
1196,"Điện máy Xanh Tổ dân phố Hương, Thị trấn Tân An",Huyện Yên Dũng,Bắc Giang,106.2723804,21.2615147,26000
1197,"Điện máy Xanh Tổ dân phố Liên Phú, P. Kỳ Liên",TX. Kỳ Anh,Hà Tĩnh,106.40457,18.022758,45000
1198,"Điện máy Xanh Tổ dân phố Nà Khà, thị trấn Lăng Can ",huyện Lâm Bình ,Tuyên Quang,105.22537,22.460261,22000
1199,"Điện máy Xanh Tổ dân phố phố mới, thị trấn Si Ma Cai",huyện Si Ma Cai,Lào Cai,104.290455,22.696408,31000
1200,"Điện máy Xanh Tổ dân phố Phố Mới, thị trấn Vĩnh Tuy",huyện Bắc Quang,Hà Giang,104.67212,22.31922,20000
1201,"Điện máy Xanh Tổ dân phố Phú Quý, thị trấn Nông Trường Việt Trung",huyện Bố Trạch,Quảng Bình,106.536677,17.581667,47000
1202,"Điện máy Xanh Tổ dân phố Phú Vinh Trung, TT. Chợ Chùa",H. Nghĩa Hành,Quảng Ngãi,108.77713,15.049222,53000
1203,"Điện máy Xanh Tổ dân phố số 5, TT. Tằng Loỏng",H. Bảo Thắng,Lào Cai,104.12116,22.308738,31000
1204,"Điện máy Xanh Tổ nhân dân Pò Đon, TT. Yến Lạc",H. Na Rì,Bắc Kạn,106.18163,22.234697,23000
1205,"Điện máy Xanh Tổ Xuân Lộc, TT. Xuân Hòa",H. Hà Quảng,Cao Bằng,106.07339,22.902112,21000
1206,"Điện máy Xanh Tòa nhà VNPT, số 1 đường 25/4, P. Bạch Đằng",TP. Hạ Long,Quảng Ninh,107.0848,20.952361,1000
1207,"Điện máy Xanh Trại Mới, Thị Trấn Đại Đình",Huyện Tam Đảo,Vĩnh Phúc,105.5719427,21.4484795,15000
1208,Điện máy Xanh Trung tâm huyện Mường Nhé,huyện Mường Nhé,Điện Biên,102.4609651,22.1914839,32000
1209,Điện máy Xanh TT. Chợ Rã,H. Ba Bể,Bắc Kạn,105.73925,22.457361,23000
1210,Điện máy Xanh TT. Gia Bình,H. Gia Bình,Bắc Ninh,106.16771,21.052849,16000
1211,Điện máy Xanh TT. Thanh Thuỷ,H. Thanh Thuỷ,Phú Thọ,105.28453,21.174287,35000
1212,"Điện máy Xanh X. Đức Lập Thượng, H. Đức Hòa",T. Long An (cách chợ Đức Lập 200m,Long An,106.42083,10.90499,82000
1213,Điện máy Xanh X. Mỹ Hạnh Nam,H. Đức Hòa,Long An,106.5156,10.873585,82000
1214,Điện máy Xanh X. Phú Trạch,H. Bố Trạch,Quảng Bình,106.51629,17.6396,47000
1215,Điện máy Xanh Xã An Bình,huyện Phú Giáo,Bình Dương,106.823917,11.34025,75000
1216,Điện máy Xanh Xã An Mỹ,Huyện Mỹ Đức,Hà Nội,105.6968867,20.7541667,10000
1217,Điện máy Xanh Xã An Thạnh Trung,Huyện Chợ Mới,An Giang,105.5105596,10.4260882,90000
1218,Điện máy Xanh Xã Bá Hiến,huyện Bình Xuyên,Vĩnh Phúc,105.69036,21.31508,15000
1219,Điện máy Xanh Xã Bàu Cạn,Huyện Chư Prông,Gia Lai,107.941872,13.857516,61000
1220,Điện máy Xanh Xã Bình Hiệp,Thị xã Kiến Tường,Long An,105.93069,10.82173,82000
1221,Điện máy Xanh Xã Bình Hòa,Huyện Châu Thành,An Giang,105.343943,10.461182,90000
1222,Điện máy Xanh Xã Bình Lâm,huyện Hiệp Đức,Quảng Nam,108.221578,15.617824,51000
1223,Điện máy Xanh Xã Bưng Riềng,huyện Xuyên Mộc,Bà Rịa - Vũng Tàu,107.399721,10.535569,78000
1224,Điện máy Xanh Xã Cẩm Sơn,huyện Mỏ Cày Nam,Bến Tre,106.333738,10.128916,86000
1225,Điện máy Xanh Xã Cô Tô,Huyện Tri Tôn,An Giang,105.015987,10.364111,90000
1226,Điện máy Xanh Xã Đại Hiệp,Huyện Đại Lộc,Quảng Nam,108.12959,15.925344,51000
1227,Điện máy Xanh Xã Đại Minh,Huyện Đại Lộc,Quảng Nam,108.067194,15.84979,51000
1228,Điện máy Xanh Xã Điềm Thuỵ,huyện Phú Bình,Thái Nguyên,105.919505,21.472245,24000
1229,Điện máy Xanh Xã Điện Phước,huyện Điện Bàn,Quảng Nam,108.184555,15.885202,51000
1230,Điện máy Xanh Xã Đốc Binh Kiều,huyện Tháp Mười,Đồng Tháp,105.909278,10.517472,81000
1231,Điện máy Xanh Xã Đồng Kho,huyện Tánh Linh,Bình Thuận,107.724333,11.139167,77000
1232,Điện máy Xanh Xã Duy Nghĩa,Huyện Duy Xuyên,Quảng Nam,108.277079,15.83869,51000
1233,Điện máy Xanh Xã Ea Kiết,Huyện Cư M’gar,Đắk Lắk,108.02136,12.94108,63000
1234,Điện máy Xanh Xã Ea Rốk,huyện Ea Súp,Đắk Lắk,107.885521,13.068192,63000
1235,Điện máy Xanh Xã Ea Wy,huyện Ea H’leo,Đắk Lắk,108.211428,13.203091,63000
1236,Điện máy Xanh Xã Gia An,huyện Tánh Linh,Bình Thuận,107.6217152,11.1520116,77000
1237,Điện máy Xanh Xã Gia Hiệp,huyện Di Linh,Lâm Đồng,108.182139,11.627694,66000
1238,"Điện máy Xanh Xã Hiệp Thành, thị xã Bạc Liêu, tỉnh Bạc Liêu (Nay là phường Nhà Mát",thành phố Bạc Liêu,Bạc Liêu,105.72595,9.286002,97000
1239,Điện máy Xanh Xã Hòa Bình,Huyện Chợ Mới,An Giang,105.456945,10.391384,90000
1240,Điện máy Xanh Xã Hòa Hậu,Huyện Lý Nhân,Hà Nam,106.167283,20.474265,18000
1241,Điện máy Xanh Xã Hòa Hiệp,Huyện Xuyên Mộc,Bà Rịa - Vũng Tàu,107.50195,10.689982,78000
1242,Điện máy Xanh Xã Hòa Lạc,Huyện Phú Tân,An Giang,105.216616,10.666263,90000
1243,Điện máy Xanh Xã Hòa Sơn,Huyện Hòa Vang,Đà Nẵng,108.10711,16.06868,50000
1244,Điện máy Xanh Xã Hoàng Đan,huyện Tam Dương,Vĩnh Phúc,105.504367,21.333725,15000
1245,Điện máy Xanh Xã Hưng Đạo,Huyện Tứ Kỳ,Hải Dương,106.3746,20.85779,3000
1246,Điện máy Xanh Xã Hưng Điền B,huyện Tân Hưng,Long An,105.660107,10.835218,82000
1247,Điện máy Xanh Xã Kha Sơn,huyện Phú Bình,Thái Nguyên,105.98643,21.41766,24000
1248,Điện máy Xanh Xã Khánh Hưng,huyện Vĩnh Hưng,Long An,105.782643,10.891896,82000
1249,Điện máy Xanh Xã Lộc Thành,Huyện Bảo Lâm,Lâm Đồng,107.834376,11.449925,66000
1250,Điện máy Xanh Xã Long Giang,Huyện Chợ Mới,An Giang,105.4481811,10.4586818,90000
1251,Điện máy Xanh Xã Long Tân,huyện Đất Đỏ,Bà Rịa - Vũng Tàu,107.270413,10.48959,78000
1252,Điện máy Xanh Xã Lũng Hòa,Huyện Vĩnh Tường,Vĩnh Phúc,105.46624,21.279262,15000
1253,Điện máy Xanh Xã Lương An Trà,Huyện Tri Tôn,An Giang,104.902772,10.409582,90000
1254,Điện máy Xanh Xã Lương Quới,Huyện Giồng Trôm,Bến Tre,106.48029,10.198639,86000
1255,Điện máy Xanh Xã Lương Sơn,huyện Bắc Bình,Bình Thuận,108.364611,11.192637,77000
1256,Điện máy Xanh Xã Mê Pu,huyện Đức Linh,Bình Thuận,107.641226,11.2569,77000
1257,Điện máy Xanh Xã Mỹ Thạnh An,Thành phố Bến Tre,Bến Tre,106.3642564,10.2234201,86000
1258,Điện máy Xanh Xã Nghĩa Hoà,huyện Tư Nghĩa,Quảng Ngãi,108.87581,15.09744,53000
1259,Điện máy Xanh Xã Nguyên Giáp,huyện Tứ Kỳ,Hải Dương,106.491167,20.76067,3000
1260,Điện máy Xanh Xã Nguyệt Đức,huyện Yên Lạc,Vĩnh Phúc,105.61294,21.209069,15000
1261,Điện máy Xanh Xã Ninh Dân,huyện Thanh Ba,Phú Thọ,105.142364,21.496684,35000
1262,Điện máy Xanh Xã Phú Hưng,Huyện Phú Tân,An Giang,105.309944,10.592056,90000
1263,Điện máy Xanh Xã Phúc Trạch,huyện Bố Trạch,Quảng Bình,106.276741,17.646074,47000
1264,Điện máy Xanh Xã Phước Đông,huyện Cần Đước,Long An,106.623266,10.488099,82000
1265,Điện máy Xanh Xã phước Hòa,huyện Phú Giáo,Bình Dương,106.79457,11.294749,75000
1266,Điện máy Xanh Xã Phước Vân,Huyện Cần Đước,Long An,106.537796,10.590801,82000
1267,Điện máy Xanh Xã Quang Minh,huyện Bắc Quang,Hà Giang,104.805916,22.414438,20000
1268,Điện máy Xanh Xã Sơn Bình,huyện Châu Đức,Bà Rịa - Vũng Tàu,107.329306,10.647278,78000
1269,Điện máy Xanh Xã Sơn Đông,Tp Bến Tre,Bến Tre,106.359674,10.256435,86000
1270,Điện máy Xanh Xã Suối Nghệ,Huyện Châu Đức,Bà Rịa - Vũng Tàu,107.208632,10.589299,78000
1271,Điện máy Xanh Xã Tà Đảnh,huyện Tri Tôn,An Giang,105.110475,10.435467,90000
1272,Điện máy Xanh Xã Tam Hiệp,Huyện Phúc Thọ,Hà Nội,105.62302,21.0823,10000
1273,Điện máy Xanh Xã Tam Sơn (Nay là Thị trấn Tam Sơn),huyện Lập Thạch ( nay là Huyện Sông Lô ),Vĩnh Phúc,105.402019,21.417328,15000
1274,Điện máy Xanh Xã Tam Sơn (Nay là Thị trấn Tam Sơn),huyện Lập Thạch ( nay là Huyện Sông Lô ),Vĩnh Phúc,105.402019,21.417328,15000
1275,Điện máy Xanh Xã Tân Hòa,Huyện Phú Tân,An Giang,105.354478,10.597762,90000
1276,Điện máy Xanh Xã Tân Hương,Huyện Ninh Giang,Hải Dương,106.370456,20.7709691,3000
1277,Điện máy Xanh Xã Tân Mỹ,huyện Đức Hoà,Long An,106.364887,10.942597,82000
1278,Điện máy Xanh Xã Tân Quang,huyện Bắc Quang,Hà Giang,104.8748311,22.4925623,20000
1279,Điện máy Xanh Xã Tân Thắng,huyện Hàm Tân,Bình Thuận,107.63474,10.611195,77000
1280,Điện máy Xanh Xã Tân Thạnh,Thị xã Tân Châu,An Giang,105.1842494,10.8406608,90000
1281,Điện máy Xanh Xã Thạch Châu,Huyện Lộc Hà,Hà Tĩnh,105.895632,18.441378,45000
1282,Điện máy Xanh Xã Thanh Phú,Huyện Bến Lức,Long An,106.512167,10.666113,82000
1283,Điện máy Xanh Xã Thạnh Phước,Huyện Bình Đại,Bến Tre,106.695916,10.110858,86000
1284,Điện máy Xanh Xã Thanh Quang,huyện Nam Sách,Hải Dương,106.335192,20.986889,3000
1285,Điện máy Xanh Xã Thới Lai,huyện Bình Đại,Bến Tre,106.691314,10.188724,86000
1286,Điện máy Xanh Xã Tiên Thọ,huyện Tiên Phước,Quảng Nam,108.303348,15.490197,51000
1287,Điện máy Xanh Xã Tịnh Bắc,Huyện Sơn Tịnh,Quảng Ngãi,108.66683,15.17225,53000
1288,Điện máy Xanh Xã Trà Mai,Huyện Nam Trà My,Quảng Nam,108.12242,15.148154,51000
1289,Điện máy Xanh Xã Trung Môn,huyện Yên Sơn,Tuyên Quang,105.17228,21.8322163,22000
1290,Điện máy Xanh Xã Tú Sơn,Huyện Kim Bôi,Hòa Bình,105.534776,20.67297,36000
1291,Điện máy Xanh Xã Tứ Xã,huyện Lâm Thao,Phú Thọ,105.286394,21.318258,35000
1292,Điện máy Xanh Xã Vân Tùng,huyện Ngân Sơn,Bắc Kạn,105.99639,22.429783,23000
1293,Điện máy Xanh Xã Vĩnh Tân,Thị xã Tân Uyên,Bình Dương,106.704931,11.126108,75000
1294,Điện máy Xanh Xã Vĩnh Thới,huyện Lai Vung,Đồng Tháp,105.660602,10.28655,81000
1295,Điện máy Xanh Xã Yên Lãng,Huyện Đại Từ,Thái Nguyên,105.516462,21.686623,24000
1296,Điện máy Xanh Xã Yên Nam,huyện Duy Tiên,Hà Nam,105.9790808,20.6030443,18000
1297,"Điện máy Xanh Xóm 10, Thôn Bùi Xá, Xã Minh Lãng, Huyện Vũ Thư",Tỉnh Thái Bình,Thái Bình,106.290358,20.434184,6000
1298,"Điện máy Xanh Xóm 2, thôn Long Phú, xã Hòa Thạch",huyện Quốc Oai,Hà Nội,105.55371,20.944146,10000
1299,"Điện máy Xanh Xóm 2, thôn Quỳnh Đô, Xã Vĩnh Quỳnh",Huyện Thanh Trì,Hà Nội,105.83955,20.93802,10000
1300,"Điện máy Xanh Xóm 2, thôn Quỳnh Đô, Xã Vĩnh Quỳnh",Huyện Thanh Trì,Hà Nội,105.83955,20.93802,10000
1301,"Điện máy Xanh Xóm 3, thôn Hội Xá, xã Hương Sơn",huyện Mỹ Đức,Hà Nội,105.78448,20.616784,10000
1302,"Điện máy Xanh Xóm 5, Thị Trấn Thông Nông",Huyện Hà Quảng,Cao Bằng,105.9833134,22.7844367,21000
1303,"Điện máy Xanh Xóm 6, xã Phúc Lâm",huyện Mỹ Đức,Hà Nội,105.70691,20.808625,10000
1304,"Điện máy Xanh Xóm 8, Xã Kỳ Phong",Huyện Kỳ Anh,Hà Tĩnh,106.167802,18.197862,45000
1305,"Điện máy Xanh Xóm Cầu, Xã Hồng Minh",Huyện Phú Xuyên,Hà Nội,105.8230853,20.7931618,10000
1306,"Điện máy Xanh Xóm Đồng Xuân, Xã Tiên Phong, Thị xã Phổ Yên",Tỉnh Thái Nguyên,Thái Nguyên,105.883417,21.41307,24000
1307,Điện máy Xanh Xóm Giữa Non,xã Thanh Lưu,Hà Nam,105.9530795,20.4741544,18000
1308,"Điện máy Xanh Xóm Thành Tâm, xã Đồng Văn",Huyện Đồng Văn,Hà Giang,105.364295,23.277016,20000
1309,"Điện máy Xanh Xóm Trung Tâm, xã Minh Tiến",huyện Đại Từ,Thái Nguyên,105.640161,21.631935,24000
1310,"ĐT 741, Thị Trấn Tân Phú",Huyện Đồng Phú,Bình Phước,106.8692569,11.4461902,67000
1311,"ĐT427, X. Văn Bình, H. Thường Tín",TP. Hà Nội (cách Cầu Dừa 100m,Hà Nội,105.86817,20.87177,10000
1312,"Dự án The City Light (Tòa nhà Chung cư), P. Khai Quang",TP. Vĩnh Yên,Vĩnh Phúc,105.6227722,21.3155696,15000
1313,"Đường DT 746, KP. Long Bình, P. Khánh Bình",TX. Tân Uyên,Bình Dương,106.7528,11.049501,75000
1314,"Đường DT 835, Ấp 5, X. Phước Lợi",H. Bến Lức,Long An,106.5367428,10.6356516,82000
1315,"Đường DT 839, KP. 3, TT. Đông Thành",H. Đức Huệ,Long An,106.3082778,10.8987987,82000
1316,"Đường Hùng Vương, P.An Thạnh",Thị xã Hồng Ngự,Đồng Tháp,105.3414577,10.807954,81000
1317,"Đường Hùng Vương, TK 1, TT.Hoàn Lão",H.Bố Trạch,Quảng Bình,106.53672,17.580257,47000
1318,"Đường Kiêu Kỵ, Thôn Trung Dương, Xã Kiêu Kỵ",Huyện Gia Lâm,Hà Nội,105.96006,20.983438,10000
1319,"Đường Nguyễn Trung Trực, Khu Phố 3, TT. Thạnh Hóa",H. Thạnh Hóa,Long An,106.18183,10.658024,82000
1320,"Đường Phạm Hùng, P. Hòa Xuân",Q. Cẩm Lệ,Đà Nẵng,108.20813,15.982704,50000
1321,"Đường Quốc lộ 13, Ấp 5, TT. Tân Khai",H. Hớn Quản,Bình Phước,106.6160874,11.550891,67000
1322,"Đường Quốc lộ 2C, Phố Me, Thị Trấn Hợp Hòa",H.Tam Dương,Vĩnh Phúc,105.53991,21.381407,15000
1323,"Đường Tiểu La, Thị Trấn Hà Lam",Huyện Thăng Bình,Quảng Nam,108.35882,15.7422,51000
1324,"Đường Trần Nhân Tông, P. Vĩnh Điện",TT. Điện Bàn,Quảng Nam,108.2455015,15.894981,51000
1325,"Khối 3, TT. Xuân An",H. Nghi Xuân,Hà Tĩnh,105.71609,18.642077,45000
1326,"Khối Tân Thủy, Thị trấn Tuần Giáo, Huyện Tuần Giáo",Tỉnh Điện Biên,Điện Biên,103.4219493,21.5899057,32000
1327,"Khóm 1, TT. Lai Vung",H. Lai Vung,Đồng Tháp,105.65947,10.289137,81000
1329,"Khu 1, thị trấn Than Uyên",huyện Than Uyên,Lai Châu,103.88286,21.950425,30000
1330,"Khu 10, TT. Mường Tè",H. Mường Tè,Lai Châu,102.80206,22.383832,30000
1331,"Khu 13, xã Cổ Tiết",H. Tam Nông,Phú Thọ,105.25693,21.284011,35000
1332,"Khu 2, thị trấn Pác Miầu",H. Bảo Lâm,Cao Bằng,105.49343,22.830038,21000
1333,"Khu 2, thị trấn Thắng",huyện Hiệp Hoà,Bắc Giang,105.978537,21.356146,26000
1334,"Khu 3, Thị trấn Mãn Đức, Huyện Tân Lạc",Tỉnh Hòa Bình,Hòa Bình,105.278695,20.61484,36000
1335,"Khu 5, TT.Ái Nghĩa",H.Đại Lộc,Quảng Nam,108.12085,15.881821,51000
1336,"Khu 5, TT.Thắng",H.Hiệp Hòa,Bắc Giang,105.98311,21.357232,26000
1337,"Khu 6, thị trấn Diêm Điền",huyện Thái Thụy,Thái Bình,106.56739,20.560951,6000
1338,"Khu 8, Thị Trấn Hạ Hòa",Huyện Hạ Hòa,Phú Thọ,105.003467,21.561302,35000
1339,"Khu 9, TT. Sông Thao",H. Cẩm Khê,Phú Thọ,105.13281,21.42205,35000
1340,"Khu Bắc Ka Long, P. Ninh Dương",Tp. Móng Cái,Quảng Ninh,107.95148,21.534673,1000
1341,"Khu Đường Nam, TT. Phong Châu",H. Phù Ninh,Phú Thọ,105.3133,21.407194,35000
1342,"Khu Lê Lợi, TT.Chũ",H.Lục Ngạn,Bắc Giang,106.56685,21.372428,26000
1343,"Khu nhà ở Dabaco, Đường Âu Cơ, Thị Trấn Hồ",H.Thuận Thành,Bắc Ninh,106.08729,21.053836,16000
1344,"Khu Nhân Cầu 2, TT. Hưng Hà",H. Hưng Hà,Thái Bình,106.22492,20.589772,6000
1345,"Khu phố 1, Thị Trấn Hương Canh",Huyện Bình Xuyên,Vĩnh Phúc,105.647358,21.277759,15000
1346,"Khu phố 2, TT. Ba Tri",H. Ba Tri,Bến Tre,106.587858,10.045597,86000
1347,"Khu phố 2, TT.Cần Giuộc",H.Cần Giuộc,Long An,106.67123,10.607026,82000
1348,"Khu phố 6, TT. Yên Thế",H. Lục Yên,Yên Bái,104.76855,22.112535,33000
1349,"Khu phố Tân Bình, thị trấn Tân Trụ",huyện Tân trụ,Long An,106.518873,10.519226,82000
1350,"Khu phố Xuân Mai, Thị Trấn Xuân Mai",Huyện Chương Mỹ,Hà Nội,105.57914,20.902432,10000
1351,"Khu Phố, TT. Thanh Thuỷ",H. Thanh Thuỷ,Phú Thọ,105.28429,21.174378,35000
1352,"Khu Phố, xã Sơn Thịnh",H. Văn Chấn,Yên Bái,104.59503,21.562726,33000
1353,"Khu Tân An 4, TT. Yên Lập",H. Yên Lập,Phú Thọ,105.05839,21.351235,35000
1354,"khu Tân Thành, Thị Trấn Đoan Hùng",Huyện Đoan Hùng,Phú Thọ,105.18438,21.625201,35000
1355,"Khu Trạo Hà, P. Đức Chính",thị xã Đông Triều,Quảng Ninh,106.51751,21.078839,1000
1356,"Khu TTTM Co.op Mart Đồng Xoài, đường Phú Riềng Đỏ, P.Tân Bình",TX.Đồng Xoài,Bình Phước,106.89771,11.532629,67000
1357,"Khu Vĩnh Thông,TT.Mạo Khê",H.Đông Triều,Quảng Ninh,106.59815,21.056663,1000
1358,"Lô CC1, Khu TMDV và Tái định cư Mỹ Phước, P. Mỹ Phước",TX. Bến Cát,Bình Dương,106.60601,11.130159,75000
1359,"Ngã 3 đường mới, xóm Chùa, thôn Tự Khoát, xã Ngũ Hiệp",huyện Thanh Trì,Hà Nội,105.8553,20.924279,10000
1360,"Ngã 3 Tân Đức, Tỉnh Lộ 10",H.Đức Hòa,Long An,106.4753348,10.8114765,82000
1361,"Ngã 6 phố Lý Công Uẩn, P. Kim Tân",TP. Lào Cai,Lào Cai,103.97475,22.480542,31000
1362,"Nguyễn Hữu Cảnh, ấp Long Hòa, TT. Chợ Mới",H. Chợ Mới,An Giang,105.40352,10.547546,90000
1363,"Nguyễn Sinh Sắc, Phường 01",TP. Sa Đéc,Đồng Tháp,105.75785,10.290427,81000
1364,"Phố Chợ 1, Thị trấn Hùng Sơn",Huyện Đại Từ,Thái Nguyên,105.64113,21.631161,24000
1365,"Phố Chờ, TT.Chờ",H.Yên Phong,Bắc Ninh,105.95568,21.193943,16000
1366,"Phố Hòa Nam, TT. Quảng Uyên",H. Quảng Uyên,Cao Bằng,106.44272,22.689502,21000
1367,"Phố Mới, TT. Thổ Tang",H. Vĩnh Tường,Vĩnh Phúc,105.48956,21.259997,15000
1368,"Phố Nỉ, xã Trung Giã",H. Sóc Sơn,Hà Nội,105.86714,21.311684,10000
1369,"Phố Tân Hoà, TT. Nhã Nam",H. Tân Yên,Bắc Giang,106.09789,21.442983,26000
1370,"Phố Thanh Xuân, TT.Đồi Ngô",H.Lục Nam,Bắc Giang,106.38337,21.301393,26000
1371,Phường 11,TP. Cao Lãnh,Đồng Tháp,105.58007,10.486331,81000
1372,Phường Bảo An,TP. Phan Rang – Tháp Chàm,Ninh Thuận,108.9506605,11.5941,59000
1373,Phường Chăm Mát,Tp. Hòa Bình,Hòa Bình,105.34158,20.791052,36000
1374,"QL 50, KP. Kim Diền, TT. Cần Giuộc",H. Cần Giuộc,Long An,106.6640272,10.6245732,82000
1375,"Quốc lộ 03, tổ 16, TT. Đông Anh",H. Đông Anh,Hà Nội,105.8466,21.163336,10000
1376,"Quốc lộ 18, tổ 4, khu 7, P. Hồng Hà, TP. Hạ Long",T. Quảng Ninh (ngã 3 Cầu Trắng,Quảng Ninh,107.13408,20.951146,1000
1377,"Quốc Lộ 1A, P.Hai Bà Trưng",TP.Phủ Lý,Hà Nam,105.91248,20.537738,18000
1378,"Quốc Lộ 26 ,Tổ dân phố 2, thị trấn M'đrăk ",huyện M'đrăk ,Đắk Lắk,108.73834,12.753378,63000
1379,"Quốc Lộ 279 bản Lâm Sản, xã Bảo Hà",H. Bảo Yên,Lào Cai,104.35376,22.173583,31000
1380,"Quốc Lộ 50, TT.Cần Đước",H.Cần Đước,Long An,106.60485,10.504593,82000
1381,"Quốc Lộ 51, ấp Thị Vải, xã Mỹ Xuân",huyện Tân Thành,Bà Rịa - Vũng Tàu,107.054752,10.623574,78000
1382,"Quốc Lộ 91, ấp Bình Hòa, TT.Cái Dầu",H.Châu Phú,An Giang,105.24335,10.568969,90000
1383,"Số 01 Hoàng Diệu, P. Nam Lý",Tp. Đồng Hới,Quảng Bình,106.59817,17.465926,47000
1384,"Số 02, đường Hoàng Văn Thái, tổ 15, P. Trần Lãm",TP.Thái Bình,Thái Bình,106.35637,20.441336,6000
1385,"Số 03, quốc lộ 1A, TT.Hòa Bình",H.Hòa Bình,Bạc Liêu,105.62593,9.279627,97000
1386,"Số 041, đường Phai Khắt Nà Ngần, P.Sông Hiến",TP.Cao Bằng,Cao Bằng,106.25396,22.666537,21000
1387,"Số 09 Đường Giải Phóng, phường Đồng Tâm",Hai Bà Trưng,Hà Nội,105.84154,21.004988,10000
1388,"Số 1 - 3, Tổ 9, P. Xuân Khanh",TX. Sơn Tây,Hà Nội,105.44606,21.109467,10000
1389,"Số 1 đường Trần Hưng Đạo, khóm Long Thạnh A, thành phố Tân Châu",thị xã Tân Châu,An Giang,105.25238,10.798349,90000
1390,"số 1 Kim Đồng, Phường Hợp Giang",TP.Cao Bằng,Cao Bằng,106.2611764,22.6655414,21000
1391,"Số 1 Mê Linh, Phường Liên Bảo",Thành phố Vĩnh Yên,Vĩnh Phúc,105.597866,21.313646,15000
1392,"Số 1 Phố Chùa Hà, Xã Định Trung",TP.Vĩnh Yên,Vĩnh Phúc,105.59874,21.321766,15000
1393,"Số 1 Quang Trung, Tố 1, P.Quang Trung",TP.Thái Bình,Thái Bình,106.3375242,20.4441404,6000
1394,"Số 1 Xuân Đỉnh, P.Đông Xuân Tảo",Q.Bắc Từ Liêm,Hà Nội,105.80211,21.069233,10000
1395,"Số 1, đường Lê Duẩn, P. Điện Biên",Q. Ba Đình,Hà Nội,105.84168,21.029269,10000
1396,"Số 1, đường Lê Duẩn, P. Điện Biên",Q. Ba Đình,Hà Nội,105.84168,21.029269,10000
1397,"Số 1, Đường Trần Phú, P.Trần Phú",TP.Móng Cái,Quảng Ninh,107.97197,21.532592,1000
1398,"Số 1, ngõ 168 phố Hào Nam, P. Ô Chợ Dừa",Q. Đống Đa,Hà Nội,105.82799,21.026738,10000
1399,"Số 1, ngõ 168 phố Hào Nam, P. Ô Chợ Dừa",Q. Đống Đa,Hà Nội,105.82799,21.026738,10000
1400,"Số 1, phố Huyện, TT. Quốc Oai",H. Quốc Oai,Hà Nội,105.64248,20.991845,10000
1401,"Số 1, phố Quán Gánh, xã Nhị Khê",H. Thường Tín,Hà Nội,105.85567,20.894401,10000
1402,"Số 100 đường Bình Đường , P. An Bình",Tx. Dĩ An,Bình Dương,106.75578,10.870104,75000
1403,"Số 100 phố Đội Cấn, P.Đội Cấn",Q.Ba Đình,Hà Nội,105.82859,21.034553,10000
1404,"Số 101, Đường Cách Mạng Tháng Tám, Tổ 10, Phường Thắng Lợi, Thành phố Sông Công",Tỉnh Thái Nguyên,Thái Nguyên,105.84249,21.471314,24000
1405,"Số 103, đường Ngô Xuân Quảng, TT. Trâu Quỳ",H. Gia Lâm,Hà Nội,105.93713,21.018263,10000
1406,"Số 104 đường Bình Sơn, TT. Chúc Sơn",H. Chương Mỹ,Hà Nội,105.70199,20.917898,10000
1407,"Số 104 đường Bình Sơn, TT. Chúc Sơn",H. Chương Mỹ,Hà Nội,105.70199,20.917898,10000
1408,"Số 105B, Đường Thống Nhất",P Tân Tập,Thái Nguyên,105.82944,21.575415,24000
1409,"Số 108 Lạc Long Quân, P.Trần Quang Diệu",TP.Quy Nhơn,Bình Định,109.1474962,13.7950311,55000
1410,"Số 109 - 111 Phố Ga, Thôn Đỗ Xá, Xã Vạn Điểm",Huyện Thường Tín,Hà Nội,105.90144,20.771563,10000
1411,"Số 11, đường 6 tháng 1, P.Long Thủy",thị xã Phước Long,Bình Phước,106.9941,11.840917,67000
1412,"Số 111 Xuân Diệu, phường Quảng An",quận Tây Hồ,Hà Nội,105.82609,21.068461,10000
1413,"Số 111, đường Nguyễn Trung Trực, khóm 1, P. 1",TP. Tân An,Long An,106.41329,10.537495,82000
1414,"Số 1126B, đường DT 747, P. Thái Hòa",thị xã Tân Uyên,Bình Dương,106.75468,10.976528,75000
1415,"Số 113 Nguyễn Huệ, KP Phú Trung, Phường Phú Thịnh",Thị Xã Bình Long,Bình Phước,106.60764,11.649765,67000
1416,"Số 115 - 117 Trần Hưng Đạo, thị trấn Vĩnh Trụ",huyện Lý Nhân,Hà Nam,106.03166,20.559868,18000
1417,"Số 116, Đường 3 tháng 2",P.5,Lâm Đồng,108.431559,11.940849,66000
1418,"Số 120 đường Lê Lợi, P. Lê Lợi",Tp. Quy Nhơn,Bình Định,109.23217,13.774618,55000
1419,"Số 123 Lô M, khu dân cư Thương mại Uyên Hưng, phường Uyên Hưng",thị xã Tân Uyên,Bình Dương,106.79723,11.061523,75000
1420,"Số 124 Phố Xốm, Phường Phú Lãm",Q. Hà Đông,Hà Nội,105.75651,20.943582,10000
1421,"Số 127 Đường 19/5, Khóm 1, Phường 1",TX. Duyên Hải,Trà Vinh,106.4945119,9.635317,87000
1422,"Số 1-3 đường Hùng Vương, tổ dân phố 2, P.Ngô Quyền",Tp.Bắc Giang,Bắc Giang,106.19784,21.281967,26000
1423,"Số 13-15 phố Lê Lợi, P.Quảng Yên",TX.Quảng Yên,Quảng Ninh,106.8016,20.938574,1000
1424,"Số 134, Phố Phùng Khắc Khoan, P.Quang Trung",TX.Sơn Tây,Hà Nội,105.51109,21.132733,10000
1425,"Số 136 Trường Chinh, P.Đồng Xuân",TX.Phúc Yên,Vĩnh Phúc,105.72977,21.277999,15000
1426,"Số 136 Trường Chinh, P.Đồng Xuân",TX.Phúc Yên,Vĩnh Phúc,105.72977,21.277999,15000
1427,"Số 1375 đường Giải Phóng, P. Hoàng Liệt",Q. Hoàng Mai,Hà Nội,105.84206,20.96685,10000
1428,"Số 138-140, Tổ dân phố 2, TT.Kim Bài",H.Thanh Oai,Hà Nội,105.76816,20.854137,10000
1429,"Số 1462, Đại lộ Hùng Vương, P. Tiên Cát",TP. Việt Trì,Phú Thọ,105.3949,21.313567,35000
1430,"Số 15 – 17, Ngõ 626 Đường Bưởi, P. Cống Vi",Q. Ba Đình,Hà Nội,105.8064042,21.0470909,10000
1431,"Số 151 đường Quang Trung, TT. Bồng Sơn",H. Hoài Nhơn,Bình Định,109.01729,14.432952,55000
1432,"Số 153 Tôn Đức Thắng, P. Phú Thủy",Phan Thiết,Bình Thuận,108.11103,10.933036,77000
1433,"Số 154, Tổ 6, Khu 7, Huỳnh Văn Lũy, P.Phú Lợi",TP.Thủ Dầu Một,Bình Dương,106.6739,10.990754,75000
1434,"Số 156, Đường ĐT 747, Tổ 4, Ấp 1, X. Hội Nghĩa",TX. Tân Uyên,Bình Dương,106.76706,11.100311,75000
1435,"Số 159, Đường Hùng Vương, Tổ 02, TT. Buôn Trấp",H. Krông Ana,Đắk Lắk,108.0305051,12.4856734,63000
1436,"Số 159-161, Đường 825, Ô 6, Khu B, TT.Hậu Nghĩa",H.Đức Hòa,Long An,106.39291,10.894538,82000
1437,"Số 16 Lê Hồng Phong, phường Tân Tiến",thành phố Buôn Ma Thuột,Đắk Lắk,108.0393,12.678988,63000
1438,"Số 160 Trần Phú, P.Bình Định",TX.An Nhơn,Bình Định,109.11293,13.888287,55000
1439,"Số 161A-163-163A Phú Lợi, P. Phú Lợi",TP. Thủ Dầu Một,Bình Dương,106.67269,10.982418,75000
1440,"Số 163, quốc lộ 62, P. 06",TP. Tân An,Long An,106.39507,10.543648,82000
1441,"Số 163, quốc lộ 62, P. 06",TP. Tân An,Long An,106.39507,10.543648,82000
1442,"Số 17, phố Trần Phú, P.Đông Ngàn",TX.Từ Sơn,Bắc Ninh,105.9637,21.119816,16000
1443,"Số 171 Đinh Tiên Hoàng, P. Trần Hưng Đạo",TP. Phủ Lý,Hà Nam,105.91761,20.531911,18000
1444,"Số 18 đường Phan Chu Trinh, P. 09",TP. Đà Lạt,Lâm Đồng,108.46489,11.949946,66000
1445,"Số 18 Đường Sơn Đông, Khu Sơn Đông, Phường Nam Sơn, Thành phố Bắc Ninh",Tỉnh Bắc Ninh,Bắc Ninh,106.1144656,21.149031,16000
1446,"Số 18-20-22 đường 32, Phố Vàng, TT.Thanh Sơn",H.Thanh Sơn,Phú Thọ,105.17974,21.211644,35000
1447,"Số 186 đường Vạn Phúc, P. Vạn Phúc",Q. Hà Đông,Hà Nội,105.7704969,20.9824877,10000
1448,"Số 188 - 190 Phố Ga, TT.Thường Tín",H.Thường Tín,Hà Nội,105.86475,20.871415,10000
1449,"Số 190 Đường 30/04, phường Chánh Nghĩa",Thành Phố Thủ Dầu Một,Bình Dương,106.67123,10.972185,75000
1450,"Số 191-193, Tỉnh Lộ 942, Ấp Thị 2, Thị Trấn Mỹ Luông",Huyện Chợ Mới,An Giang,105.48979,10.508174,90000
1451,"Số 192 - 194 Nguyễn Thanh Đằng, khu phố 5, P. Phước Hiệp",TP. Bà Rịa,Bà Rịa - Vũng Tàu,107.17279,10.499241,78000
1452,"Số 193 - 195 đường Cầu Diễn , Phường Phúc Diễn ",Quận Bắc Từ Liêm ,Hà Nội,105.74865,21.046302,10000
1453,"Số 2 - 4 - 8 đường Cầu Diễn, Phường Phú Diễn, Quận Bắc Từ Liêm",Thành phố Hà Nội,Hà Nội,105.761212,21.0421935,10000
1454,"Số 2 - 4, thôn Thạch Lỗi, xã Thanh Xuân",H. Sóc Sơn,Hà Nội,105.77107,21.220853,10000
1455,"Số 2 đường Nguyễn Du, KP. 5, P. Phú Cường",TP. Thủ Dầu Một,Bình Dương,106.6544,10.980447,75000
1456,"Số 2 đường Thạch Bàn, phường Thạch Bàn",quận Long Biên,Hà Nội,105.9131,21.02994,10000
1457,"Số 2, đường Độc Lập, KP 2, TT. Phước Vĩnh",huyện Phú Giáo,Bình Dương,106.79305,11.288468,75000
1458,"Số 2, Đường Lê Đại Hành, P.01",TP.Đà Lạt,Lâm Đồng,108.43722,11.940275,66000
1459,"Số 2, phố Chu Văn An, TT. Quảng Hà",H. Hải Hà,Quảng Ninh,107.75364,21.452612,1000
1460,"Số 2/123 (ngã tư Đất Thánh) KP Hòa Lân 2, P. Thuận Giao",TX. Thuận An,Bình Dương,106.70604,10.95104,75000
1461,"Số 2/123 (ngã tư Đất Thánh) KP Hòa Lân 2, P. Thuận Giao",TX. Thuận An,Bình Dương,106.70604,10.95104,75000
1462,"Số 20 đường Trần Phú, TT. Lộc Thắng",H. Bảo Lâm,Lâm Đồng,107.83982,11.627044,66000
1463,"Số 20 Trần Phú, Phường 1",TP. Sa Đéc,Đồng Tháp,105.76462,10.296829,81000
1464,"Số 200, khu phố Thạnh Hòa A, P. An Thạnh",TX. Thuận An,Bình Dương,106.6895,10.946454,75000
1465,"Số 202, Đường Nguyễn Tất Thành, Tổ Dân Phố 05, Thị Trấn Krông Kmar",Huyện Krông Bông,Đắk Lắk,108.33856,12.50884,63000
1466,"Số 205 đường Quang Trung, TT. Phù Mỹ",H. Phù Mỹ,Bình Định,109.05134,14.175328,55000
1467,"Số 205 Trung Kính, Phường Yên Hòa",Quận Cầu Giấy,Hà Nội,105.79269,21.018513,10000
1468,"Số 209 Đường Trần Phú, P.Cẩm Tây",TP.Cẩm Phả,Quảng Ninh,107.28415,21.012071,1000
1469,"Số 209, Đường 30/4, Khóm 5, Thị Trấn Cầu Kè",Huyện Cầu Kè,Trà Vinh,106.05624,9.8713071,87000
1470,"Số 21 Hoàng Hoa Thám, P. 3",TP. Vũng Tàu,Bà Rịa - Vũng Tàu,107.08057,10.340454,78000
1471,"Số 210 - 212, Nguyễn Văn Cừ, P. Bồ Đề",Q. Long Biên,Hà Nội,105.872821,21.044029,10000
1472,"Số 215 - 217 Trần Phú, P.Lộc Sơn",TP.Bảo Lộc,Lâm Đồng,107.82329,11.535001,66000
1473,Số 22 Tổ 8,Thị Trấn Đông Hưng,Thái Bình,106.35258,20.557056,6000
1474,"Số 220 đường Phan Chu Trinh, Phường Tân Lợi",TP.Buôn Ma Thuột,Đắk Lắk,108.052514,12.69384,63000
1475,"Số 224-224A-224B đường Phan Đình Phùng, P. 02",TP. Đà Lạt,Lâm Đồng,108.43504,11.94985,66000
1476,"Số 23 Nguyễn Văn Thoại, P. An Hải Đông",Q. Sơn Trà,Đà Nẵng,108.23732,16.053642,50000
1477,"Số 230-268-269, Tổ 76, Khu 7, P. Hà Khẩu",TP. Hạ Long,Quảng Ninh,106.99943,20.980681,1000
1478,"Số 233 đường Lĩnh Nam, tổ 27, P. Vĩnh Hưng",Q. Hoàng Mai,Hà Nội,105.87115,20.985081,10000
1479,"Số 248 – 250 – 252, QL. 53, Khóm 3, TT. Càng Long",H. Càng Long,Trà Vinh,106.205285,9.997245,87000
1480,"Số 25 - 27 Đình Thôn, Phường Mỹ Đình 1, Quận Nam Từ Liêm",Thành phố Hà Nội,Hà Nội,105.778344,21.020639,10000
1481,"Số 25 - 27 Đình Thôn, Phường Mỹ Đình 1, Quận Nam Từ Liêm",Thành phố Hà Nội,Hà Nội,105.778344,21.020639,10000
1482,"Số 25/6 Khu Phố Thắng Lợi 2, phường Dĩ An",thị xã Dĩ An,Bình Dương,106.75817,10.907034,75000
1483,"Số 253-254, đường Cách Mạng Tháng 8, TT. Vĩnh Hưng",H. Vĩnh Hưng,Long An,105.78708,10.887888,82000
1484,"Số 261, đường Định Công Thượng, P. Định Công",Q. Hoàng Mai,Hà Nội,105.82357,20.984519,10000
1485,"Số 268, đường 3/2, TT.Đức Tài",H.Đức Linh,Bình Thuận,107.50676,11.149388,77000
1486,"Số 269, đường 3/2, khóm Minh Thuận B, TT. Cầu Ngang",H.Cầu Ngang,Trà Vinh,106.45174,9.7963451,87000
1487,"Số 276 Lý Thường Kiệt, TT. Mậu A",H. Văn Yên,Yên Bái,104.68999,21.877939,33000
1488,"Số 277 Tam Trinh, Phường Hoàng Văn Thụ",Quận Hoàng Mai,Hà Nội,105.86343,20.988192,10000
1489,"Số 280 QL1A, TT. Tam Quan",H. Hoài Nhơn,Bình Định,109.04527,14.553461,55000
1490,"Số 280/1 Quốc Lộ 80, Khóm Bình Thạnh 1, TT.Lấp Vò",H.Lấp Vò,Đồng Tháp,105.52302,10.362627,81000
1491,"Số 281 Đường Quang Trung, Thị Trấn Chư Ty",huyện Đức Cơ,Gia Lai,107.69443,13.800013,61000
1492,"Số 283, đường 3/2, TT. Trà Cú",H. Trà Cú,Trà Vinh,106.26018,9.688557,87000
1493,"Số 286, đường Hai Bà Trưng, P.Hùng Vương",Thị xã Phúc Yên,Vĩnh Phúc,105.70215,21.231189,15000
1494,"Số 30, phố Trần Hưng Đạo, TT.Tây Đằng",Huyện Ba Vì,Hà Nội,105.42337,21.198828,10000
1495,"Số 314 -316 Bùi Thị Xuân, P.2",TP.Đà Lạt,Lâm Đồng,108.44216,11.954304,66000
1496,"Số 315 Đường Hà Huy Tập, TT.Yên Viên",H.Gia Lâm,Hà Nội,105.92323,21.091684,10000
1497,"Số 318 Đường Giáp Hải, P. Dĩnh Kế",TP. Bắc Giang,Bắc Giang,106.22394,21.284378,26000
1498,"Số 32 Lê Duẩn, P.Trà Bá",TP.Pleiku,Gia Lai,108.02128,13.969983,61000
1499,"Số 32, Đường N5-D10, KCN Mỹ Phước 1, P. Thới Hoà",Tx. Bến Cát,Bình Dương,106.60372,11.125262,75000
1500,"Số 320 Đường Trần Hưng Đạo, P.Đại Phúc",TP.Bắc Ninh,Bắc Ninh,106.07362,21.176901,16000
1501,"Số 329 Đường 30/04, P.1",TP.Cao Lãnh,Đồng Tháp,105.62631,10.467493,81000
1502,"Số 33, tổ 3, khu phố Khánh Thạnh, P. Tân Phước Khánh",TX. Tân Uyên,Bình Dương,106.71889,11.004813,75000
1503,"Số 333 Đường Hoàng Liên, P.Cốc Lếu",TP.Lào Cai,Lào Cai,103.96946,22.488883,31000
1504,"Số 339 Trần Cao Vân, P. An Sơn",TP Tam Kỳ,Quảng Nam,108.48854,15.559171,51000
1505,"Số 341 Bắc Kạn, Tổ 14, P.Hoàng Văn Thụ",TP.Thái Nguyên,Thái Nguyên,105.83422,21.598822,24000
1506,"Số 378 đường Trần Phú, khóm 5, phường 7",thành phố Bạc Liêu,Bạc Liêu,105.721432,9.298866,97000
1507,"Số 38 Quốc Lộ 13, Tổ 6, Khu Phố 2, TT.Chơn Thành",H.Chơn Thành,Bình Phước,106.6153,11.418124,67000
1508,"Số 38, Đ. Lê Quang Đạo, P. Phú Đô",Q. Nam Từ Liêm ,Hà Nội,105.76921,21.014064,10000
1509,"Số 387, Quốc lộ 28, khu phố 1, Thị Trấn Ma Lâm, Huyện Hàm Thuận Bắc",Tỉnh Bình Thuận,Bình Thuận,108.129304,11.064599,77000
1510,"Số 391, Quốc Lộ 91, Ấp Hòa Long 1, TT. An Châu",H. Châu Thành,An Giang,105.38712,10.443176,90000
1511,"Số 4 - 6 Phố Thanh Vỵ, P. Sơn Lộc",TX. Sơn Tây,Hà Nội,105.49604,21.116861,10000
1512,"Số 406 Lý Bôn, P. Trần Hưng Đạo",TP.Thái Bình,Thái Bình,106.33545,20.448443,6000
1513,"Số 412 đường Hoàng Hoa Thám, P. Thụy Khuê",Q. Tây Hồ,Hà Nội,105.8144,21.043269,10000
1514,"Số 434 đường Lê Duẩn, khu phố 3, TT. Tân Sơn",H. Ninh Sơn,Ninh Thuận,108.78176,11.778186,59000
1515,"Số 446, đường Đại Mỗ, P. Đại Mỗ",Q. Nam Từ Liêm,Hà Nội,105.75512,20.995519,10000
1516,"Số 45-47 đường Hùng Vương, tổ 4, P. Sông Cầu",TP. Bắc Kạn ,Bắc Kạn,105.83299,22.149645,23000
1517,"Số 466 phố Minh Khai, P. Vĩnh Tuy",Q.Hai Bà Trưng,Hà Nội,105.86813,20.998126,10000
1518,"Số 472 khóm 2, Phường 1",Thị Xã Giá Rai,Bạc Liêu,105.45877,9.2387311,97000
1519,"Số 487 Quang Trung, P.Quang Trung",TP.Uông Bí,Quảng Ninh,106.769852,21.034519,1000
1520,"Số 5 đường Hồ Tùng Mậu, Phường Mai Dịch, Quận Cầu Giấy",Thành phố Hà Nội,Hà Nội,105.7785582,21.0364459,10000
1521,"Số 50 đường Hà Huy Tập, P. Hà Huy Tập",Tp. Hà Tĩnh,Hà Tĩnh,105.89638,18.337406,45000
1522,"Số 50 Nguyễn Huệ, TT. Sa Rài",H. Tân Hồng,Đồng Tháp,105.45098,10.87986,81000
1523,Số 51-53-55 đường Phùng Hưng P.Phúc La,Q.Hà Đông,Hà Nội,105.78419,20.970866,10000
1524,"Số 526 đường Trưng Nữ Vương, P. Hòa Thuận Tây",Q. Hải Châu,Đà Nẵng,108.21357,16.049025,50000
1525,"Số 56 Trần Phú, tổ 4A, P. Tân Phong",TP. Lai Châu,Lai Châu,103.46327,22.394669,30000
1526,"Số 570 đường 30/4, P.Rạch Dừa",TP.Vũng Tàu,Bà Rịa - Vũng Tàu,107.11686,10.399586,78000
1527,"Số 594 - 596 Quốc Lộ 20, KP.8, TT.Liên Nghĩa",H.Đức Trọng,Lâm Đồng,108.36975,11.727436,66000
1528,"Số 6 - 8 Phố Nhổn, Phường Minh Khai",Quận Bắc Từ Liêm,Hà Nội,105.73276,21.054656,10000
1529,"Số 602 đường Phạm Hùng, P. Long Toàn",TP. Bà Rịa,Bà Rịa - Vũng Tàu,107.18762,10.491037,78000
1530,"Số 61 Đốc Binh Kiều (QL62), P.01",TX.Kiến Tường,Long An,105.93814,10.774711,82000
1531,"Số 61 Phạm Văn Đồng, Tổ dân phố 5, P. Ba Hàng",TX. Phổ Yên,Thái Nguyên,105.87277,21.411496,24000
1532,"Số 62-63, TT. Trới",H. Hoành Bồ,Quảng Ninh,106.98795,21.02227,1000
1533,"Số 638 đường Bạch Đằng, Phường Bạch Đằng, Quận Hai Bà Trưng",Thành phố Hà Nội,Hà Nội,105.865444,21.014389,10000
1534,"Số 63A/1, Khu phố 1A, P.An Phú",TX.Thuận An,Bình Dương,106.74155,10.946389,75000
1535,"Số 64-66-68 đường Cao Lỗ, Xã Uy Nỗ",H.Đông Anh,Hà Nội,105.85847,21.138311,10000
1536,"Số 65, đường Phan Trọng Tuệ, xã Tả Thanh Oai",H. Thanh Trì,Hà Nội,105.80699,20.957638,10000
1537,"Số 65, đường Phan Trọng Tuệ, xã Tả Thanh Oai",H. Thanh Trì,Hà Nội,105.80699,20.957638,10000
1538,"Số 72 đường Phạm Hữu Lầu, phường 4",TP Cao Lãnh,Đồng Tháp,105.63099,10.453059,81000
1539,"Số 750 đường Kim Giang, thôn Nội, xã Thanh Liệt",huyện Thanh Trì,Hà Nội,105.81913,20.96477,10000
1540,"Số 750 đường Kim Giang, thôn Nội, xã Thanh Liệt",huyện Thanh Trì,Hà Nội,105.81913,20.96477,10000
1541,"Số 76 đường Trần Phú, P. Trần Phú",Tp. Hà Tĩnh,Hà Tĩnh,105.89243,18.342174,45000
1542,"Số 78, ấp 3, TT. Gành Hào",H. Đông Hải,Bạc Liêu,105.41944,9.026862,97000
1543,"Số 820 Hà Hoàng Hổ, P. Đông Xuyên",TP. Long Xuyên,An Giang,105.43166,10.378006,90000
1544,"Số 83C, Quốc lộ 80, TT.Cái Tàu Hạ",H.Châu Thành,Đồng Tháp,105.87384,10.260033,81000
1545,"Số 84 QL 1A, TT. Phước Dân",H. Ninh Phước,Ninh Thuận,108.92749,11.524232,59000
1546,"Số 84-86, phố Lê Đồng, P.Âu Cơ",TX.Phú Thọ,Phú Thọ,105.21993,21.397117,35000
1547,"Số 87 đường Tân Xuân,Phường Xuân Đỉnh",Quận Bắc Từ Liêm,Hà Nội,105.78492,21.080495,10000
1548,"Số 897 - 899 đường Âu Cơ, P. Hoà Khánh Bắc",Q. Liên Chiểu,Đà Nẵng,108.158575,16.072873,50000
1549,"Số 9, Lý Thái Tổ, Tổ Dân Phố 04, Thị Trấn Kon Dơng",Huyện Mang Yang,Gia Lai,108.2547897,14.0431819,61000
1550,"Số 91, Tổ dân phố số 7, TT. Quỳnh Côi",H. Quỳnh Phụ,Thái Bình,106.32433,20.651578,6000
1551,"Số 92, tổ 1, khu 4, thị trấn Cái Rồng",huyện Vân Đồn,Quảng Ninh,107.41982,21.069344,1000
1552,"Số 93 Lạc Long Quân, P.Nghĩa Đô",Q.Cầu Giấy,Hà Nội,105.80772,21.050791,10000
1553,"Số 93C Phan Đình Phùng, Phường Yên Đỗ, Thành phố Pleiku",Tỉnh Gia Lai,Gia Lai,107.9965367,13.981421,61000
1554,"Số 97A, đường Trần Phú, Phường Văn Quán, Quận Hà Đông",Thành phố Hà Nội,Hà Nội,105.792447,20.983531,10000
1555,"Số 97C, đường 30 tháng 4, Khu phố 1, P.Mỹ Phước",TX.Bến Cát,Bình Dương,106.58988,11.153273,75000
1556,"Số 98-100-102 đường Hùng Vương, P. 2",TP. Tân An,Long An,106.40594,10.537279,82000
1557,"Số 991, Tổ 6, Thôn Tân Lực, X. Bù Nho",H. Phú Riêng,Bình Phước,106.8729,11.733461,67000
1558,"Số nhà 01, đường Nguyễn Văn Cừ, P. Ngô Quyền",TP. Bắc Giang,Bắc Giang,106.1936876,21.2792473,26000
1559,"Số nhà 08, Tổ 17, Phường Chùa Hang",TP. Thái Nguyên,Thái Nguyên,105.84428,21.625071,24000
1560,"Số nhà 100, đường 3/2, tổ 2, TT. Đồng Văn",H. Đồng Văn,Hà Giang,105.35911,23.277373,20000
1561,"Số nhà 138, khu Hoằng Bó 2, TT. Nước Hai",H. Hòa An,Cao Bằng,106.15296,22.736412,21000
1562,"Số nhà 159 - 161 đường 2 tháng 4, khu phố Thạnh Nghĩa, TT. Thạnh Mỹ",H. Đơn Dương,Lâm Đồng,108.49312,11.760967,66000
1563,"Số nhà 331 đường Nguyễn Trãi, P.Nguyễn Trãi",TP.Hà Giang,Hà Giang,104.9816,22.821293,20000
1564,"Số nhà 464, Đường Cách Mạng Tháng Tám, P. Trung Thành",TP. Thái Nguyên,Thái Nguyên,105.87124,21.545086,24000
1565,"Số nhà 500, Đường Quốc Lộ 18, Tổ 9, Khu 6, Phường Giếng Đáy, Thành phố Hạ Long",Tỉnh Quảng Ninh,Quảng Ninh,107.015906,20.973285,1000
1566,"Số nhà 64-66, TT. Tam Sơn",H. Quản Bạ,Hà Giang,104.99103,23.064776,20000
1567,"Số nhà 669, đường Phan Đình Phùng, P. Duy Tân",TP. Kon Tum,Kon Tum,107.99995,14.362924,60000
1568,"Số T1/68MB, Tổ 1, Khu Phố Bình Thuận 2, Phường Thuận Giao",Thị Xã Thuận An,Bình Dương,106.71575,10.973095,75000
1569,"Tầng 1 Khu thương mai (Tòa nhà chung cư CT4A), Khu đô thị Linh Đàm, P. Đại Kim",Q. Hoàng Mai,Hà Nội,105.8290987,20.9695219,10000
1570,"Tầng 1 Khu thương mai (Tòa nhà chung cư CT4A), Khu đô thị Linh Đàm, P. Đại Kim",Q. Hoàng Mai,Hà Nội,105.8290987,20.9695219,10000
1571,Thị Trấn Bình Đại,Huyện Bình Đại,Bến Tre,106.6891792,10.1957717,86000
1572,Thị trấn Bo,huyện Kim Bôi,Hòa Bình,105.53611,20.673017,36000
1573,thị trấn Hùng Sơn,huyện Lâm Thao,Phú Thọ,105.29226,21.352909,35000
1574,Thị Trấn Mỹ Thọ,Huyện Cao Lãnh,Đồng Tháp,105.696441,10.440889,81000
1575,Thị Trấn Núi Sập,Huyện Thoại Sơn,An Giang,105.2675252,10.2692267,90000
1576,Thị Trấn Thủ Thừa,Huyện Thủ Thừa,Long An,106.40296,10.600601,82000
1577,"Thôn 1, Xã Cộng Hòa",Huyện Quốc Oai,Hà Nội,105.67356,20.978147,10000
1578,"Thôn 84, xã Kim Quan",H. Thạch Thất,Hà Nội,105.56915,21.050788,10000
1579,"Thôn 9, X. Thạch Hòa",H. Thạch Thất,Hà Nội,105.51917,21.026872,10000
1580,"Thôn Bắc Hà 6, TT. Bắc Hà",H. Bắc Hà,Lào Cai,104.29047,22.53556,31000
1581,"Thôn Bầu, Xã Kim Chung",Huyện Đông Anh,Hà Nội,105.77953,21.12904,10000
1582,"Thôn Bầu, Xã Kim Chung",Huyện Đông Anh,Hà Nội,105.77953,21.12904,10000
1583,"Thôn chợ ( Bình Đà) ,Xã Bình Minh",Huyện Thanh Oai,Hà Nội,105.76296,20.8892,10000
1584,"Thôn Đình Trảng, xã Liên Bạt",H. Ứng Hòa,Hà Nội,105.76812,20.738444,10000
1585,"Thôn Đồng Thanh, X. Tân Bình",TP. Thái Bình,Thái Bình,106.31935,20.470328,6000
1586,"Thôn Đông Yên, xã Đông Phong",H. Yên Phong,Bắc Ninh,106.00615,21.189204,16000
1587,"Thôn Giang Liễu, Xã Phương Liễu",H. Quế Võ,Bắc Ninh,106.126109,21.157045,16000
1588,"Thôn Liên Minh, X. Minh Tân",H. Đông Hưng,Thái Bình,106.27812,20.552735,6000
1589,"Thôn Mao Trung, Xã Phượng Mao",H.Quế Võ,Bắc Ninh,106.14578,21.15438,16000
1590,"Thôn Ngọc Chi, Xã Vĩnh Ngọc",Huyện Đông Anh,Hà Nội,105.82789,21.116409,10000
1591,"Thôn Núi Hiểu, Xã Quang Châu, Huyện Việt Yên",Tỉnh Bắc Giang,Bắc Giang,106.107251,21.22475,26000
1592,"Thôn Phan Xá, xã Uy Nỗ",H. Đông Anh,Hà Nội,105.855373,21.1386679,10000
1593,"Thôn Quyển Sơn, Xã Thi Sơn",Huyện Kim Bảng,Hà Nam,105.87292,20.571753,18000
1594,"Thôn Tân Phú Mỹ, Xã Vật Lại",Huyện Ba Vì,Hà Nội,105.40871,21.215215,10000
1595,"Thôn Tế Tiêu, TT.Đại Nghĩa",Huyện Mỹ Đức,Hà Nội,105.74215,20.686116,10000
1596,"Thôn Tế Tiêu, TT.Đại Nghĩa",Huyện Mỹ Đức,Hà Nội,105.74215,20.686116,10000
1597,"Thôn Thái Hòa, xã Bình Phú",H. Thạch Thất,Hà Nội,105.60556,21.023601,10000
1598,"Thôn Thái Phù, Xã Mai Đình",Huyện Sóc Sơn,Hà Nội,105.82995,21.198329,10000
1599,"Thôn Thượng, xã An Châu",H. Sơn Động,Bắc Giang,106.84617,21.333623,26000
1600,"Thôn Thụy Khuê, Xã Sài Sơn",Huyện Quốc Oai,Hà Nội,105.64554,21.026564,10000
1601,"Thôn Vân Lũng, X. An Khánh",H. Hoài Đức,Hà Nội,105.71987,21.005226,10000
1602,"Thôn Vị Thủy, Xã Thanh Mỹ, Thị Xã Sơn Tây",Thành phố Hà Nội,Hà Nội,105.467867,21.112933,10000
1603,"Thôn Vĩnh Trà, Xã Nam Trung",Huyện Tiền Hải,Thái Bình,106.54421,20.344121,6000
1604,"Thôn Yên Thành, X. Tản Lĩnh",H. Ba Vì,Hà Nội,105.38821,21.121695,10000
1605,"Thửa đất số 1 và thửa số 2, Tờ bản đồ số 36, khóm Mỹ Trung, Phường Mỹ Phú, Thành phố Cao Lãnh",Tỉnh Đồng Tháp,Đồng Tháp,105.64623,10.474928,81000
1606,"Thửa đất số 11, tờ bản đồ PL13, phố Nguyễn Hữu Tiến, thị trấn Đồng Văn, huyện Duy Tiên, tỉnh Hà Nam ( nay là phường Đồng Văn",thị xã Duy Tiên,Hà Nam,105.924123,20.643571,18000
1607,"Thửa đất số 160, Tờ bản đồ số 10, Phường Đức Long, Thành phố Phan Thiết",Tỉnh Bình Thuận,Bình Thuận,108.0887933,10.9192511,77000
1608,"Thửa đất số 19-20 Thôn Đạo, Xã Tân An",H. Yên Dũng,Bắc Giang,106.27322,21.261798,26000
1609,"Thửa đất số 2192 và 3496, tờ bản đồ số 01, TT. Bến Lức",H. Bến Lức,Long An,106.49481,10.626836,82000
1610,"Thửa đất số 25-27-30-31, Tờ bản đồ số 31, Thị Trấn Thanh Bình, Huyện Thanh Bình",Tỉnh Đồng Tháp,Đồng Tháp,105.4887087,10.5586044,81000
1611,"Thửa đất số 253 và 3496, tờ bản đồ số 2, xã Trường Bình",H. Cần Giuộc,Long An,106.66522,10.601015,82000
1612,"Thửa đất số 482, thôn Thị An, TT. Hưng Nhân",H. Hưng Hà,Thái Bình,106.14732,20.614114,6000
1613,"Thửa đất số 49 và 50, tờ bản đồ số 45, Thị Trấn Đồi Ngô",Huyện Lục Nam,Bắc Giang,106.38147,21.301204,26000
1614,"Thửa đất số 76 và 77, tờ bản đồ số 2C, ấp 05, xã Long Hòa",H. Cần Đước,Long An,106.58988,10.582162,82000
1615,"Thửa đất số 97, tờ bản đồ số 34, ấp Thạnh Trị Hạ, Thị Trấn Thạnh Phú, Huyện Thạnh Phú",Tỉnh Bến Tre,Bến Tre,106.514045,9.947801,86000
1616,"Tiểu khu Mỹ Lâm, Thị trấn Phú Xuyên",H.Phú Xuyên,Hà Nội,105.91313,20.737155,10000
1617,"Tổ 1, ấp Phước Hưng, xã Mỹ Xuân",H. Tân Thành,Bà Rịa - Vũng Tàu,107.04141,10.649325,78000
1618,"Tổ 1, Khóm Châu Long 1, P. Vĩnh Mỹ",TP. Châu Đốc,An Giang,105.1324654,10.7030327,90000
1619,"Tổ 109, khu 8B, P. Cẩm Phú",TP. Cẩm Phả,Quảng Ninh,107.33645,21.009908,1000
1620,"Tổ 16, P. Tân Long",TP. Thái Nguyên,Thái Nguyên,105.79174,21.622104,24000
1621,"Tổ 2, Khu 5B, phường Cẩm Trung",thành phố Cẩm Phả,Quảng Ninh,107.26918,21.004704,1000
1622,"Tổ 2, Thị Trấn Đông Hưng",H.Đông Hưng,Thái Bình,106.3558638,20.5503783,6000
1623,"Tổ 3, Đường Trường Chinh, Thị Trấn Việt Quang, Huyện Bắc Quang",Tỉnh Hà Giang ( Ngã 3 Quang Bình ),Hà Giang,104.80717,22.41613,20000
1624,"Tổ 3, P. Cẩm Thạch",TP. Cẩm Phả,Quảng Ninh,107.25206,21.010105,1000
1625,"Tổ 3, TT. Yên Minh",H. Yên Minh,Hà Giang,105.13949,23.119105,20000
1626,"Tổ 39, A. Bình Phú 1, X. Bình Hòa",H. Châu Thành,An Giang,105.34243,10.463075,90000
1627,"Tổ 4, thị trấn Mèo Vạc",huyện Mèo Vạc,Hà Giang,105.41005,23.164098,20000
1628,"Tổ 4A, Thị trấn Sa Pa",H.Sa Pa,Lào Cai,103.85037,22.337286,31000
1629,TỔ 5 THỊ TRẤN MÙ CĂNG CHẢI ,HUYỆN MÙ CĂNG CHẢI ,Yên Bái,104.08687,21.851676,33000
1630,"Tổ 6, đường Hùng Vương, TT. Kiến Giang",H. Lệ Thủy,Quảng Bình,106.79218,17.222823,47000
1631,"Tổ 6, khu 2, P. Quang Hanh",TP. Cẩm Phả ,Quảng Ninh,107.2358,21.008627,1000
1632,"Tổ 8, Số 165 Đường Nguyễn Thái Học, Phường Nguyễn Thái Học",TP Yên Bái,Yên Bái,104.8822,21.706294,33000
1633,"Tổ dân phố 3, P.Mường Thanh",Tp.Điện Biên Phủ,Điện Biên,103.01586,21.379902,32000
1634,"Tổ dân phố 4, Đường Do Lộ, P. Yên Nghĩa",Q. Hà Đông,Hà Nội,105.74727,20.949372,10000
1635,"Tổ dân phố 5, phường Đoàn Kết",TP.Lai Châu,Lai Châu,103.459498,22.399515,30000
1636,"Tổ dân phố 5, TT. Mường Chà",H. Mường Chà,Điện Biên,103.09359,21.758943,32000
1637,"Tổ dân phố Phú Cường 1, TT.Phố Lu",H.Bảo Thắng,Lào Cai,104.18769,22.319167,31000
1638,"Tổ dân phố Trung Bình, P. Dương Nội, Q. Hà Đông",TP. Hà Nội,Hà Nội,105.73599,20.993249,10000
1639,"Truông Tre, KP. Nhị Đồng 2, P. Dĩ An",TX. Dĩ An,Bình Dương,106.76757,10.895821,75000
1640,TT. Lập Thạch,H. Lập Thạch,Vĩnh Phúc,105.461764,21.415576,15000
1641,TT. Mỹ An,H. Tháp Mười,Đồng Tháp,105.847631,10.521361,81000
1642,TT. Thanh Nê,H. Kiến Xương,Thái Bình,106.43828,20.388685,6000
1643,TT. Tràm Chim,H. Tam Nông,Đồng Tháp,105.56015,10.670793,81000
1644,X. Mỹ Long,H. Cao Lãnh,Đồng Tháp,105.696441,10.440889,81000
1645,Xã An Hoá,H. Châu Thành,Bến Tre,106.357024,10.300543,86000
1646,Xã An Long,H. Tam Nông,Đồng Tháp,105.381045,10.700729,81000
1647,Xã Tân Thạnh,Huyện Châu Thành,Bến Tre,106.3611297,10.30979,86000
1648,"Xóm 1, Ngã tư Canh, thôn An Trai, xã Vân Canh",H. Hoài Đức,Hà Nội,105.73848,21.035313,10000
1649,"Xóm Trần Phú, Thôn Canh Hoạch, X. Dân Hòa",H. Thanh Oai,Hà Nội,105.7761,20.808838,10000
1650,Điện máy Xanh Tổ dân phố 6 thị trấn Hoà Thuận,huyện Phục Hoà,Cao Bằng,106.5142744,22.5311801,21000
1651,Điện máy Xanh Thửa đất số 279 tờ bản đồ 61 xã Thành Công,thị xã Phổ Yên,Thái Nguyên,105.808327,21.401194,24000
1652,Điện máy Xanh Xã Nam Hoà,huyện Đồng Hỷ,Thái Nguyên,105.839441,21.615586,24000
1653,Điện máy Xanh ĐMS_QNG_QNG,Tịnh Châu,Quảng Ngãi,108.8433364,15.1573626,53000
1654,419 Nguyễn Văn Linh Phường Trương Quang Trọng,TP Quảng Ngãi,Quảng Ngãi,108.7974,15.148761,53000
1655,Điện máy Xanh Số 811 - 813 Hùng Vương,TT. Plei kần,Kon Tum,107.6921,14.706855,60000
1656,Điện máy Xanh Xã Tân Lâm,huyện Di Linh,Lâm Đồng,107.98603,11.67553,66000
1657,Số 144 - Tổ 8 - Đường Trần Hưng Đạo - Phường Trần Phú ,TP. Hà Giang,Hà Giang,104.98534,22.830748,20000
1658,"Điện máy Xanh Số 239 Quốc lộ 37, TT. Thắng",H. Hiệp Hòa,Bắc Giang,105.98282,21.358358,26000
